{"type":"FeatureCollection","properties":{"sourceKind":"google-mymaps","sourceId":"google-mymaps:1GobqFwJp0QiRJcMYpBKIusIVxUI43kE","upstreamUrl":"https://www.google.com/maps/d/viewer?mid=1GobqFwJp0QiRJcMYpBKIusIVxUI43kE","acquisition":"google-direct-kml","snapshotAt":"2026-08-23T07:46:02.961Z","sourceFeatureCount":30,"bounds":[18.75,42.2,23.05,46.2]},"features":[{"type":"Feature","geometry":{"type":"Point","coordinates":[20.4695289,44.8107168]},"properties":{"name":"Церковь Святой Троицы","description":"Свято-Троицкий храм в Белграде: Святая охрана русского наследия. В центре столицы Сербии, в Белграде, расположен русский Свято-Троицкий храм - место, где сливаются духовная история и культурное наследие. Построенный в 1924 году, этот храм несет на себе память о важных событиях и святых личностях. Внутри храма хранится часть шарфа святого мученика цесаревича Алексея Романова, символизирующая священное продолжение династии Романовых. Но не только реликвии привлекают внимание к этому храму. Здес…"}},{"type":"Feature","geometry":{"type":"Point","coordinates":[20.568291,43.7138348]},"properties":{"name":"Церковь Святого Богоявления в п. Врдила","description":"Церковь Святого Богоявления в поселке Врдила, недалеко от города Краљево, стоит как культурное наследие и символ культуры. У этой церкви увлекательная история: Была построена в 1819 году, а в 1922 году прошла реконструкцию из-за неблагоприятных условий строительства. Архитектуру и внешний вид церкви задумал русский архитектор Михаил Глущенко, придавший ей художественное воплощение, необычное для этого района. Внутренняя ширина навы - 5,28 метра (без боковых апсид), а длина нефа - 8,8 метра. В…"}},{"type":"Feature","geometry":{"type":"Point","coordinates":[20.3506051,43.8913677]},"properties":{"name":"Памятник и Мемориал бойцам Красной Армии","description":"На местном кладбище в поселке Трбушани, всего в 6 километрах от города Чачак, расположен памятник, где похоронены 35 бойцов Красной Армии. В деревне Циганье, которая находится в 13 километрах от Чачака, установлен Мемориал, посвященный памяти 11 воинов Красной Армии."}},{"type":"Feature","geometry":{"type":"Point","coordinates":[22.6610927,43.0471532]},"properties":{"name":"История русских монахов в монастыре Св. Богородицы","description":"В монастыре Святой Богородицы, который расположен недалеко от села Суково в 18 километрах к востоку от Пирота, история русских монахов имеет свои особенности. В 1920-х годах русские монахи из святой общины временно обосновались в этом монастыре и внесли значительный вклад в его развитие. Благодаря пожертвованиям русских эмигрантов они смогли построить новую часовню, колокольню и жилые помещения. Часовня, возведенная исключительно на средства русских эмигрантов из Пирота, была завершена в 1925…"}},{"type":"Feature","geometry":{"type":"Point","coordinates":[21.3685483,43.7236792]},"properties":{"name":"Памятник графу Орурку и русским воинам","description":"В селе Варварин, под Крушевцем, в Сербии, на месте одной из важнейших сражений Первого сербского восстания, был открыт памятник графу Йосифу Корниловичу Орурку. Эта битва произошла в сентябре 1810 года и имела цель остановить дальнейшее продвижение турецкой армии, которая, под руководством Хуршид-паши, захватила Крушевац и всю Крушевачку область. Сербские повстанцы и русская царская армия, возглавляемая графом Орурком, сопротивлялись османским войскам. На праздновании столетия Варваринской би…"}},{"type":"Feature","geometry":{"type":"Point","coordinates":[19.65763,46.0969581]},"properties":{"name":"Русский след в истории Юридического факультета","description":"Юридический факультет в городе Суботица, основанный в 1920 году, представлял собой первое высшее учебное заведение в Воеводине и был тесно связан с Белградским университетом. Здесь проводили занятия выдающиеся специалисты, включая С.В. Троицкого, Г.В. Демченко, М.П. Чубинского, П.Б. Струве, К.М. Смирнова и Федора Тараноского. Секретарем факультета был Федор Рдекин, опытный юрист. За период с 1920 по 1941 год из общего числа 4046 студентов факультета, 235 человек имели русское происхождение. П…"}},{"type":"Feature","geometry":{"type":"Point","coordinates":[20.4737889,45.8311778]},"properties":{"name":"Первая русско-сербская женская гимназия и другое","description":"Первая русско-сербская женская гимназия с внутренним институтом, просуществовавшая с 1921 по 1931 год в Королевстве сербов, хорватов и словенцев, является отражением уникального культурного наследия. Ее основательницей стала Наталия Эрдели - выпускница Смольного института и актриса Александринского театра в Петрограде. Гимназия, созданная по образцу уважаемого Смольного института, была названа в честь прочной дружбы между Россией и Сербией. Хотя всего лишь несколько сербских девочек посещали …"}},{"type":"Feature","geometry":{"type":"Point","coordinates":[20.9302332,44.6619928]},"properties":{"name":"Лазарет московских старообрядцев, приемлющих священство","description":"Во время Сербско-турецкой войны в небольшом городе Смедерево был организован Московский лазарет, принадлежащий медицинско-санитарной миссии Российского общества Красного креста. Этот \"Русский лазарет\" обеспечивал медицинскую помощь больным и раненым военнослужащим, а также другим нуждающимся. За короткий срок существования, с августа по ноябрь 1876 года, лазарет смог помочь 1390 раненым и больным, а также 400 пациентам, и был признан незаменимым медицинским учреждением. По окончании войны мис…"}},{"type":"Feature","geometry":{"type":"Point","coordinates":[19.9335707,45.202464]},"properties":{"name":"Сремски-Карловци: исторический русский след","description":"В 1725 году в городе Карловци (ныне Сремски-Карловци) была основана первая русско-сербская школа по указу императрицы Екатерины. Это стало возможным благодаря священнику Максиму Суворову, чьи ученики затем распространили образование по всей Сербии. В 1743 году Сербский патриарх Арсений Йованович Шакабента пригласил русских иконописцев в Карловацкую митрополию. Сам барон Петр Николаевич Врангель проживал в Сремских Карловцах с 1922 по 1926 годы, вместе с ним еще около пятидесяти членов русской…"}},{"type":"Feature","geometry":{"type":"Point","coordinates":[19.1751206,44.4899175]},"properties":{"name":"Мемориальная доска на месте гибели русской сестры милосердия в 1914 г.","description":"В Гучево на Эминовых водах, на высоте 708 метров, где 3 октября 1914 года во время знаменитой \"битвы среди облаков\" погибла русская медсестра Дарья Александровна Коровкина, установлен памятник работы академика Драголюба Мирковича из Биелины. Дарья Коровкина, прибывшая добровольцем в Сербию в возрасте 26 лет, изначально работала в госпитале в Валево, оказывая помощь раненым. Горя желанием быть полезной на передовой, она добровольно отправилась на фронт на реку Дрина. Трагически, её жизнь оборв…"}},{"type":"Feature","geometry":{"type":"Point","coordinates":[19.8227056,45.2396085]},"properties":{"name":"Нови-Сад: исторический русский след","description":"Нови-Сад, с его близостью к столице королевства Белграду и православному центру русской эмиграции Сремским Карловцам, стал важной точкой для русских эмигрантов после революции. В 1921 году из 40 тысяч населения Нови-Сада около 2 тысяч были выходцами из Российской Империи. Среди них были офицеры, казаки и представители интеллигенции, включая дворянские семьи Толстых, Воронцовых, и Волконских. Большинство русских эмигрантов осело в район Йодна-Баня. Одним из первых организаций, занимавшихся под…"}},{"type":"Feature","geometry":{"type":"Point","coordinates":[21.8954069,43.320926]},"properties":{"name":"Ниш: исторический русский след","description":"Эмигранты, путешествующие из Константинополя через Софию или греческие острова Лемнос и Македонию, часто выбирали Ниш своим временным или постоянным местом жительства. Это привело к формированию русской колонии в этом сербском городе. Мастерство российских архитекторов. Александр Медведев (родился в 1900 году в Мелитополе, Россия) внес значительный вклад в архитектурное лицо Ниша. Получив образование в Белграде, он переехал в Бањалуку, а позже в Ниш, где основал проектную студию. Среди его пр…"}},{"type":"Feature","geometry":{"type":"Point","coordinates":[20.3906166,45.3834283]},"properties":{"name":"Зренянин: исторический русский след","description":"В начале XX века значительный вклад русских эмигрантов в развитие Зренянина ( в тогдашний Великий Бечкерек) в экономическом, образовательном и культурном аспектах был огромным. Русская колония, состоявшая из сотен людей, прибывших из России вследствие войны и революции, играла ключевую роль в формировании новых ценностей в зренянинском обществе. После большевистской революции в Зренянин прибыли сотни русских беженцев, включая выдающихся личностей как князь Шереметев и художник А.В. Биценко. Э…"}},{"type":"Feature","geometry":{"type":"Point","coordinates":[21.4243849,44.9027113]},"properties":{"name":"Бела-Црква: русское историческое наследие","description":"Бела-Црква – город существенного значения для сохранения русского исторического наследия, где находились штаб-квартиры важных российских эмигрантских учреждений. Среди них были учебные заведения, такие как Донской Мариинский институт благородных девиц из Новочеркасска, Николаевское Кавалерийское училище из Петрограда и Первый русский кадетский корпус. Первый русский Кадетский корпус \"Великого Князя Константина Константиновича\" был организован в Сараево в 1920 году и начал свою работу с 263 ку…"}},{"type":"Feature","geometry":{"type":"Point","coordinates":[21.2949931,45.1188369]},"properties":{"name":"Вршац: памятник «Офицерам и солдатам Императорской Русской Армии и Русским людям погребенным здесь","description":"В 1927 году правление русской колонии воздвигло мемориальный памятник-обелиск на православном кладбище города Вршац. Первоначально памятник был украшен двуглавым орлом на верхушке. Однако в период социалистической эры орел был удален и заменен крестом. Изначально памятник был посвящен «Офицерам и солдатам Императорской Русской Армии и Русским людям погребенным здесь», но позже на обелиске начали высекать имена и годы умерших русских, чьи могилы оставались без надгробий. К сожалению, на памятн…"}},{"type":"Feature","geometry":{"type":"Point","coordinates":[21.2985362,45.1198154]},"properties":{"name":"Библиотека Общества русских офицеров в Вршаце в городской библиотеке города","description":"Библиотека Общества русских офицеров в Вршаце была учреждена Союзом русских офицеров со всеми типичными характеристиками эмигрантских библиотек в Королевстве СХС. Сейчас эта библиотека является частью Городской библиотеки Вршаца и называется Библиотека \"Общество русских офицеров - Вршацское отделение\". В коллекции библиотеки 1019 книг, из них 855 изданий с оттиском \"Общество русских офицеров - Вршацское отделение\" и 83 с оттиском других русских колоний. Также сохранены 36 выпусков периодики. …"}},{"type":"Feature","geometry":{"type":"Point","coordinates":[21.6228275,43.4934872]},"properties":{"name":"Русский мемориальный храм Святой Троицы ( в память Н. Раевского)","description":"На юге Сербии, в Поморавье, поблизости от села Горни Адровац, стоит уединенный однокупольный храм, построенный в стиле, знакомом для русских - византийском. Названный изначально во имя Святой Троицы, храм сегодня известен местным жителям как \"русская церковь\" или \"церковь Вронского\". Этот храм напоминает о событиях сербо-турецкой войны, произошедших почти 130 лет назад. Сражение, в котором участвовали тысячи русских добровольцев, включая генерала М.Г. Черняева и отставного полковника Николая …"}},{"type":"Feature","geometry":{"type":"Point","coordinates":[19.9424585,45.1983924]},"properties":{"name":"Врангель Петр Николаевич. Памятник \"Чёрному барону\".","description":"Генерал Врангель отличался выдающимися военными способностями и пользовался глубоким уважением и любовью своих солдат. В народе хранятся много легенд о его храбрости, благородстве и подвигах. В 2007 году в Сремских Карловцах по инициативе и на средства петербуржца В.П. Лебедева был установлен памятник «Черному барону». Скульптуру создал известный петербургский художник Василий Аземша. На высоком квадратном постаменте с золотой надписью «Барон Врангель Петр Николаевич, генерал-лейтенант, прави…"}},{"type":"Feature","geometry":{"type":"Point","coordinates":[20.460946,44.8096325]},"properties":{"name":"\"Русский дом\" - Российский центр науки и культуры","description":"\"Русский дом\". Роскошный Дом, возведенный при участии средств русских эмигрантов и поддержки правительства Югославии, стал символом величия и культурного богатства. Его создатель, гениальный военный инженер Василий Баумгартен, ранее знаменитый по проекту строительства Генерального штаба на улице Князя Милоша в Белграде, воплотил в Русском Доме имя Императора Николая I. Открытый 9 апреля 1933 года, этот дом по сей день продолжает являться неизменным культурным и духовным центром для русских за…"}},{"type":"Feature","geometry":{"type":"Point","coordinates":[20.6455509,44.8719965]},"properties":{"name":"Фонд Библиотеки русской колонии в Городской библиотеке г. Панчево","description":"Фонд Библиотеки русской колонии г. Панчево на данный момент размещен в Городской библиотеке г. Панчево под названием \"Библиотека в библиотеке\" или \"corpus separatum\". Этот ценный фонд наследия русских в Сербии попал в состав Городской библиотеки после распада Русской колонии как структурированного сообщества. В Городской библиотеке в г. Панчево сохранился в двух томах подлинный каталог книг Библиотеки русской колонии. На данный момент в фонде библиотеки русской колонии в Городской библиотеке …"}},{"type":"Feature","geometry":{"type":"Point","coordinates":[22.0134466,42.5893034]},"properties":{"name":"\"Русский путь\" - дорога от Вранье до Босилеграда","description":"\"Русский путь\". Русский памятник в Корбевце, находящемся на территории города Вранье, на Бесной Кобыле, был установлен в знак признания русским, которые строили дорогу \"русский путь\" от Вранье до Босилеграда. \"Русский путь\" был создан в период между 1921 и 1925 годами. Эта дорога начинается от поселка Корбевац около Враньской бани, проходит через Себевранье, Клисурицу, Несврту, Кривую Фею, и далее через Бесную Кобиль до Босилеграда, имея общую протяженность 70 километров. Ее строили около 500…"}},{"type":"Feature","geometry":{"type":"Point","coordinates":[20.4872834,44.8092471]},"properties":{"name":"Русский некрополь в Белграде","description":"Русский некрополь. На территории Нового кладбища в Белграде, самом старейшем кладбище в Сербской столице, расположены русские секторы, где погребены эмигранты первой и второй волн. Среди погребенных на этих участках - военные, духовные лидеры, государственные деятели, а также представители русской науки и культуры, которые оказали значительное влияние на различные сферы общественной жизни в Сербии. Всего на русских участках компактно расположены 755 могил, где покоятся свыше 3 тысяч человек. …"}},{"type":"Feature","geometry":{"type":"Point","coordinates":[20.6467007,44.8732928]},"properties":{"name":"\"Русская больница\". Русский санаторий Красного Креста Короля-Витязя Александра I Объединителя","description":"\"Русская больница\". Русский санаторий Красного Креста Короля-Витязя Александра I Объединителя. 10 марта 1920 года была учреждена Русская больница-санаторий, расположенная в здании нынешнего Молодежного центра в Панчево. Она стала одним из лучших бесплатных медицинских учреждений в Королевстве Югославия и окружающем регионе. Русские врачи и сестры-благотворители обеспечили оборудование здания собранными добровольными пожертвованиями, создав три отделения — хирургическое, терапевтическое, гинек…"}},{"type":"Feature","geometry":{"type":"Point","coordinates":[20.6512461,44.8763352]},"properties":{"name":"Русские могилы на старом православном кладбище в городе Панчево","description":"Русские могилы на старом православном кладбище в городе Панчево, представляют собой уникальное историческое наследие. Метрическая книга Архиерейского Синода РПЦ, ведущая учет умерших с 1920 по 1957 годы, документирует 1060 русских, похороненных в центральной части кладбища Красного Креста. Это святилище вечного покоя стало последним приютом для многих выдающихся представителей русской эмиграции в Панчево, среди которых архиепископ Челябинский и Троицкий Гавриил, а также бывший комендант Порт-…"}},{"type":"Feature","geometry":{"type":"Point","coordinates":[21.146936,44.1655565]},"properties":{"name":"Мильков монастырь","description":"Один из девяти монастырей, расположенный на правом берегу реки Велика-Морава, который вместе с остальными образует комплекс, называемый Ресавская Святая Гора. Мильков монастырь получил свое нынешнее имя во второй половине 18 века; ранее он назывался Буковица. Неизвестно, кто основал монастырь Буковица, но первый письменный документ о нем датируется 1374 годом. Много раз монастырь был разграблен и сожжен. Около 1820 года монастырь частично восстановлен и продолжает духовную деятельность. Монас…"}},{"type":"Feature","geometry":{"type":"Point","coordinates":[20.5085168,44.785787]},"properties":{"name":"Калмыцкий буддийский храм в Белграде.","description":"Калмыцкий буддийский храм в Белграде (серб. Калмички будистички храм у Београду) — это исторический храм, который действовал с 1928 по 1944 годы и обслуживал духовные нужды калмыцких эмигрантов, бежавших от Гражданской войны в России. Храм был построен в 1928—1929 годах. Торжественно открыт он был в декабре 1929 года. А частично разрушен во время Битвы за Белград. Впоследствии он был снесён. Часто называется «первым буддийским храмом в Европе» и входит в число самых первых храмов тибетского б…"}},{"type":"Feature","geometry":{"type":"Point","coordinates":[20.4599292,44.8060292]},"properties":{"name":"Здание Министерства финансов Королевства Югославия. Архитектор: Николай Краснов.","description":"Здание работы знаменитого русского архитектора Николая Петровича Краснова, важнейшего представителя академического историзма в сербской межвоенной архитектуре. В связи с тем, что здание имеет значение как антологическое произведение белградской академической архитектуры межвоенного периода, оно представляет собой большую культурную ценность. Здание было построено между 1926 и 1928 годами по проекту архитектора Николая Краснова, как автора первоначального проекта здания, и более поздней пристр…"}},{"type":"Feature","geometry":{"type":"Point","coordinates":[20.4541444,44.7638176]},"properties":{"name":"Дворцовая церковь Андрея Первозванного","description":"Расположена недалеко от Королевского дворца и соединена с дворцом колоннадой из каменных колонн. Церковь из списка достопримечательностей Белграда была построена по образцу Королевской церкви Милютина в Студенице и церкви монастыря Андрияш в Треске. Интерьер часовни расписан Русскими художниками."}},{"type":"Feature","geometry":{"type":"Point","coordinates":[20.4491511,44.7703232]},"properties":{"name":"Королевский дворец в Дедине. Архитектор Николай Краснов.","description":"Королевский дворец в Дедине возведен в период с 1924 по 1929 годы по указу Короля Александра I на его личные средства. Он служил домом для королей Александра I и Петра II, а сегодня является резиденцией Его Королевского Высочества наследного принца Александра II и его семьи. Проект этого внушительного сооружения в сербско-византийском стиле разработан архитектором Живоином Николичем и академиком Николаем Красновым из Королевской Академии. Дворец, построенный из белого камня, включает часовню …"}},{"type":"Feature","geometry":{"type":"Point","coordinates":[20.4659516,44.8117192]},"properties":{"name":"Дом Национального собрания Республики Сербия. Интерьеры архитектора Николая Краснова.","description":"Расположенный на площади Николы Пашича в Белграде, этот исторический комплекс изначально был известен как Ассамблея Королевства Югославии с 1936 по 1945 год. Затем здание получило название Федерального собрания, которое сохранялось во времена существования Социалистической Федеративной Республики Югославии и позже Федеративной Республики Югославии. После распада Государственного союза Сербии и Черногории 23 июля 2006 года, здание стало официальной резиденцией Национального собрания Республики…"}}]}
