{"type":"FeatureCollection","properties":{"sourceKind":"google-mymaps","sourceId":"google-mymaps:1kjRg87uMqwqNh0re4t7vw9XE79DLx7w","upstreamUrl":"https://www.google.com/maps/d/viewer?mid=1kjRg87uMqwqNh0re4t7vw9XE79DLx7w","acquisition":"google-kml-plus-viewer-coordinates","snapshotAt":"2026-08-23T07:46:03.539Z","sourceFeatureCount":32,"bounds":[19.65,44.68,20.68,45.42]},"features":[{"type":"Feature","geometry":{"type":"Point","coordinates":[20.459908,44.816623]},"properties":{"name":"Национальный музей Сербии","description":"Address: Trg Republike 1a, 11000 Belgrade, Serbia\nCity: Belgrade\nLayer: Белград: древность и Средневековье\nPeriod: От древности до XX века\nCategory: Museum\nWhy visit: Главная стартовая точка для истории Сербии: археология, античность, Средневековье, искусство.\nOfficial URL: https://www.narodnimuzej.rs/permanent-exhibition?lang=en\nNotes: Начать маршрут здесь","address":"Trg Republike 1a, 11000 Belgrade, Serbia"}},{"type":"Feature","geometry":{"type":"Point","coordinates":[20.4565819,44.821714199999995]},"properties":{"name":"Галерея фресок","description":"Address: Cara Uroša 20, 11000 Belgrade, Serbia\nCity: Belgrade\nLayer: Белград: древность и Средневековье\nPeriod: Средневековье\nCategory: Museum\nWhy visit: Копии сербских и византийских фресок, средневековая скульптура и эпиграфика.\nOfficial URL: https://www.narodnimuzej.rs/visit-us/gallery-of-frescoes?lang=en\nNotes: Проверить статус перед визитом","address":"Cara Uroša 20, 11000 Belgrade, Serbia"}},{"type":"Feature","geometry":{"type":"Point","coordinates":[20.4504456,44.8235947]},"properties":{"name":"Военный музей","description":"Address: Kalemegdan bb, 11158 Belgrade, Serbia\nCity: Belgrade\nLayer: Белград: древность и Средневековье\nPeriod: Средневековье — XX век\nCategory: Museum\nWhy visit: Военная история Сербии и Югославии, от ранних периодов до 1990-х.\nOfficial URL: https://www.muzej.mod.gov.rs/eng/35/stalna-postavka-35\nNotes: На территории Калемегдана","address":"Kalemegdan bb, 11158 Belgrade, Serbia"}},{"type":"Feature","geometry":{"type":"Point","coordinates":[20.450191999999998,44.824118399999996]},"properties":{"name":"Белградская крепость","description":"Address: Belgrade Fortress, Kalemegdan, Belgrade, Serbia\nCity: Belgrade\nLayer: Белград: древность и Средневековье\nPeriod: Римский период — Османский период\nCategory: Fortress\nWhy visit: Главное историческое место Белграда: римские, средневековые, османские и австрийские слои.\nOfficial URL: https://www.beogradskatvrdjava.co.rs/?lang=en\nNotes: Лучше идти пешком через Калемегдан","address":"Belgrade Fortress, Kalemegdan, Belgrade, Serbia"}},{"type":"Feature","geometry":{"type":"Point","coordinates":[20.447924699999998,44.8273192]},"properties":{"name":"Башня Небойша","description":"Address: Nebojsa Tower, Belgrade Fortress, Belgrade, Serbia\nCity: Belgrade\nLayer: Белград: древность и Средневековье\nPeriod: XV век, Османский период\nCategory: Historic site\nWhy visit: Оборонительная башня Нижнего города, позднее тюрьма османского периода.\nOfficial URL: https://www.beogradskatvrdjava.co.rs/%D0%BA%D1%83%D0%BB%D0%B0-%D0%BD%D0%B5%D0%B1%D0%BE%D1%98%D1%88%D0%B0/?lang=en\nNotes: Проверить часы работы","address":"Nebojsa Tower, Belgrade Fortress, Belgrade, Serbia"}},{"type":"Feature","geometry":{"type":"Point","coordinates":[20.4562897,44.8198729]},"properties":{"name":"Этнографический музей","description":"Address: Studentski trg 13, 11000 Belgrade, Serbia\nCity: Belgrade\nLayer: Белград: османский и городской быт\nPeriod: XIX–XX век\nCategory: Museum\nWhy visit: Быт, одежда, хозяйство, традиционная культура и переход от османского к европейскому городу.\nOfficial URL: https://etnografskimuzej.rs/en/\nNotes: Хорошо совмещается с Дорчолом","address":"Studentski trg 13, 11000 Belgrade, Serbia"}},{"type":"Feature","geometry":{"type":"Point","coordinates":[20.460523,44.825215799999995]},"properties":{"name":"Дорчол","description":"Address: Dorćol, Belgrade, Serbia\nCity: Belgrade\nLayer: Белград: османский и городской быт\nPeriod: Османский и многоэтничный Белград\nCategory: District\nWhy visit: Исторический район старого Белграда: османский, еврейский, торговый и городской слой.\nOfficial URL: \nNotes: Маршрут пешком","address":"Dorćol, Belgrade, Serbia"}},{"type":"Feature","geometry":{"type":"Point","coordinates":[20.3687009,44.853134399999995]},"properties":{"name":"Земун","description":"Address: Zemun, Belgrade, Serbia\nCity: Belgrade\nLayer: Белград: османский и городской быт\nPeriod: Габсбургская монархия\nCategory: District\nWhy visit: Центральноевропейский слой Белграда, бывший пограничный город Австро-Венгрии.\nOfficial URL: \nNotes: Подняться к Гардошу","address":"Zemun, Belgrade, Serbia"}},{"type":"Feature","geometry":{"type":"Point","coordinates":[20.4098181,44.848303099999995]},"properties":{"name":"Башня Гардош","description":"Address: Gardoš Tower, Zemun, Belgrade, Serbia\nCity: Belgrade\nLayer: Белград: османский и городской быт\nPeriod: Австро-Венгрия\nCategory: Historic site\nWhy visit: Хорошая точка для понимания Земуна как отдельного исторического города.\nOfficial URL: \nNotes: Вид на Дунай и Земун","address":"Gardoš Tower, Zemun, Belgrade, Serbia"}},{"type":"Feature","geometry":{"type":"Point","coordinates":[20.4424331,44.7805244]},"properties":{"name":"Резиденция князя Милоша","description":"Address: Bulevar Patrijarha Pavla 2, Topčider, Belgrade, Serbia\nCity: Belgrade\nLayer: Белград: XIX век\nPeriod: Сербская революция, XIX век\nCategory: Museum\nWhy visit: Экспозиция о Сербии 1804–1903, восстаниях, Карагеоргии, Милоше Обреновиче и формировании государства.\nOfficial URL: https://imus.org.rs/en/konak-kneza-milosa/\nNotes: Топчидер","address":"Bulevar Patrijarha Pavla 2, Topčider, Belgrade, Serbia"}},{"type":"Feature","geometry":{"type":"Point","coordinates":[20.452192999999998,44.8171684]},"properties":{"name":"Конак княгини Любицы","description":"Address: Kneza Sime Markovića 8, 11000 Belgrade, Serbia\nCity: Belgrade\nLayer: Белград: XIX век\nPeriod: XIX век\nCategory: Museum\nWhy visit: Городской быт первой половины XIX века и переход от османского к европейскому Белграду.\nOfficial URL: https://www.mgb.org.rs/visit/details/25\nNotes: Рядом с центром","address":"Kneza Sime Markovića 8, 11000 Belgrade, Serbia"}},{"type":"Feature","geometry":{"type":"Point","coordinates":[20.4582272,44.820836799999995]},"properties":{"name":"Музей Вука и Доситея","description":"Address: Gospodar Jevremova 21, 11000 Belgrade, Serbia\nCity: Belgrade\nLayer: Белград: XIX век\nPeriod: Просвещение, язык, XIX век\nCategory: Museum\nWhy visit: Вук Караджич, Доситей Обрадович, реформа языка и сербское просвещение.\nOfficial URL: https://www.narodnimuzej.rs/visit-us/museum-of-vuk-and-dositej-visit?lang=en\nNotes: Дорчол","address":"Gospodar Jevremova 21, 11000 Belgrade, Serbia"}},{"type":"Feature","geometry":{"type":"Point","coordinates":[20.4393344,44.7789917]},"properties":{"name":"Топчидерский парк","description":"Address: Topčider Park, Belgrade, Serbia\nCity: Belgrade\nLayer: Белград: XIX век\nPeriod: XIX век\nCategory: Park / Historic area\nWhy visit: Историческая зона Обреновичей рядом с резиденцией князя Милоша.\nOfficial URL: \nNotes: Совместить с резиденцией","address":"Topčider Park, Belgrade, Serbia"}},{"type":"Feature","geometry":{"type":"Point","coordinates":[20.451971699999998,44.787947200000005]},"properties":{"name":"Музей Югославии","description":"Address: Mihaila Mike Jankovića 6, Belgrade, Serbia\nCity: Belgrade\nLayer: Югославия и XX век\nPeriod: XX век, Югославия\nCategory: Museum\nWhy visit: Главный музей по истории Югославии, Тито и памяти о федерации.\nOfficial URL: https://muzej-jugoslavije.org/en/posetite-nas/\nNotes: Комплекс: Музей 25 мая, Старый музей, Дом цветов","address":"Mihaila Mike Jankovića 6, Belgrade, Serbia"}},{"type":"Feature","geometry":{"type":"Point","coordinates":[20.451775299999998,44.7866408]},"properties":{"name":"Дом цветов","description":"Address: House of Flowers, Mihaila Mike Jankovića 6, Belgrade, Serbia\nCity: Belgrade\nLayer: Югославия и XX век\nPeriod: Социалистическая Югославия\nCategory: Memorial\nWhy visit: Место захоронения Иосипа Броза Тито, часть Музея Югославии.\nOfficial URL: https://muzej-jugoslavije.org/en/posetite-nas/\nNotes: В составе Музея Югославии","address":"House of Flowers, Mihaila Mike Jankovića 6, Belgrade, Serbia"}},{"type":"Feature","geometry":{"type":"Point","coordinates":[20.3948233,44.8160775]},"properties":{"name":"Новый Белград","description":"Address: Novi Beograd, Belgrade, Serbia\nCity: Belgrade\nLayer: Югославия и XX век\nPeriod: Социалистическая Югославия\nCategory: District\nWhy visit: Городской проект социалистического модернизма: блоки, широкие проспекты, административные здания.\nOfficial URL: \nNotes: Маршрут по району","address":"Novi Beograd, Belgrade, Serbia"}},{"type":"Feature","geometry":{"type":"Point","coordinates":[20.427573799999998,44.8201976]},"properties":{"name":"Палата Сербии / SIV","description":"Address: Bulevar Mihajla Pupina 2, 11070 Belgrade, Serbia\nCity: Belgrade\nLayer: Югославия и XX век\nPeriod: Социалистическая Югославия\nCategory: Architecture\nWhy visit: Ключевое административное здание югославского периода и Нового Белграда.\nOfficial URL: \nNotes: Смотреть снаружи","address":"Bulevar Mihajla Pupina 2, 11070 Belgrade, Serbia"}},{"type":"Feature","geometry":{"type":"Point","coordinates":[20.404902099999997,44.820192999999996]},"properties":{"name":"Genex Tower","description":"Address: Genex Tower, Narodnih heroja 43, Belgrade, Serbia\nCity: Belgrade\nLayer: Югославия и XX век\nPeriod: Югославский модернизм\nCategory: Architecture\nWhy visit: Один из самых узнаваемых символов югославского брутализма и Нового Белграда.\nOfficial URL: \nNotes: Смотреть снаружи","address":"Genex Tower, Narodnih heroja 43, Belgrade, Serbia"}},{"type":"Feature","geometry":{"type":"Point","coordinates":[20.4423966,44.819608099999996]},"properties":{"name":"Музей современного искусства","description":"Address: Ušće 10, Blok 15, 11070 Belgrade, Serbia\nCity: Belgrade\nLayer: Югославия и XX век\nPeriod: XX век, искусство Югославии и Сербии\nCategory: Museum\nWhy visit: Искусство Югославии и Сербии XX века, здание — важный пример модернизма.\nOfficial URL: https://msub.org.rs/\nNotes: Ушће, рядом с Новым Белградом","address":"Ušće 10, Blok 15, 11070 Belgrade, Serbia"}},{"type":"Feature","geometry":{"type":"Point","coordinates":[20.4615406,44.806317299999996]},"properties":{"name":"Здание Генштаба","description":"Address: Kneza Miloša 33, Belgrade, Serbia\nCity: Belgrade\nLayer: Югославия и XX век\nPeriod: 1999 год\nCategory: Memory site\nWhy visit: Один из наиболее заметных городских следов бомбардировок 1999 года.\nOfficial URL: \nNotes: Смотреть снаружи, чувствительная тема","address":"Kneza Miloša 33, Belgrade, Serbia"}},{"type":"Feature","geometry":{"type":"Point","coordinates":[20.4611138,44.8096453]},"properties":{"name":"Русский дом","description":"Address: Kraljice Natalije 33, 11000 Belgrade, Serbia\nCity: Belgrade\nLayer: Русский Белград\nPeriod: Русская эмиграция после 1917 года\nCategory: Cultural center\nWhy visit: Главный культурный центр русской эмиграции в межвоенном Белграде.\nOfficial URL: https://ruskidom.rs/\nNotes: История русской общины","address":"Kraljice Natalije 33, 11000 Belgrade, Serbia"}},{"type":"Feature","geometry":{"type":"Point","coordinates":[20.413449399999998,44.825860399999996]},"properties":{"name":"Исторический архив Белграда","description":"Address: Palmira Toljatija 1, 11070 Belgrade, Serbia\nCity: Belgrade\nLayer: Русский Белград\nPeriod: Русская эмиграция, XX век\nCategory: Archive\nWhy visit: Архивные материалы и выставки, включая тему русской эмиграции в Белграде 1920–1950.\nOfficial URL: https://www.arhiv-beograda.org/en/\nNotes: Проверять текущие выставки","address":"Palmira Toljatija 1, 11070 Belgrade, Serbia"}},{"type":"Feature","geometry":{"type":"Point","coordinates":[20.489937299999998,44.807629]},"properties":{"name":"Новое кладбище","description":"Address: Ruzveltova 50, Belgrade, Serbia\nCity: Belgrade\nLayer: Русский Белград\nPeriod: Русская эмиграция, XX век\nCategory: Cemetery / Memorial\nWhy visit: Русский некрополь, места памяти русской эмиграции, военных, учёных, духовенства и деятелей культуры.\nOfficial URL: https://ruskidom.rs/%D0%BE-%D1%80%D1%83%D1%81%D1%81%D0%BA%D0%BE%D0%BC-%D0%BD%D0%B5%D0%BA%D1%80%D0%BE%D0%BF%D0%BE%D0%BB%D0%B5-%D0%B2-%D0%B1%D0%B5%D0%BB%D0%B3%D1%80%D0%B0%D0%B4%D0%B5/\nNotes: Маршрут памяти","address":"Ruzveltova 50, Belgrade, Serbia"}},{"type":"Feature","geometry":{"type":"Point","coordinates":[20.4695289,44.810716799999994]},"properties":{"name":"Церковь Святой Троицы","description":"Address: Russian Church, Tašmajdan Park, Belgrade, Serbia\nCity: Belgrade\nLayer: Русский Белград\nPeriod: Русская эмиграция, православие\nCategory: Church\nWhy visit: Русская церковь на Ташмайдане, связанная с русской эмиграцией.\nOfficial URL: \nNotes: Рядом с церковью Святого Марка","address":"Russian Church, Tašmajdan Park, Belgrade, Serbia"}},{"type":"Feature","geometry":{"type":"Point","coordinates":[19.852304,45.2565461]},"properties":{"name":"Музей Воеводины","description":"Address: Dunavska 35-37, 21101 Novi Sad, Serbia\nCity: Novi Sad\nLayer: Нови-Сад и Воеводина\nPeriod: От древности до XX века\nCategory: Museum\nWhy visit: Главный музей Воеводины: археология, история, этнология, античность, Средневековье, Австро-Венгрия.\nOfficial URL: https://www.muzejvojvodine.org.rs/en/contacts/\nNotes: Ключевая точка для Нови-Сада","address":"Dunavska 35-37, 21101 Novi Sad, Serbia"}},{"type":"Feature","geometry":{"type":"Point","coordinates":[19.852304,45.2565461]},"properties":{"name":"Музей присоединения 1918","description":"Address: Dunavska 35-37, 21101 Novi Sad, Serbia\nCity: Novi Sad\nLayer: Нови-Сад и Воеводина\nPeriod: 1918 год\nCategory: Museum\nWhy visit: История присоединения Баната, Бачки, Барани и Срема к Королевству Сербия.\nOfficial URL: https://www.muzejvojvodine.org.rs/en/\nNotes: Часть музейного маршрута Воеводины","address":"Dunavska 35-37, 21101 Novi Sad, Serbia"}},{"type":"Feature","geometry":{"type":"Point","coordinates":[19.8612492,45.2534832]},"properties":{"name":"Петроварадинская крепость","description":"Address: Petrovaradin Fortress, Novi Sad, Serbia\nCity: Novi Sad\nLayer: Нови-Сад и Воеводина\nPeriod: Габсбургская военная граница\nCategory: Fortress\nWhy visit: Габсбургская крепость на Дунае, ключ к пониманию Нови-Сада и Воеводины.\nOfficial URL: \nNotes: Лучше идти на закате","address":"Petrovaradin Fortress, Novi Sad, Serbia"}},{"type":"Feature","geometry":{"type":"Point","coordinates":[19.8444602,45.2550917]},"properties":{"name":"Старый центр Нови-Сада","description":"Address: Trg Slobode, Novi Sad, Serbia\nCity: Novi Sad\nLayer: Нови-Сад и Воеводина\nPeriod: XIX век, Сербские Афины\nCategory: District\nWhy visit: Исторический центр Нови-Сада: городская культура, архитектура, сербское просвещение.\nOfficial URL: \nNotes: Пеший маршрут","address":"Trg Slobode, Novi Sad, Serbia"}},{"type":"Feature","geometry":{"type":"Point","coordinates":[19.8483084,45.256730399999995]},"properties":{"name":"Дунавска улица","description":"Address: Dunavska ulica, Novi Sad, Serbia\nCity: Novi Sad\nLayer: Нови-Сад и Воеводина\nPeriod: XIX–XX век\nCategory: Street / District\nWhy visit: Одна из главных исторических улиц Нови-Сада, рядом с музеями и Дунайским парком.\nOfficial URL: \nNotes: Совместить с Музеем Воеводины","address":"Dunavska ulica, Novi Sad, Serbia"}},{"type":"Feature","geometry":{"type":"Point","coordinates":[19.8451363,45.259281]},"properties":{"name":"Матица сербская","description":"Address: Matica srpska, Matice srpske 1, Novi Sad, Serbia\nCity: Novi Sad\nLayer: Нови-Сад и Воеводина\nPeriod: Сербское просвещение, XIX век\nCategory: Institution\nWhy visit: Одна из ключевых институций сербской культуры и просвещения.\nOfficial URL: https://www.maticasrpska.org.rs/\nNotes: Проверять доступность для посещения","address":"Matica srpska, Matice srpske 1, Novi Sad, Serbia"}},{"type":"Feature","geometry":{"type":"Point","coordinates":[19.8456928,45.2525136]},"properties":{"name":"Галерея Матицы сербской","description":"Address: Trg Galerija 1, 21000 Novi Sad, Serbia\nCity: Novi Sad\nLayer: Нови-Сад и Воеводина\nPeriod: Искусство XVIII–XX веков\nCategory: Museum / Gallery\nWhy visit: Сербское искусство и культурная история, хорошее дополнение к Музею Воеводины.\nOfficial URL: https://www.galerijamaticesrpske.rs/en/\nNotes: Центр Нови-Сада","address":"Trg Galerija 1, 21000 Novi Sad, Serbia"}},{"type":"Feature","geometry":{"type":"Point","coordinates":[19.9335707,45.202464]},"properties":{"name":"Сремски-Карловци","description":"Address: Sremski Karlovci, Serbia\nCity: Sremski Karlovci\nLayer: Нови-Сад и Воеводина\nPeriod: Сербская церковная и культурная история\nCategory: Town / Historic area\nWhy visit: Исторический город рядом с Нови-Садом, важный для сербской церковной, образовательной и культурной истории.\nOfficial URL: \nNotes: Хорошая поездка на полдня","address":"Sremski Karlovci, Serbia"}}]}
