{"type":"FeatureCollection","properties":{"sourceKind":"google-mymaps","sourceId":"google-mymaps:1mxkFBhCULwjecdQUWUIfE1BAQahFG6I","upstreamUrl":"https://www.google.com/maps/d/viewer?mid=1mxkFBhCULwjecdQUWUIfE1BAQahFG6I","attribution":"Пользовательская карта танцевальных залов; snapshot Google My Maps","scope":"belgrade-pilot","bounds":[20.18,44.68,20.68,44.97],"sourcePointCount":199,"excludedOutsideBounds":88},"features":[{"type":"Feature","geometry":{"type":"Point","coordinates":[20.4854611,44.8162615]},"properties":{"name":"Naturally Dance plesna škola","description":""}},{"type":"Feature","geometry":{"type":"Point","coordinates":[20.4224682,44.815344]},"properties":{"name":"the Colors of Dance","description":""}},{"type":"Feature","geometry":{"type":"Point","coordinates":[20.4105043,44.8384009]},"properties":{"name":"Dragontail Pole Dance Studio","description":""}},{"type":"Feature","geometry":{"type":"Point","coordinates":[20.4537914,44.8011076]},"properties":{"name":"Plesna škola Natalija i Ivica","description":""}},{"type":"Feature","geometry":{"type":"Point","coordinates":[20.4970946,44.7960641]},"properties":{"name":"Prvi Ples","description":""}},{"type":"Feature","geometry":{"type":"Point","coordinates":[20.4573331,44.8068377]},"properties":{"name":"Artifly Pole Dance Studio","description":""}},{"type":"Feature","geometry":{"type":"Point","coordinates":[20.435217,44.814022]},"properties":{"name":"URBAN DANCE STUDIO","description":""}},{"type":"Feature","geometry":{"type":"Point","coordinates":[20.4067291,44.8303479]},"properties":{"name":"Dance Station NOVI BEOGRAD","description":""}},{"type":"Feature","geometry":{"type":"Point","coordinates":[20.4570484,44.8215332]},"properties":{"name":"Plesna škola Ruski Dom","description":""}},{"type":"Feature","geometry":{"type":"Point","coordinates":[20.4625648,44.8193478]},"properties":{"name":"Plesni Studio Master / Mladenacki ples","description":""}},{"type":"Feature","geometry":{"type":"Point","coordinates":[20.3878462,44.8025296]},"properties":{"name":"Plesni studio ChaChaMoon","description":""}},{"type":"Feature","geometry":{"type":"Point","coordinates":[20.4836067,44.799415]},"properties":{"name":"Plesni klub-skola VRAČAR","description":""}},{"type":"Feature","geometry":{"type":"Point","coordinates":[20.5069951,44.7392177]},"properties":{"name":"AKUD Vojvoda Stepa","description":""}},{"type":"Feature","geometry":{"type":"Point","coordinates":[20.4561747,44.7544511]},"properties":{"name":"Plesna Grupa TIM - Kanarevo","description":""}},{"type":"Feature","geometry":{"type":"Point","coordinates":[20.509782,44.7826465]},"properties":{"name":"Plesna škola Aurora","description":""}},{"type":"Feature","geometry":{"type":"Point","coordinates":[20.4194928,44.7822864]},"properties":{"name":"PLESNA ŠKOLA ART OF DANCE","description":""}},{"type":"Feature","geometry":{"type":"Point","coordinates":[20.4151787,44.7788565]},"properties":{"name":"PLESNA ŠKOLA ZA DECU ART OF DANCE","description":""}},{"type":"Feature","geometry":{"type":"Point","coordinates":[20.4210153,44.7221231]},"properties":{"name":"Plesni klub PRO","description":""}},{"type":"Feature","geometry":{"type":"Point","coordinates":[20.48911,44.75219]},"properties":{"name":"Dance Factory","description":""}},{"type":"Feature","geometry":{"type":"Point","coordinates":[20.4784944,44.7649827]},"properties":{"name":"Just dance Beograd","description":""}},{"type":"Feature","geometry":{"type":"Point","coordinates":[20.4085186,44.7602792]},"properties":{"name":"COTK \"Desanka Đorđević\"","description":""}},{"type":"Feature","geometry":{"type":"Point","coordinates":[20.4762503,44.8167097]},"properties":{"name":"Škola baleta - Dance Plus by Olja Matkovic","description":""}},{"type":"Feature","geometry":{"type":"Point","coordinates":[20.4120478,44.8124248]},"properties":{"name":"Dancity Dance Studio","description":""}},{"type":"Feature","geometry":{"type":"Point","coordinates":[20.485573,44.8026828]},"properties":{"name":"RIS dance studio","description":""}},{"type":"Feature","geometry":{"type":"Point","coordinates":[20.4866157,44.7857169]},"properties":{"name":"Tango Studio","description":""}},{"type":"Feature","geometry":{"type":"Point","coordinates":[20.4647725,44.8188358]},"properties":{"name":"Primera Dance School - Salsa Primera","description":""}},{"type":"Feature","geometry":{"type":"Point","coordinates":[20.4605095,44.8148426]},"properties":{"name":"National Foundation For Dance","description":""}},{"type":"Feature","geometry":{"type":"Point","coordinates":[20.4762572,44.816644]},"properties":{"name":"One Step Dance","description":""}},{"type":"Feature","geometry":{"type":"Point","coordinates":[20.4573729,44.8117064]},"properties":{"name":"Pole Dance Akademija","description":""}},{"type":"Feature","geometry":{"type":"Point","coordinates":[20.3727724,44.8126686]},"properties":{"name":"LS Dance Studio","description":""}},{"type":"Feature","geometry":{"type":"Point","coordinates":[20.4653493,44.8076372]},"properties":{"name":"Latin Dance Studio","description":""}},{"type":"Feature","geometry":{"type":"Point","coordinates":[20.4218724,44.8088258]},"properties":{"name":"Beogradski Igrački Centar","description":""}},{"type":"Feature","geometry":{"type":"Point","coordinates":[20.4546792,44.8131778]},"properties":{"name":"Pole Dance House","description":""}},{"type":"Feature","geometry":{"type":"Point","coordinates":[20.4601298,44.8124999]},"properties":{"name":"Al Centro plesna škola","description":""}},{"type":"Feature","geometry":{"type":"Point","coordinates":[20.476299,44.802979]},"properties":{"name":"Klub Fiesta Beograd","description":""}},{"type":"Feature","geometry":{"type":"Point","coordinates":[20.4651278,44.8132759]},"properties":{"name":"Salsa Familia","description":""}},{"type":"Feature","geometry":{"type":"Point","coordinates":[20.4856021,44.816644]},"properties":{"name":"КУД \"Корени\"","description":""}},{"type":"Feature","geometry":{"type":"Point","coordinates":[20.4526824,44.8018897]},"properties":{"name":"Flamenko centar","description":""}},{"type":"Feature","geometry":{"type":"Point","coordinates":[20.4528147,44.813566]},"properties":{"name":"Studio Ojdana","description":""}},{"type":"Feature","geometry":{"type":"Point","coordinates":[20.3869021,44.8019568]},"properties":{"name":"Plesni Klub TIM","description":""}},{"type":"Feature","geometry":{"type":"Point","coordinates":[20.4837166,44.8072259]},"properties":{"name":"Naučite orijentalni trbušni ples u Beogradu","description":""}},{"type":"Feature","geometry":{"type":"Point","coordinates":[20.4587016,44.8218857]},"properties":{"name":"Plesna skola Beodance","description":""}},{"type":"Feature","geometry":{"type":"Point","coordinates":[20.4693738,44.8185398]},"properties":{"name":"Exoteria","description":""}},{"type":"Feature","geometry":{"type":"Point","coordinates":[20.5072471,44.8133525]},"properties":{"name":"KUD \"Despot Stefan\"","description":""}},{"type":"Feature","geometry":{"type":"Point","coordinates":[20.4573651,44.8014382]},"properties":{"name":"Theatre 78","description":""}},{"type":"Feature","geometry":{"type":"Point","coordinates":[20.3866882,44.8045677]},"properties":{"name":"Škola baleta Katarina Gromilić","description":""}},{"type":"Feature","geometry":{"type":"Point","coordinates":[20.4118622,44.842775]},"properties":{"name":"Plesni Studio Sidro","description":""}},{"type":"Feature","geometry":{"type":"Point","coordinates":[20.5050534,44.8165383]},"properties":{"name":"Plesa škola DANTE","description":""}},{"type":"Feature","geometry":{"type":"Point","coordinates":[20.4653514,44.8076394]},"properties":{"name":"Tango Natural","description":""}},{"type":"Feature","geometry":{"type":"Point","coordinates":[20.3866882,44.8045677]},"properties":{"name":"INjoy Dance Studio","description":""}},{"type":"Feature","geometry":{"type":"Point","coordinates":[20.4652747,44.8075779]},"properties":{"name":"Prva Akademija Irskog Plesa RIDAS","description":""}},{"type":"Feature","geometry":{"type":"Point","coordinates":[20.4626038,44.8193081]},"properties":{"name":"Sensual Fusion","description":""}},{"type":"Feature","geometry":{"type":"Point","coordinates":[20.4827817,44.8165562]},"properties":{"name":"Етноансамбл ,,Корени\"","description":""}},{"type":"Feature","geometry":{"type":"Point","coordinates":[20.4573011,44.817643]},"properties":{"name":"Bolero Skola Flamenka","description":""}},{"type":"Feature","geometry":{"type":"Point","coordinates":[20.4887838,44.8190529]},"properties":{"name":"Plešem život u sebi","description":""}},{"type":"Feature","geometry":{"type":"Point","coordinates":[20.4528147,44.813566]},"properties":{"name":"Forró Juntinho","description":""}},{"type":"Feature","geometry":{"type":"Point","coordinates":[20.4653435,44.8076332]},"properties":{"name":"Plesna škola New Edition","description":""}},{"type":"Feature","geometry":{"type":"Point","coordinates":[20.4625647,44.8193477]},"properties":{"name":"Nedjma","description":""}},{"type":"Feature","geometry":{"type":"Point","coordinates":[20.3776734,44.7974791]},"properties":{"name":"Baletski studio \"Pirueta\"","description":""}},{"type":"Feature","geometry":{"type":"Point","coordinates":[20.4854579,44.8165259]},"properties":{"name":"KUD \"Lira folklor\"","description":""}},{"type":"Feature","geometry":{"type":"Point","coordinates":[20.4625648,44.8193478]},"properties":{"name":"Swing'n'Roll - plesna škola","description":""}},{"type":"Feature","geometry":{"type":"Point","coordinates":[20.4826877,44.8048672]},"properties":{"name":"Aruena","description":""}},{"type":"Feature","geometry":{"type":"Point","coordinates":[20.3777331,44.8058846]},"properties":{"name":"Koloseum","description":""}},{"type":"Feature","geometry":{"type":"Point","coordinates":[20.4653435,44.8076332]},"properties":{"name":"Universal Mix Dance - UMD","description":""}},{"type":"Feature","geometry":{"type":"Point","coordinates":[20.4625647,44.8193477]},"properties":{"name":"PLESNA ŠKOLA ART OF DANCE","description":""}},{"type":"Feature","geometry":{"type":"Point","coordinates":[20.4683713,44.8175433]},"properties":{"name":"Dance Station CENTAR","description":""}},{"type":"Feature","geometry":{"type":"Point","coordinates":[20.4632705,44.799996]},"properties":{"name":"DARE TO DANCE MODERNI PLESOVI","description":""}},{"type":"Feature","geometry":{"type":"Point","coordinates":[20.4593436,44.8109972]},"properties":{"name":"Amateur Ballet Academy","description":""}},{"type":"Feature","geometry":{"type":"Point","coordinates":[20.3698067,44.8033902]},"properties":{"name":"Plesna Grupa BAM","description":""}},{"type":"Feature","geometry":{"type":"Point","coordinates":[20.4921301,44.8155731]},"properties":{"name":"плесна школа","description":""}},{"type":"Feature","geometry":{"type":"Point","coordinates":[20.361201,44.848928]},"properties":{"name":"Baletski studio Step","description":""}},{"type":"Feature","geometry":{"type":"Point","coordinates":[20.4590324,44.8103764]},"properties":{"name":"Pole Plus Studio","description":""}},{"type":"Feature","geometry":{"type":"Point","coordinates":[20.479857,44.800456]},"properties":{"name":"Bounce plesni studio","description":""}},{"type":"Feature","geometry":{"type":"Point","coordinates":[20.4665041,44.808567]},"properties":{"name":"Danza del Arte Belgrado","description":""}},{"type":"Feature","geometry":{"type":"Point","coordinates":[20.4718267,44.8050555]},"properties":{"name":"Femme Space","description":""}},{"type":"Feature","geometry":{"type":"Point","coordinates":[20.4720979,44.874367]},"properties":{"name":"Plesna skola Black Squad / BLACK SQUAD SPACE","description":""}},{"type":"Feature","geometry":{"type":"Point","coordinates":[20.4654008,44.8076783]},"properties":{"name":"UV DANCE ANIMATORI","description":""}},{"type":"Feature","geometry":{"type":"Point","coordinates":[20.453355,44.813453]},"properties":{"name":"Jay Jagannath School of Odissi Dance","description":""}},{"type":"Feature","geometry":{"type":"Point","coordinates":[20.4127458,44.8292235]},"properties":{"name":"Invictus Pole Dance","description":""}},{"type":"Feature","geometry":{"type":"Point","coordinates":[20.463254,44.7999711]},"properties":{"name":"Plesna škola \"Sanja & Dejan\"","description":""}},{"type":"Feature","geometry":{"type":"Point","coordinates":[20.461727,44.816067]},"properties":{"name":"Timbao Salsa School","description":""}},{"type":"Feature","geometry":{"type":"Point","coordinates":[20.4113589,44.841218]},"properties":{"name":"Shuffle dance Beograd","description":""}},{"type":"Feature","geometry":{"type":"Point","coordinates":[20.4620701,44.813842]},"properties":{"name":"Chic'a go! Studio","description":""}},{"type":"Feature","geometry":{"type":"Point","coordinates":[20.4619877,44.8108558]},"properties":{"name":"Elite Society","description":""}},{"type":"Feature","geometry":{"type":"Point","coordinates":[20.4724204,44.8051055]},"properties":{"name":"Solo - ballet & stretching","description":""}},{"type":"Feature","geometry":{"type":"Point","coordinates":[20.4625647,44.8193477]},"properties":{"name":"Hoppin' Swing - Swing ples Beograd","description":""}},{"type":"Feature","geometry":{"type":"Point","coordinates":[20.4523595,44.8143033]},"properties":{"name":"Dance studio","description":""}},{"type":"Feature","geometry":{"type":"Point","coordinates":[20.4625383,44.8192328]},"properties":{"name":"Dance Factory","description":""}},{"type":"Feature","geometry":{"type":"Point","coordinates":[20.4174969,44.8157318]},"properties":{"name":"Performa fitness & dance","description":""}},{"type":"Feature","geometry":{"type":"Point","coordinates":[20.4625845,44.8193279]},"properties":{"name":"Plesna Skola Escape Stari Grad","description":""}},{"type":"Feature","geometry":{"type":"Point","coordinates":[20.4732921,44.8185236]},"properties":{"name":"Solo - ballet & stretching","description":""}},{"type":"Feature","geometry":{"type":"Point","coordinates":[20.4606961,44.8153409]},"properties":{"name":"Space shuffle dance Beograd","description":""}},{"type":"Feature","geometry":{"type":"Point","coordinates":[20.4801634,44.8003406]},"properties":{"name":"Irish dance school Belgrade","description":""}},{"type":"Feature","geometry":{"type":"Point","coordinates":[20.5051971,44.7916764]},"properties":{"name":"Plesni klub Best","description":""}},{"type":"Feature","geometry":{"type":"Point","coordinates":[20.4782907,44.7949423]},"properties":{"name":"Delight Pole Dance","description":""}},{"type":"Feature","geometry":{"type":"Point","coordinates":[20.4636345,44.8086358]},"properties":{"name":"Pole Dance Fitness Beograd","description":""}},{"type":"Feature","geometry":{"type":"Point","coordinates":[20.4675696,44.7918534]},"properties":{"name":"Shuffle dance Beograd","description":""}},{"type":"Feature","geometry":{"type":"Point","coordinates":[20.4167679,44.7835999]},"properties":{"name":"Plesna Škola \"Cubanito\" Beograd","description":""}},{"type":"Feature","geometry":{"type":"Point","coordinates":[20.4899906,44.793728]},"properties":{"name":"Krisstal Dance Studio","description":""}},{"type":"Feature","geometry":{"type":"Point","coordinates":[20.5032416,44.7922423]},"properties":{"name":"Dance Station LION","description":""}},{"type":"Feature","geometry":{"type":"Point","coordinates":[20.5008392,44.7943118]},"properties":{"name":"WANTED","description":""}},{"type":"Feature","geometry":{"type":"Point","coordinates":[20.4863142,44.7957644]},"properties":{"name":"Dance Station VRAČAR","description":""}},{"type":"Feature","geometry":{"type":"Point","coordinates":[20.4570462,44.7939188]},"properties":{"name":"Aleksandra Politopulos","description":""}},{"type":"Feature","geometry":{"type":"Point","coordinates":[20.4650643,44.8025896]},"properties":{"name":"Futura-Dent","description":""}},{"type":"Feature","geometry":{"type":"Point","coordinates":[20.4860414,44.7834085]},"properties":{"name":"Erin's Fiddle","description":""}},{"type":"Feature","geometry":{"type":"Point","coordinates":[20.2158887,44.7224328]},"properties":{"name":"Kus Sládkovič Boľovce - Kud Sladkovič Boljevci","description":""}},{"type":"Feature","geometry":{"type":"Point","coordinates":[20.4984538,44.8459604]},"properties":{"name":"K.Beat Dance Studio","description":""}},{"type":"Feature","geometry":{"type":"Point","coordinates":[20.6371174,44.8750851]},"properties":{"name":"PoleDance PANCEVO","description":""}},{"type":"Feature","geometry":{"type":"Point","coordinates":[20.6407571,44.8632323]},"properties":{"name":"Plesni Studio Lana","description":""}},{"type":"Feature","geometry":{"type":"Point","coordinates":[20.6373229,44.8711786]},"properties":{"name":"Dalia trbušni ples - Škola orijentalnog plesa","description":""}},{"type":"Feature","geometry":{"type":"Point","coordinates":[20.6372585,44.8711156]},"properties":{"name":"Baletski studio Danijela","description":""}}]}
