{"type":"FeatureCollection","properties":{"sourceKind":"google-mymaps","sourceId":"google-mymaps:1qkp5VjmSJBjdaRRnxEtv0gZEaL2Dpk4","upstreamUrl":"https://www.google.com/maps/d/viewer?mid=1qkp5VjmSJBjdaRRnxEtv0gZEaL2Dpk4","acquisition":"google-kml-plus-viewer-coordinates","snapshotAt":"2026-08-23T07:46:03.265Z","sourceFeatureCount":35,"bounds":[18.75,42.2,23.05,46.2]},"features":[{"type":"Feature","geometry":{"type":"Point","coordinates":[20.4683307,44.8009128]},"properties":{"name":"АНА АЛЕКСИЋ","description":"адреса: Београд, ул. Кнегиње Зорке 11\nтел / факс / е-маил.1: 011/2453-432\nтел / факс / е-маил.2: 063/164-33-49\nр.бр.: 1","address":"Београд, ул. Кнегиње Зорке 11"}},{"type":"Feature","geometry":{"type":"Point","coordinates":[20.5027279,44.794330699999996]},"properties":{"name":"БОЈАНА ЗАЈИЋ","description":"адреса: Београд, ул. Бул. краља Александра 261\nтел / факс / е-маил.1: 011/2421-621\nтел / факс / е-маил.2: 063/88-00-567\nр.бр.: 2","address":"Београд, ул. Бул. краља Александра 261"}},{"type":"Feature","geometry":{"type":"Point","coordinates":[20.4839886,44.8053768]},"properties":{"name":"РАДЕ ВОЈВОДИЋ","description":"адреса: Београд, ул. Димитрија Туцовића 24/ст. 63\nтел / факс / е-маил.1: 011/2409-518\nтел / факс / е-маил.2: 064/130-54-64\nр.бр.: 3","address":"Београд, ул. Димитрија Туцовића 24/ст. 63"}},{"type":"Feature","geometry":{"type":"Point","coordinates":[20.456481,44.775169999999996]},"properties":{"name":"ДРАГАНА МАРИА ВИСКОНТИ","description":"адреса: Београд, Булевар кнеза Александра Карађорђевића 72\nтел / факс / е-маил.1: \nтел / факс / е-маил.2: 063/690-744\nр.бр.: 4","address":"Београд, Булевар кнеза Александра Карађорђевића 72"}},{"type":"Feature","geometry":{"type":"Point","coordinates":[20.469644799999998,44.8020279]},"properties":{"name":"ТАЊА КОВАЧЕВИЋ","description":"адреса: Београд, ул. Смиљанићева 11/9\nтел / факс / е-маил.1: 011/344-27-58\nтел / факс / е-маил.2: 064/168-13-61\nр.бр.: 5","address":"Београд, ул. Смиљанићева 11/9"}},{"type":"Feature","geometry":{"type":"Point","coordinates":[20.464691,44.8263094]},"properties":{"name":"ВЕСНА ОБРАДОВИЋ","description":"адреса: Београд, ул. Мике Аласа 44/1\nтел / факс / е-маил.1: 011/30-33-527\nтел / факс / е-маил.2: 064730-73-777\nр.бр.: 7","address":"Београд, ул. Мике Аласа 44/1"}},{"type":"Feature","geometry":{"type":"Point","coordinates":[20.4696511,44.815291099999996]},"properties":{"name":"ТАТЈАНА ДЕКЛЕВА КОЉЕНОВИЋ","description":"адреса: Београд, ул. Хиландарска 23/II\nтел / факс / е-маил.1: 011/30-33-649\nтел / факс / е-маил.2: 064/1970198\nр.бр.: 8","address":"Београд, ул. Хиландарска 23/II"}},{"type":"Feature","geometry":{"type":"Point","coordinates":[20.46123,44.8125449]},"properties":{"name":"ЛЕПОСАВА ПАВЛОВИЋ","description":"адреса: Београд, ул. Бул. Зорана Ђинђића 215/13/II\nтел / факс / е-маил.1: 011/66-97-146\nтел / факс / е-маил.2: 064/22-29-379\nр.бр.: 9","address":"Београд, ул. Бул. Зорана Ђинђића 215/13/II"}},{"type":"Feature","geometry":{"type":"Point","coordinates":[20.412105399999998,44.813089]},"properties":{"name":"САЊА БОЛКОВИЋ","description":"адреса: Београд. ул. Милутина Миланковића 120Д\nтел / факс / е-маил.1: 011/2135-380\nтел / факс / е-маил.2: 065/2135-380\nр.бр.: 10","address":"Београд. ул. Милутина Миланковића 120Д"}},{"type":"Feature","geometry":{"type":"Point","coordinates":[20.46123,44.8125449]},"properties":{"name":"СЛАЂАНА ВОЈНОВИЋ","description":"адреса: Београд, ул. Растка Поповића 30 \nтел / факс / е-маил.1: 011/2460-919\nтел / факс / е-маил.2: 063/8941-837\nр.бр.: 11","address":"Београд, ул. Растка Поповића 30"}},{"type":"Feature","geometry":{"type":"Point","coordinates":[20.3756375,44.8013841]},"properties":{"name":"МАЈА ТЕШИЋ","description":"адреса: Београд, ул. Јурија Гагарина 146/21\nтел / факс / е-маил.1: 011/717-3859\nтел / факс / е-маил.2: 063/770-3574\nр.бр.: 12","address":"Београд, ул. Јурија Гагарина 146/21"}},{"type":"Feature","geometry":{"type":"Point","coordinates":[20.3701795,44.803278]},"properties":{"name":"ЈОВАН ГАГИЋ","description":"адреса: Београд, ул. Др. Ивана Рибара 57/19\nтел / факс / е-маил.1: 011/3177-964\nтел / факс / е-маил.2: 065/664-21-48\nр.бр.: 13","address":"Београд, ул. Др. Ивана Рибара 57/19"}},{"type":"Feature","geometry":{"type":"Point","coordinates":[20.3862181,44.804327]},"properties":{"name":"МИЛЕНА ТОМАШЕВИЋ","description":"адреса: Београд, ул. Гандијева 114/7\nтел / факс / е-маил.1: 011/318-43-10\nтел / факс / е-маил.2: \nр.бр.: 14","address":"Београд, ул. Гандијева 114/7"}},{"type":"Feature","geometry":{"type":"Point","coordinates":[20.479711599999998,44.8118323]},"properties":{"name":"ТАТЈАНА ЛЕСКОВАЦ","description":"адреса: Београд, ул. Браће Грим 4\nтел / факс / е-маил.1: 011/276-40-28\nтел / факс / е-маил.2: 064/295-96-71\nр.бр.: 15","address":"Београд, ул. Браће Грим 4"}},{"type":"Feature","geometry":{"type":"Point","coordinates":[20.46123,44.8125449]},"properties":{"name":"ВЕСНА ИВАНОВИЋ","description":"адреса: Београд, ул. Светозара Пашића 5/54 \nтел / факс / е-маил.1: 011/33-42-237\nтел / факс / е-маил.2: 063/80-435-19\nр.бр.: 16","address":"Београд, ул. Светозара Пашића 5/54"}},{"type":"Feature","geometry":{"type":"Point","coordinates":[20.4032259,44.8261404]},"properties":{"name":"ВЕСНА ТОМИЋ","description":"адреса: Београд, ул. Студентска 27/12\nтел / факс / е-маил.1: 011/2697-024\nтел / факс / е-маил.2: 062/302-909\nр.бр.: 17","address":"Београд, ул. Студентска 27/12"}},{"type":"Feature","geometry":{"type":"Point","coordinates":[20.4076409,44.832134499999995]},"properties":{"name":"ТАЊА ГАЕВ","description":"адреса: Београд. ул. Отона Жупанчића 35/27\nтел / факс / е-маил.1: 011/30-17-289\nтел / факс / е-маил.2: 063/39-29-20\nр.бр.: 18","address":"Београд. ул. Отона Жупанчића 35/27"}},{"type":"Feature","geometry":{"type":"Point","coordinates":[20.427561999999998,44.8067876]},"properties":{"name":"ЗОРИЦА САВИЋ","description":"адреса: Београд, ул. Милентија Поповића 35\nтел / факс / е-маил.1: 011/713-23-44\nтел / факс / е-маил.2: 064/157-66-93\nр.бр.: 19","address":"Београд, ул. Милентија Поповића 35"}},{"type":"Feature","geometry":{"type":"Point","coordinates":[20.46123,44.8125449]},"properties":{"name":"СЛАВОЉУБ ПЕТРОВИЋ","description":"адреса: Београд, ул. Врбаска 11 \nтел / факс / е-маил.1: 011/80-43-218, 321-66-00\nтел / факс / е-маил.2: 0637366-577\nр.бр.: 20","address":"Београд, ул. Врбаска 11"}},{"type":"Feature","geometry":{"type":"Point","coordinates":[20.398775699999998,44.8026415]},"properties":{"name":"МАРИЈА АЛЕКСИЋ","description":"адреса: Београд, ул. Јурија Гагарина 39/23\nтел / факс / е-маил.1: 011/217-60-14\nтел / факс / е-маил.2: 063/20-03-31\nр.бр.: 21","address":"Београд, ул. Јурија Гагарина 39/23"}},{"type":"Feature","geometry":{"type":"Point","coordinates":[20.5315053,44.7738956]},"properties":{"name":"МЕЛИТА МИЋИЋ","description":"адреса: Београд, ул. 27 марта бр. 36/15/61\nтел / факс / е-маил.1: 065/2600-505\nтел / факс / е-маил.2: 064/136-30-82\nр.бр.: 22","address":"Београд, ул. 27 марта бр. 36/15/61"}},{"type":"Feature","geometry":{"type":"Point","coordinates":[20.412161899999997,44.8250405]},"properties":{"name":"МИЛОШ КИЦЕВСКИ","description":"адреса: Београд, ул. Париске комуне 2/26\nтел / факс / е-маил.1: 011/6673-506\nтел / факс / е-маил.2: 063/80-25-174\nр.бр.: 23","address":"Београд, ул. Париске комуне 2/26"}},{"type":"Feature","geometry":{"type":"Point","coordinates":[20.3728661,44.801395299999996]},"properties":{"name":"СВЕТЛАНА МИШИЋ","description":"адреса: Београд, ул. Јурија Гагарина 118\nтел / факс / е-маил.1: 011/616-66-72\nтел / факс / е-маил.2: 060/3184-938\nр.бр.: 24","address":"Београд, ул. Јурија Гагарина 118"}},{"type":"Feature","geometry":{"type":"Point","coordinates":[20.46123,44.8125449]},"properties":{"name":"ВЕРА ИЛИЋ","description":"адреса: Београд, ул. М. Миланковића140/15\nтел / факс / е-маил.1: 011/613-29-29\nтел / факс / е-маил.2: 063/871-22-79\nр.бр.: 25","address":"Београд, ул. М. Миланковића140/15"}},{"type":"Feature","geometry":{"type":"Point","coordinates":[20.518753699999998,44.8076645]},"properties":{"name":"РУЖИЦА ПАНТИЋ","description":"адреса: Београд, ул. Јеленка Михајловића 15/9\nтел / факс / е-маил.1: 063/75-06-874\nтел / факс / е-маил.2: 011/29-72-933\nр.бр.: 27","address":"Београд, ул. Јеленка Михајловића 15/9"}},{"type":"Feature","geometry":{"type":"Point","coordinates":[20.472464,44.80221950000001]},"properties":{"name":"ТАТЈАНА РАКОВИЋ","description":"адреса: Београд, ул. Молерова 15\nтел / факс / е-маил.1: 063/80-89-063\nтел / факс / е-маил.2: \nр.бр.: 28","address":"Београд, ул. Молерова 15"}},{"type":"Feature","geometry":{"type":"Point","coordinates":[20.4639489,44.801948499999995]},"properties":{"name":"ДАНИЈЕЛА ДЕВЧИЋ ВУКОВИЋ","description":"адреса: Београд, ул. Краља Милутина 57\nтел / факс / е-маил.1: 011/30-67-942\nтел / факс / е-маил.2: 011/3617-614\nр.бр.: 29","address":"Београд, ул. Краља Милутина 57"}},{"type":"Feature","geometry":{"type":"Point","coordinates":[20.452679099999997,44.8140214]},"properties":{"name":"ЂОРЂЕ ЈОЈИЋ","description":"адреса: Београд, ул. Светозара Радића 7а\nтел / факс / е-маил.1: 065/329-72-73\nтел / факс / е-маил.2: 0611/306-79-52\nр.бр.: 30","address":"Београд, ул. Светозара Радића 7а"}},{"type":"Feature","geometry":{"type":"Point","coordinates":[20.4592085,44.8029614]},"properties":{"name":"СЛАВИЦА ГРАХОВАЦ","description":"адреса: Београд, ул. Војводе Миленка 34\nтел / факс / е-маил.1: 063/20-99-99\nтел / факс / е-маил.2: \nр.бр.: 31","address":"Београд, ул. Војводе Миленка 34"}},{"type":"Feature","geometry":{"type":"Point","coordinates":[20.470946599999998,44.7999772]},"properties":{"name":"СВЕТЛАНА СИМОНОВИЋ","description":"адреса: Београд, ул. Макензијева 46/10\nтел / факс / е-маил.1: 063/83-94-401\nтел / факс / е-маил.2: 011/24-58-010\nр.бр.: 33","address":"Београд, ул. Макензијева 46/10"}},{"type":"Feature","geometry":{"type":"Point","coordinates":[20.5065417,44.7724933]},"properties":{"name":"СЕЛЕНА ПЈЕШИВАЦ","description":"адреса: Београд, ул. Браће Срнић 21/23\nтел / факс / е-маил.1: 063/394-418\nтел / факс / е-маил.2: 011/68-83-684\nр.бр.: 34","address":"Београд, ул. Браће Срнић 21/23"}},{"type":"Feature","geometry":{"type":"Point","coordinates":[20.402134399999998,44.800623699999996]},"properties":{"name":"МАЈА ВРАНИЋ","description":"адреса: Београд. ул. Омладинских бригада 67/3\nтел / факс / е-маил.1: 064/155-65-92\nтел / факс / е-маил.2: 062/82-88-368\nр.бр.: 35","address":"Београд. ул. Омладинских бригада 67/3"}},{"type":"Feature","geometry":{"type":"Point","coordinates":[20.3862181,44.804327]},"properties":{"name":"МИЛЕНА МИЛЕНКОВИЋ","description":"адреса: Београд. ул. Гандијева 114\nтел / факс / е-маил.1: 011/318-43-10\nтел / факс / е-маил.2: \nр.бр.: 36","address":"Београд. ул. Гандијева 114"}},{"type":"Feature","geometry":{"type":"Point","coordinates":[20.398775699999998,44.8026415]},"properties":{"name":"НАТАША ПАВЛИЧИЋ","description":"адреса: Београд, ул. Јурија Гагарина 39/19\nтел / факс / е-маил.1: 065/322-66-86\nтел / факс / е-маил.2: \nр.бр.: 37","address":"Београд, ул. Јурија Гагарина 39/19"}},{"type":"Feature","geometry":{"type":"Point","coordinates":[20.465008,44.8094033]},"properties":{"name":"ВАНJА СЛАДОJЕ","description":"адреса: Београд, ул. Кнеза Милоша 9. Спрат I Канцеларија 102\nтел / факс / е-маил.1: +381 65 8302345\nтел / факс / е-маил.2: \nр.бр.:","address":"Београд, ул. Кнеза Милоша 9. Спрат I Канцеларија 102"}}]}
