{"type":"FeatureCollection","properties":{"sourceKind":"google-mymaps","sourceId":"google-mymaps:1qkPRUNRiCqA-uFugbcuVy9INXgw","upstreamUrl":"https://www.google.com/maps/d/viewer?mid=1qkPRUNRiCqA-uFugbcuVy9INXgw","acquisition":"google-direct-kml","snapshotAt":"2026-08-23T07:46:02.831Z","sourceFeatureCount":207,"bounds":[20.18,44.68,20.68,44.97]},"features":[{"type":"Feature","geometry":{"type":"Point","coordinates":[20.4613897,44.8130492]},"properties":{"name":"Burrito Madre","description":""}},{"type":"Feature","geometry":{"type":"Point","coordinates":[20.4572732,44.8214365]},"properties":{"name":"Crna Ovca","description":""}},{"type":"Feature","geometry":{"type":"Point","coordinates":[20.4666455,44.8059844]},"properties":{"name":"Go Sushi","description":""}},{"type":"Feature","geometry":{"type":"Point","coordinates":[20.4612674,44.8137043]},"properties":{"name":"Greenet Nusiceva","description":""}},{"type":"Feature","geometry":{"type":"Point","coordinates":[20.4758709,44.8026172]},"properties":{"name":"Tea House","description":""}},{"type":"Feature","geometry":{"type":"Point","coordinates":[20.4735079,44.8068188]},"properties":{"name":"Metropol Palace, a Luxury Collection Hotel, Belgrade - Kafe u prizemlju","description":""}},{"type":"Feature","geometry":{"type":"Point","coordinates":[20.467637,44.823192]},"properties":{"name":"Przionica D59B","description":""}},{"type":"Feature","geometry":{"type":"Point","coordinates":[20.4672866999999,44.8013985]},"properties":{"name":"Salon de thé by Small Tree","description":""}},{"type":"Feature","geometry":{"type":"Point","coordinates":[20.4665454,44.8041064]},"properties":{"name":"Sarajevski ćevap Ćevabdžinica Savčić","description":""}},{"type":"Feature","geometry":{"type":"Point","coordinates":[20.400205,44.825134]},"properties":{"name":"Bistro - Dom kulture Studentski grad","description":""}},{"type":"Feature","geometry":{"type":"Point","coordinates":[20.3996976,44.8125297]},"properties":{"name":"Pane E Vino","description":""}},{"type":"Feature","geometry":{"type":"Point","coordinates":[20.4603587,44.8170095]},"properties":{"name":"Credo","description":"Restoran hotela Marriot"}},{"type":"Feature","geometry":{"type":"Point","coordinates":[20.4544885,44.8180076]},"properties":{"name":"Bookastore","description":""}},{"type":"Feature","geometry":{"type":"Point","coordinates":[20.4172927,44.7739466]},"properties":{"name":"Go Sushi","description":""}},{"type":"Feature","geometry":{"type":"Point","coordinates":[20.467391,44.8065343]},"properties":{"name":"Poslasticarnica DJ","description":""}},{"type":"Feature","geometry":{"type":"Point","coordinates":[20.4828560999999,44.8024699]},"properties":{"name":"Poslastičarnica Koštana","description":""}},{"type":"Feature","geometry":{"type":"Point","coordinates":[20.4888876,44.7995949]},"properties":{"name":"Bombaj Pastry Shop","description":""}},{"type":"Feature","geometry":{"type":"Point","coordinates":[20.4798485,44.7994784]},"properties":{"name":"Božidarac cafe","description":""}},{"type":"Feature","geometry":{"type":"Point","coordinates":[20.4689622999999,44.8037283]},"properties":{"name":"LUFF","description":""}},{"type":"Feature","geometry":{"type":"Point","coordinates":[20.431378,44.82215]},"properties":{"name":"Arkabarka","description":""}},{"type":"Feature","geometry":{"type":"Point","coordinates":[20.4289712,44.8129674]},"properties":{"name":"Di Napoli - Pizzeria ristorantino","description":""}},{"type":"Feature","geometry":{"type":"Point","coordinates":[20.4438534,44.7956246]},"properties":{"name":"Pekara Lulu","description":""}},{"type":"Feature","geometry":{"type":"Point","coordinates":[20.4133835,44.7757623]},"properties":{"name":"Pekara Lulu - Pozeska","description":""}},{"type":"Feature","geometry":{"type":"Point","coordinates":[20.4656259999999,44.809764]},"properties":{"name":"IVO","description":""}},{"type":"Feature","geometry":{"type":"Point","coordinates":[20.4658328,44.8050969]},"properties":{"name":"Sawarma Hanan","description":""}},{"type":"Feature","geometry":{"type":"Point","coordinates":[20.4090517,44.8054185]},"properties":{"name":"GlutenNo Belgrade","description":""}},{"type":"Feature","geometry":{"type":"Point","coordinates":[20.4648018,44.8069255]},"properties":{"name":"Pekara Zanat","description":""}},{"type":"Feature","geometry":{"type":"Point","coordinates":[20.4632812,44.8172072]},"properties":{"name":"Poslastičarnica Šuma","description":""}},{"type":"Feature","geometry":{"type":"Point","coordinates":[20.4564245,44.816358]},"properties":{"name":"Rice Kings Sutlijaš bar","description":""}},{"type":"Feature","geometry":{"type":"Point","coordinates":[20.4573513,44.824206]},"properties":{"name":"cao seceru","description":""}},{"type":"Feature","geometry":{"type":"Point","coordinates":[20.4161508,44.7818852]},"properties":{"name":"Best Western Hotel Sumadija","description":""}},{"type":"Feature","geometry":{"type":"Point","coordinates":[20.4590512,44.8221433]},"properties":{"name":"Hleb i Kifle","description":""}},{"type":"Feature","geometry":{"type":"Point","coordinates":[20.4564316999999,44.8223229]},"properties":{"name":"Valentina i Karanfil","description":""}},{"type":"Feature","geometry":{"type":"Point","coordinates":[20.453617,44.813492]},"properties":{"name":"Savamala Bed&Breakfast","description":""}},{"type":"Feature","geometry":{"type":"Point","coordinates":[20.4733282,44.8185765]},"properties":{"name":"Torte i kolači \"M\" Mecika","description":""}},{"type":"Feature","geometry":{"type":"Point","coordinates":[20.4876218,44.7985971]},"properties":{"name":"Coffee Shop","description":""}},{"type":"Feature","geometry":{"type":"Point","coordinates":[20.4587198,44.8154382]},"properties":{"name":"Feniks gelato saloon","description":""}},{"type":"Feature","geometry":{"type":"Point","coordinates":[20.4924811999999,44.7946589]},"properties":{"name":"Хлеб & Кифле","description":""}},{"type":"Feature","geometry":{"type":"Point","coordinates":[20.4560706,44.8246333]},"properties":{"name":"Fat Boys Food co.","description":""}},{"type":"Feature","geometry":{"type":"Point","coordinates":[20.4713237,44.7979009]},"properties":{"name":"MoMo Bar and Play","description":""}},{"type":"Feature","geometry":{"type":"Point","coordinates":[20.4621867,44.8234945]},"properties":{"name":"Delicent","description":""}},{"type":"Feature","geometry":{"type":"Point","coordinates":[20.4593429,44.8209035]},"properties":{"name":"Bloom - Breakfast & Brunch","description":""}},{"type":"Feature","geometry":{"type":"Point","coordinates":[20.4640596,44.8060806]},"properties":{"name":"Kafeterija „Bukmarker“ | Delfi knjižara SKC","description":""}},{"type":"Feature","geometry":{"type":"Point","coordinates":[20.4704398,44.8028875]},"properties":{"name":"Crna Ovca","description":""}},{"type":"Feature","geometry":{"type":"Point","coordinates":[20.4997101,44.792037]},"properties":{"name":"Way Cup Specialty Coffee Shop","description":""}},{"type":"Feature","geometry":{"type":"Point","coordinates":[20.4875327,44.797683]},"properties":{"name":"Go Sushi","description":""}},{"type":"Feature","geometry":{"type":"Point","coordinates":[20.4603078,44.8218898]},"properties":{"name":"Bacio Gelato","description":"https://www.baciogelato.rs/"}},{"type":"Feature","geometry":{"type":"Point","coordinates":[20.4724767,44.8177658]},"properties":{"name":"Wagokoro","description":""}},{"type":"Feature","geometry":{"type":"Point","coordinates":[20.4638224,44.7974966]},"properties":{"name":"Data Status - Knjižara Medika","description":""}},{"type":"Feature","geometry":{"type":"Point","coordinates":[20.456843,44.8177359]},"properties":{"name":"Akademija Book Store","description":""}},{"type":"Feature","geometry":{"type":"Point","coordinates":[20.4530152,44.818092]},"properties":{"name":"Burger House Bros. Centar","description":""}},{"type":"Feature","geometry":{"type":"Point","coordinates":[20.4546178,44.8180288]},"properties":{"name":"Go Sushi Stari Grad","description":""}},{"type":"Feature","geometry":{"type":"Point","coordinates":[20.4699495,44.7995499]},"properties":{"name":"Koppa specialty coffee","description":""}},{"type":"Feature","geometry":{"type":"Point","coordinates":[20.473217,44.8053932]},"properties":{"name":"Pietra Pizza Napoletana","description":""}},{"type":"Feature","geometry":{"type":"Point","coordinates":[20.4579937,44.8095432]},"properties":{"name":"Фердинанд кнедле","description":""}},{"type":"Feature","geometry":{"type":"Point","coordinates":[20.4122932,44.820056]},"properties":{"name":"Stamevski Blok 32","description":""}},{"type":"Feature","geometry":{"type":"Point","coordinates":[20.4569498,44.8209583]},"properties":{"name":"Pasteli Cake Shop","description":""}},{"type":"Feature","geometry":{"type":"Point","coordinates":[20.4660222,44.805594]},"properties":{"name":"Sunshine bagel","description":""}},{"type":"Feature","geometry":{"type":"Point","coordinates":[20.4628303,44.8198859]},"properties":{"name":"Košnica Dorćol","description":""}},{"type":"Feature","geometry":{"type":"Point","coordinates":[20.4647347,44.8126748]},"properties":{"name":"Štrik kafe knjižara","description":""}},{"type":"Feature","geometry":{"type":"Point","coordinates":[20.4741546,44.8001193]},"properties":{"name":"Послатичарница ''Презент''","description":""}},{"type":"Feature","geometry":{"type":"Point","coordinates":[20.4618891,44.8203262]},"properties":{"name":"VegANGELov","description":""}},{"type":"Feature","geometry":{"type":"Point","coordinates":[20.4667659,44.8152746]},"properties":{"name":"Prana","description":""}},{"type":"Feature","geometry":{"type":"Point","coordinates":[20.434294,44.811133]},"properties":{"name":"Fresco Beograd","description":""}},{"type":"Feature","geometry":{"type":"Point","coordinates":[20.4587119,44.8268715]},"properties":{"name":"Coffee Shop Dorćol","description":""}},{"type":"Feature","geometry":{"type":"Point","coordinates":[20.4832724,44.7982191]},"properties":{"name":"La la kafe","description":""}},{"type":"Feature","geometry":{"type":"Point","coordinates":[20.4931432,44.7844877]},"properties":{"name":"CHi LE MA Belgrade 吃了吗","description":""}},{"type":"Feature","geometry":{"type":"Point","coordinates":[20.492269,44.7974816]},"properties":{"name":"Kafić BeWell energy","description":""}},{"type":"Feature","geometry":{"type":"Point","coordinates":[20.4582625,44.8216038]},"properties":{"name":"D59B","description":""}},{"type":"Feature","geometry":{"type":"Point","coordinates":[20.4611283,44.8207209]},"properties":{"name":"Urban Lodge Belgrade","description":""}},{"type":"Feature","geometry":{"type":"Point","coordinates":[20.45607,44.8247044]},"properties":{"name":"Birds","description":""}},{"type":"Feature","geometry":{"type":"Point","coordinates":[20.4279918,44.7667011]},"properties":{"name":"Kafeterija Košutnjak","description":""}},{"type":"Feature","geometry":{"type":"Point","coordinates":[20.4661312,44.8101845]},"properties":{"name":"Starbucks","description":""}},{"type":"Feature","geometry":{"type":"Point","coordinates":[20.4657205,44.8168532]},"properties":{"name":"April bar","description":""}},{"type":"Feature","geometry":{"type":"Point","coordinates":[20.4654855,44.8149429]},"properties":{"name":"Artist Specialty Coffee","description":""}},{"type":"Feature","geometry":{"type":"Point","coordinates":[20.4240445,44.8091112]},"properties":{"name":"Тениски клуб \"Газела\"","description":""}},{"type":"Feature","geometry":{"type":"Point","coordinates":[20.4578216,44.8165994]},"properties":{"name":"Belgrade Art Hotel, a member of Radisson Individuals","description":""}},{"type":"Feature","geometry":{"type":"Point","coordinates":[20.3827883,44.793753]},"properties":{"name":"XTEAM ISLAND","description":""}},{"type":"Feature","geometry":{"type":"Point","coordinates":[20.4549515,44.8188811]},"properties":{"name":"Coffee Dream","description":""}},{"type":"Feature","geometry":{"type":"Point","coordinates":[20.466228,44.8159897]},"properties":{"name":"Bad Sushi","description":""}},{"type":"Feature","geometry":{"type":"Point","coordinates":[20.4621551,44.8193589]},"properties":{"name":"Eatalian Food Bar Dorćol","description":""}},{"type":"Feature","geometry":{"type":"Point","coordinates":[20.4840302,44.8004623]},"properties":{"name":"Urma","description":""}},{"type":"Feature","geometry":{"type":"Point","coordinates":[20.4169093,44.7813329]},"properties":{"name":"Cafe & Factory 11","description":""}},{"type":"Feature","geometry":{"type":"Point","coordinates":[20.4760664,44.8095585]},"properties":{"name":"Gurme","description":""}},{"type":"Feature","geometry":{"type":"Point","coordinates":[20.4555566,44.8232058]},"properties":{"name":"Stories","description":""}},{"type":"Feature","geometry":{"type":"Point","coordinates":[20.4579637,44.8095638]},"properties":{"name":"Kaži Važi","description":""}},{"type":"Feature","geometry":{"type":"Point","coordinates":[20.470947,44.8025388]},"properties":{"name":"Cafe \"Zona Industriale\"","description":""}},{"type":"Feature","geometry":{"type":"Point","coordinates":[20.469111,44.8081318]},"properties":{"name":"Svetozar","description":""}},{"type":"Feature","geometry":{"type":"Point","coordinates":[20.455887,44.815402]},"properties":{"name":"Kofilin","description":""}},{"type":"Feature","geometry":{"type":"Point","coordinates":[20.4854657,44.8166359]},"properties":{"name":"Leptir Kafe","description":""}},{"type":"Feature","geometry":{"type":"Point","coordinates":[20.4132279,44.847992]},"properties":{"name":"Lamanš Bistro","description":""}},{"type":"Feature","geometry":{"type":"Point","coordinates":[20.4592851,44.8138746]},"properties":{"name":"Youran Tea House","description":""}},{"type":"Feature","geometry":{"type":"Point","coordinates":[20.4594009,44.8108866]},"properties":{"name":"Mali prag","description":""}},{"type":"Feature","geometry":{"type":"Point","coordinates":[20.4594723,44.8208265]},"properties":{"name":"Kuća Umetnica","description":""}},{"type":"Feature","geometry":{"type":"Point","coordinates":[20.4579527,44.8077423]},"properties":{"name":"Hotel Beograd Café","description":""}},{"type":"Feature","geometry":{"type":"Point","coordinates":[20.4796966,44.8004308]},"properties":{"name":"Dusha Specialty Coffee","description":""}},{"type":"Feature","geometry":{"type":"Point","coordinates":[20.4828397,44.7982419]},"properties":{"name":"Kofilin","description":""}},{"type":"Feature","geometry":{"type":"Point","coordinates":[20.4593846,44.8208741]},"properties":{"name":"june cafe","description":""}},{"type":"Feature","geometry":{"type":"Point","coordinates":[20.4735437,44.8053527]},"properties":{"name":"Nekrasova The Bar","description":""}},{"type":"Feature","geometry":{"type":"Point","coordinates":[20.4610943,44.8197728]},"properties":{"name":"Iva New Balkan Cuisine","description":""}},{"type":"Feature","geometry":{"type":"Point","coordinates":[20.4544052,44.8177953]},"properties":{"name":"Џовани Пицерија","description":""}},{"type":"Feature","geometry":{"type":"Point","coordinates":[20.5373717,44.8129607]},"properties":{"name":"Noku Espresso and more","description":""}},{"type":"Feature","geometry":{"type":"Point","coordinates":[20.4597867,44.8184168]},"properties":{"name":"Bad Ramen","description":""}},{"type":"Feature","geometry":{"type":"Point","coordinates":[20.4698642,44.8027426]},"properties":{"name":"LUMI - Specialty Coffee","description":""}},{"type":"Feature","geometry":{"type":"Point","coordinates":[20.4644119,44.8088468]},"properties":{"name":"Kafeterija Kofilin - Кофейня Кофилин","description":""}},{"type":"Feature","geometry":{"type":"Point","coordinates":[20.4531808,44.8276346]},"properties":{"name":"Sweet&Green","description":""}},{"type":"Feature","geometry":{"type":"Point","coordinates":[20.4626084,44.8260209]},"properties":{"name":"Lama Coffee Spot","description":""}},{"type":"Feature","geometry":{"type":"Point","coordinates":[20.4572223,44.8036465]},"properties":{"name":"La BoULANGeRie","description":""}},{"type":"Feature","geometry":{"type":"Point","coordinates":[20.4662287,44.8038616]},"properties":{"name":"La BoULANGeRie","description":""}},{"type":"Feature","geometry":{"type":"Point","coordinates":[20.4588337,44.8278801]},"properties":{"name":"TT Asia","description":""}},{"type":"Feature","geometry":{"type":"Point","coordinates":[20.4660529,44.8056013]},"properties":{"name":"Restaurant Fuzio","description":""}},{"type":"Feature","geometry":{"type":"Point","coordinates":[20.4699265,44.8068687]},"properties":{"name":"LA RUMBA","description":""}},{"type":"Feature","geometry":{"type":"Point","coordinates":[20.461999,44.8192136]},"properties":{"name":"DRIP Specialty Coffee","description":""}},{"type":"Feature","geometry":{"type":"Point","coordinates":[20.4530414,44.8135735]},"properties":{"name":"Gastroport","description":""}},{"type":"Feature","geometry":{"type":"Point","coordinates":[20.4938968,44.793733]},"properties":{"name":"Jezgro.beo","description":""}},{"type":"Feature","geometry":{"type":"Point","coordinates":[20.4791348,44.7980933]},"properties":{"name":"THAI ZONE","description":""}},{"type":"Feature","geometry":{"type":"Point","coordinates":[20.4533397,44.814667]},"properties":{"name":"Good DumplingsX","description":""}},{"type":"Feature","geometry":{"type":"Point","coordinates":[20.4582251,44.8128667]},"properties":{"name":"X.WANG'S KITCHEN","description":""}},{"type":"Feature","geometry":{"type":"Point","coordinates":[20.4619465,44.8158497]},"properties":{"name":"TeaTalk 茶话","description":""}},{"type":"Feature","geometry":{"type":"Point","coordinates":[20.4671346,44.8086557]},"properties":{"name":"t element","description":""}},{"type":"Feature","geometry":{"type":"Point","coordinates":[20.4662443,44.8066539]},"properties":{"name":"Telma","description":""}},{"type":"Feature","geometry":{"type":"Point","coordinates":[20.4662823,44.8153549]},"properties":{"name":"Ужитак Кафе","description":""}},{"type":"Feature","geometry":{"type":"Point","coordinates":[20.4907075,44.7874597]},"properties":{"name":"Kuća Coffee","description":""}},{"type":"Feature","geometry":{"type":"Point","coordinates":[20.4806925,44.801123]},"properties":{"name":"Кафе „Козметичар”","description":""}},{"type":"Feature","geometry":{"type":"Point","coordinates":[20.4565928,44.8221424]},"properties":{"name":"TT Bistro","description":""}},{"type":"Feature","geometry":{"type":"Point","coordinates":[20.4480842,44.8016393]},"properties":{"name":"TT Bistro BW","description":""}},{"type":"Feature","geometry":{"type":"Point","coordinates":[20.4512994,44.8090318]},"properties":{"name":"Baget & Co.","description":""}},{"type":"Feature","geometry":{"type":"Point","coordinates":[20.4481999,44.8025978]},"properties":{"name":"Baget & Co. Dvojka","description":""}},{"type":"Feature","geometry":{"type":"Point","coordinates":[20.4162113,44.8305313]},"properties":{"name":"Badem caffe","description":""}},{"type":"Feature","geometry":{"type":"Point","coordinates":[20.5425009,44.7891763]},"properties":{"name":"Жалфија - Žalfija","description":""}},{"type":"Feature","geometry":{"type":"Point","coordinates":[20.4666021,44.8049006]},"properties":{"name":"Mimosa","description":""}},{"type":"Feature","geometry":{"type":"Point","coordinates":[20.4666623,44.8167971]},"properties":{"name":"Coffee pass","description":""}},{"type":"Feature","geometry":{"type":"Point","coordinates":[20.4722998,44.8017401]},"properties":{"name":"PATRIKI","description":""}},{"type":"Feature","geometry":{"type":"Point","coordinates":[20.4651644,44.8146346]},"properties":{"name":"Evergreen coffee Beograd","description":""}},{"type":"Feature","geometry":{"type":"Point","coordinates":[20.4574365,44.823604]},"properties":{"name":"Caffe Penzija Dorcol","description":""}},{"type":"Feature","geometry":{"type":"Point","coordinates":[20.4075457,44.8439867]},"properties":{"name":"Bosiljak Pizza Napoletana","description":""}},{"type":"Feature","geometry":{"type":"Point","coordinates":[20.3955879,44.8198794]},"properties":{"name":"Restoran Emilio","description":""}},{"type":"Feature","geometry":{"type":"Point","coordinates":[20.4158154,44.839264]},"properties":{"name":"Thyme - StreetFood & Breakfast","description":""}},{"type":"Feature","geometry":{"type":"Point","coordinates":[20.4763611,44.8118728]},"properties":{"name":"Lula fine espresso bar","description":""}},{"type":"Feature","geometry":{"type":"Point","coordinates":[20.4638711,44.8297073]},"properties":{"name":"The Locals","description":""}},{"type":"Feature","geometry":{"type":"Point","coordinates":[20.4627543,44.8298888]},"properties":{"name":"Caffe \"Knjižara\"","description":""}},{"type":"Feature","geometry":{"type":"Point","coordinates":[20.4635279,44.8155315]},"properties":{"name":"Willow coffee shop","description":""}},{"type":"Feature","geometry":{"type":"Point","coordinates":[20.4125527,44.8452803]},"properties":{"name":"Crna Ovca","description":""}},{"type":"Feature","geometry":{"type":"Point","coordinates":[20.472831,44.8055178]},"properties":{"name":"Craft spot","description":""}},{"type":"Feature","geometry":{"type":"Point","coordinates":[20.4293876,44.8128023]},"properties":{"name":"Family Cup","description":""}},{"type":"Feature","geometry":{"type":"Point","coordinates":[20.413378,44.775969]},"properties":{"name":"Bakery LULU","description":""}},{"type":"Feature","geometry":{"type":"Point","coordinates":[20.471972,44.798604]},"properties":{"name":"Kafeterija Dejt","description":""}},{"type":"Feature","geometry":{"type":"Point","coordinates":[20.4608934,44.8212026]},"properties":{"name":"Yama","description":""}},{"type":"Feature","geometry":{"type":"Point","coordinates":[20.463952,44.808499]},"properties":{"name":"Marquise Palata Nauke","description":""}},{"type":"Feature","geometry":{"type":"Point","coordinates":[20.4663179,44.7926673]},"properties":{"name":"Франш","description":""}},{"type":"Feature","geometry":{"type":"Point","coordinates":[20.4636562000001,44.8070246]},"properties":{"name":"Greenet","description":""}},{"type":"Feature","geometry":{"type":"Point","coordinates":[20.46313,44.823141]},"properties":{"name":"Marukoshi","description":""}},{"type":"Feature","geometry":{"type":"Point","coordinates":[20.4605143,44.8130085]},"properties":{"name":"Cafe Hotel Moskva","description":""}},{"type":"Feature","geometry":{"type":"Point","coordinates":[20.4786269,44.8037935]},"properties":{"name":"Restoran Orašac","description":""}},{"type":"Feature","geometry":{"type":"Point","coordinates":[20.416608,44.822039]},"properties":{"name":"Pizza Bar","description":""}},{"type":"Feature","geometry":{"type":"Point","coordinates":[20.4556917,44.8176604]},"properties":{"name":"Vuk","description":""}},{"type":"Feature","geometry":{"type":"Point","coordinates":[20.463826,44.817143]},"properties":{"name":"Restaurant-Pizzeria Guli","description":""}},{"type":"Feature","geometry":{"type":"Point","coordinates":[20.4743091,44.818861]},"properties":{"name":"Stara Hercegovina","description":""}},{"type":"Feature","geometry":{"type":"Point","coordinates":[20.4628198,44.8188574]},"properties":{"name":"Restoran ISTOK","description":""}},{"type":"Feature","geometry":{"type":"Point","coordinates":[20.4574117,44.8170084]},"properties":{"name":"Restaurant Le Molière","description":""}},{"type":"Feature","geometry":{"type":"Point","coordinates":[20.4975951,44.797752]},"properties":{"name":"Restoran Zvezdara Teatar","description":""}},{"type":"Feature","geometry":{"type":"Point","coordinates":[20.5076799999999,44.792261]},"properties":{"name":"Restoran Zavičaj Zvezdara","description":""}},{"type":"Feature","geometry":{"type":"Point","coordinates":[20.4686643,44.799101]},"properties":{"name":"Cafe & Factory","description":""}},{"type":"Feature","geometry":{"type":"Point","coordinates":[20.399586,44.795924]},"properties":{"name":"Cruise Cocktail Bar","description":""}},{"type":"Feature","geometry":{"type":"Point","coordinates":[20.4823507999999,44.8065092]},"properties":{"name":"Konoba & Wine Bar Tata Mata","description":""}},{"type":"Feature","geometry":{"type":"Point","coordinates":[20.418196,44.82543]},"properties":{"name":"Ресторан Jerry","description":""}},{"type":"Feature","geometry":{"type":"Point","coordinates":[20.4699161,44.8084765]},"properties":{"name":"Madera","description":""}},{"type":"Feature","geometry":{"type":"Point","coordinates":[20.450419,44.8193836]},"properties":{"name":"Radost Fina Kuhinjica","description":""}},{"type":"Feature","geometry":{"type":"Point","coordinates":[20.4526265,44.750497]},"properties":{"name":"dolcino","description":""}},{"type":"Feature","geometry":{"type":"Point","coordinates":[20.4228396999999,44.8063182]},"properties":{"name":"Boutique #3, TROJKA","description":""}},{"type":"Feature","geometry":{"type":"Point","coordinates":[20.4001772,44.8128649]},"properties":{"name":"Restoran OLIVA","description":""}},{"type":"Feature","geometry":{"type":"Point","coordinates":[20.4686815,44.7991556]},"properties":{"name":"Cafe & Factory 2","description":""}},{"type":"Feature","geometry":{"type":"Point","coordinates":[20.3898034,44.7823005]},"properties":{"name":"Sunset Caffe, Ada Sanset","description":""}},{"type":"Feature","geometry":{"type":"Point","coordinates":[20.4733888000001,44.801864]},"properties":{"name":"Kafeterija Vračar","description":""}},{"type":"Feature","geometry":{"type":"Point","coordinates":[20.4584638,44.7764682]},"properties":{"name":"Coffeedream","description":""}},{"type":"Feature","geometry":{"type":"Point","coordinates":[20.4271352,44.7781958]},"properties":{"name":"Александар клуб - Ски стаза","description":""}},{"type":"Feature","geometry":{"type":"Point","coordinates":[20.4615325,44.8034314]},"properties":{"name":"Vin et baguette","description":""}},{"type":"Feature","geometry":{"type":"Point","coordinates":[20.4088381,44.8304829]},"properties":{"name":"Meze by Elliniko Beograd","description":""}},{"type":"Feature","geometry":{"type":"Point","coordinates":[20.416229,44.830419]},"properties":{"name":"Le Petit Bistro","description":""}},{"type":"Feature","geometry":{"type":"Point","coordinates":[20.4650778,44.820286]},"properties":{"name":"Bon Vivant","description":""}},{"type":"Feature","geometry":{"type":"Point","coordinates":[20.4579527,44.8077423]},"properties":{"name":"Hotel Beograd Café","description":""}},{"type":"Feature","geometry":{"type":"Point","coordinates":[20.4714698,44.8206536]},"properties":{"name":"Кафе посластичарница \"Фини\"","description":""}},{"type":"Feature","geometry":{"type":"Point","coordinates":[20.4715454,44.7985102]},"properties":{"name":"Fini","description":""}},{"type":"Feature","geometry":{"type":"Point","coordinates":[20.4740927,44.8171929]},"properties":{"name":"Kafograf","description":""}},{"type":"Feature","geometry":{"type":"Point","coordinates":[20.4597576,44.8202554]},"properties":{"name":"Ćilim bar","description":""}},{"type":"Feature","geometry":{"type":"Point","coordinates":[20.4738707,44.8017302]},"properties":{"name":"Sonder.Belgrade","description":""}},{"type":"Feature","geometry":{"type":"Point","coordinates":[20.4515047,44.8143955]},"properties":{"name":"Rocket Coffee, specialty coffee shop","description":""}},{"type":"Feature","geometry":{"type":"Point","coordinates":[20.4544822,44.8184327]},"properties":{"name":"Vera Cafè — Specialty Coffee in Belgrade","description":""}},{"type":"Feature","geometry":{"type":"Point","coordinates":[20.4690126,44.8204973]},"properties":{"name":"Испеци па реци","description":""}},{"type":"Feature","geometry":{"type":"Point","coordinates":[20.4931559,44.7964361]},"properties":{"name":"Ispeci pa reci Zvezdara","description":""}},{"type":"Feature","geometry":{"type":"Point","coordinates":[20.4724547,44.804798]},"properties":{"name":"7 AM coffee","description":""}},{"type":"Feature","geometry":{"type":"Point","coordinates":[20.4845157,44.8007892]},"properties":{"name":"Nar Bar","description":""}},{"type":"Feature","geometry":{"type":"Point","coordinates":[20.4135394,44.8450649]},"properties":{"name":"FUKA","description":""}},{"type":"Feature","geometry":{"type":"Point","coordinates":[20.4457869,44.7928153]},"properties":{"name":"Kafeterija Kućica","description":""}},{"type":"Feature","geometry":{"type":"Point","coordinates":[20.4692783,44.820605]},"properties":{"name":"Forum","description":""}},{"type":"Feature","geometry":{"type":"Point","coordinates":[20.4695249,44.7967017]},"properties":{"name":"Starbucks St Sava Temple","description":""}},{"type":"Feature","geometry":{"type":"Point","coordinates":[20.4661312,44.8101845]},"properties":{"name":"Старбакс","description":""}},{"type":"Feature","geometry":{"type":"Point","coordinates":[20.4566724,44.8146011]},"properties":{"name":"Starbucks Zeleni Venac","description":""}},{"type":"Feature","geometry":{"type":"Point","coordinates":[20.4583558,44.8153522]},"properties":{"name":"Starbucks restoran","description":""}},{"type":"Feature","geometry":{"type":"Point","coordinates":[20.4716628,44.8189028]},"properties":{"name":"Sonder Dorćol","description":""}},{"type":"Feature","geometry":{"type":"Point","coordinates":[20.4579011,44.8092111]},"properties":{"name":"NE TA DVER | Wine bar","description":""}},{"type":"Feature","geometry":{"type":"Point","coordinates":[20.4793091,44.8026248]},"properties":{"name":"Bobo Boucher et Botanist","description":""}},{"type":"Feature","geometry":{"type":"Point","coordinates":[20.4535304,44.8006703]},"properties":{"name":"Focus Specialty Coffee","description":""}},{"type":"Feature","geometry":{"type":"Point","coordinates":[20.4051848,44.8204806]},"properties":{"name":"ca.ca.fe","description":""}},{"type":"Feature","geometry":{"type":"Point","coordinates":[20.4294255,44.810798]},"properties":{"name":"Ciklo Bar","description":""}},{"type":"Feature","geometry":{"type":"Point","coordinates":[20.4793091,44.8026248]},"properties":{"name":"Fomin Bar Beograd","description":""}},{"type":"Feature","geometry":{"type":"Point","coordinates":[20.4756248,44.8046493]},"properties":{"name":"gosti bistro","description":""}}]}
