<?xml version="1.0" encoding="UTF-8"?>
<kml xmlns="http://www.opengis.net/kml/2.2">
  <Document>
    <name><![CDATA[Nepušački lokali u Beogradu (Nonsmoking bars&restaurants in Belgrade)]]></name>
    <description>https://www.facebook.com/nepusackilokaliubeogradu/</description>
    <Style id="icon-1899-0288D1-labelson">
      <IconStyle>
        <color>ffd18802</color>
        <scale>1</scale>
        <Icon>
          <href>https://www.gstatic.com/mapspro/images/stock/503-wht-blank_maps.png</href>
        </Icon>
        <hotSpot x="32" xunits="pixels" y="64" yunits="insetPixels"/>
      </IconStyle>
    </Style>
    <Style id="icon-1899-0288D1-labelson-nodesc">
      <IconStyle>
        <color>ffd18802</color>
        <scale>1</scale>
        <Icon>
          <href>https://www.gstatic.com/mapspro/images/stock/503-wht-blank_maps.png</href>
        </Icon>
        <hotSpot x="32" xunits="pixels" y="64" yunits="insetPixels"/>
      </IconStyle>
      <BalloonStyle>
        <text><![CDATA[<h3>$[name]</h3>]]></text>
      </BalloonStyle>
    </Style>
    <Style id="icon-1899-7CB342-labelson-nodesc">
      <IconStyle>
        <color>ff42b37c</color>
        <scale>1</scale>
        <Icon>
          <href>https://www.gstatic.com/mapspro/images/stock/503-wht-blank_maps.png</href>
        </Icon>
        <hotSpot x="32" xunits="pixels" y="64" yunits="insetPixels"/>
      </IconStyle>
      <BalloonStyle>
        <text><![CDATA[<h3>$[name]</h3>]]></text>
      </BalloonStyle>
    </Style>
    <Style id="icon-1899-FFEA00-labelson-nodesc">
      <IconStyle>
        <color>ff00eaff</color>
        <scale>1</scale>
        <Icon>
          <href>https://www.gstatic.com/mapspro/images/stock/503-wht-blank_maps.png</href>
        </Icon>
        <hotSpot x="32" xunits="pixels" y="64" yunits="insetPixels"/>
      </IconStyle>
      <BalloonStyle>
        <text><![CDATA[<h3>$[name]</h3>]]></text>
      </BalloonStyle>
    </Style>
    <Folder>
      <name><![CDATA[Nepušački lokali (Nonsmoking bars&restaurants)]]></name>
      <Placemark>
        <name>Burrito Madre</name>
        <styleUrl>#icon-1899-0288D1-labelson-nodesc</styleUrl>
        <Point>
          <coordinates>
            20.4613897,44.8130492,0
          </coordinates>
        </Point>
      </Placemark>
      <Placemark>
        <name>Crna Ovca</name>
        <styleUrl>#icon-1899-0288D1-labelson-nodesc</styleUrl>
        <Point>
          <coordinates>
            20.4572732,44.8214365,0
          </coordinates>
        </Point>
      </Placemark>
      <Placemark>
        <name>Go Sushi</name>
        <styleUrl>#icon-1899-0288D1-labelson-nodesc</styleUrl>
        <Point>
          <coordinates>
            20.4666455,44.8059844,0
          </coordinates>
        </Point>
      </Placemark>
      <Placemark>
        <name>Greenet Nusiceva</name>
        <styleUrl>#icon-1899-0288D1-labelson-nodesc</styleUrl>
        <Point>
          <coordinates>
            20.4612674,44.8137043,0
          </coordinates>
        </Point>
      </Placemark>
      <Placemark>
        <name>Tea House</name>
        <styleUrl>#icon-1899-0288D1-labelson-nodesc</styleUrl>
        <Point>
          <coordinates>
            20.4758709,44.8026172,0
          </coordinates>
        </Point>
      </Placemark>
      <Placemark>
        <name>Metropol Palace, a Luxury Collection Hotel, Belgrade - Kafe u prizemlju</name>
        <styleUrl>#icon-1899-0288D1-labelson-nodesc</styleUrl>
        <Point>
          <coordinates>
            20.4735079,44.8068188,0
          </coordinates>
        </Point>
      </Placemark>
      <Placemark>
        <name>Przionica D59B</name>
        <styleUrl>#icon-1899-0288D1-labelson-nodesc</styleUrl>
        <Point>
          <coordinates>
            20.467637,44.823192,0
          </coordinates>
        </Point>
      </Placemark>
      <Placemark>
        <name>Salon de thé by Small Tree</name>
        <styleUrl>#icon-1899-0288D1-labelson-nodesc</styleUrl>
        <Point>
          <coordinates>
            20.4672866999999,44.8013985,0
          </coordinates>
        </Point>
      </Placemark>
      <Placemark>
        <name>Sarajevski ćevap Ćevabdžinica Savčić</name>
        <styleUrl>#icon-1899-0288D1-labelson-nodesc</styleUrl>
        <Point>
          <coordinates>
            20.4665454,44.8041064,0
          </coordinates>
        </Point>
      </Placemark>
      <Placemark>
        <name>Bistro - Dom kulture Studentski grad</name>
        <styleUrl>#icon-1899-0288D1-labelson-nodesc</styleUrl>
        <Point>
          <coordinates>
            20.400205,44.825134,0
          </coordinates>
        </Point>
      </Placemark>
      <Placemark>
        <name>Pane E Vino</name>
        <styleUrl>#icon-1899-0288D1-labelson-nodesc</styleUrl>
        <Point>
          <coordinates>
            20.3996976,44.8125297,0
          </coordinates>
        </Point>
      </Placemark>
      <Placemark>
        <name>Credo</name>
        <description>Restoran hotela Marriot</description>
        <styleUrl>#icon-1899-0288D1-labelson</styleUrl>
        <Point>
          <coordinates>
            20.4603587,44.8170095,0
          </coordinates>
        </Point>
      </Placemark>
      <Placemark>
        <name>Bookastore</name>
        <styleUrl>#icon-1899-0288D1-labelson-nodesc</styleUrl>
        <Point>
          <coordinates>
            20.4544885,44.8180076,0
          </coordinates>
        </Point>
      </Placemark>
      <Placemark>
        <name>Go Sushi</name>
        <styleUrl>#icon-1899-0288D1-labelson-nodesc</styleUrl>
        <Point>
          <coordinates>
            20.4172927,44.7739466,0
          </coordinates>
        </Point>
      </Placemark>
      <Placemark>
        <name>Poslasticarnica DJ</name>
        <styleUrl>#icon-1899-0288D1-labelson-nodesc</styleUrl>
        <Point>
          <coordinates>
            20.467391,44.8065343,0
          </coordinates>
        </Point>
      </Placemark>
      <Placemark>
        <name>Poslastičarnica Koštana</name>
        <styleUrl>#icon-1899-0288D1-labelson-nodesc</styleUrl>
        <Point>
          <coordinates>
            20.4828560999999,44.8024699,0
          </coordinates>
        </Point>
      </Placemark>
      <Placemark>
        <name>Bombaj Pastry Shop</name>
        <styleUrl>#icon-1899-0288D1-labelson-nodesc</styleUrl>
        <Point>
          <coordinates>
            20.4888876,44.7995949,0
          </coordinates>
        </Point>
      </Placemark>
      <Placemark>
        <name>Božidarac cafe</name>
        <styleUrl>#icon-1899-0288D1-labelson-nodesc</styleUrl>
        <Point>
          <coordinates>
            20.4798485,44.7994784,0
          </coordinates>
        </Point>
      </Placemark>
      <Placemark>
        <name>LUFF</name>
        <styleUrl>#icon-1899-0288D1-labelson-nodesc</styleUrl>
        <Point>
          <coordinates>
            20.4689622999999,44.8037283,0
          </coordinates>
        </Point>
      </Placemark>
      <Placemark>
        <name>Arkabarka</name>
        <styleUrl>#icon-1899-0288D1-labelson-nodesc</styleUrl>
        <Point>
          <coordinates>
            20.431378,44.82215,0
          </coordinates>
        </Point>
      </Placemark>
      <Placemark>
        <name>Di Napoli - Pizzeria ristorantino</name>
        <styleUrl>#icon-1899-0288D1-labelson-nodesc</styleUrl>
        <Point>
          <coordinates>
            20.4289712,44.8129674,0
          </coordinates>
        </Point>
      </Placemark>
      <Placemark>
        <name>Pekara Lulu</name>
        <styleUrl>#icon-1899-0288D1-labelson-nodesc</styleUrl>
        <Point>
          <coordinates>
            20.4438534,44.7956246,0
          </coordinates>
        </Point>
      </Placemark>
      <Placemark>
        <name>Pekara Lulu - Pozeska</name>
        <styleUrl>#icon-1899-0288D1-labelson-nodesc</styleUrl>
        <Point>
          <coordinates>
            20.4133835,44.7757623,0
          </coordinates>
        </Point>
      </Placemark>
      <Placemark>
        <name>IVO</name>
        <styleUrl>#icon-1899-0288D1-labelson-nodesc</styleUrl>
        <Point>
          <coordinates>
            20.4656259999999,44.809764,0
          </coordinates>
        </Point>
      </Placemark>
      <Placemark>
        <name>Sawarma Hanan</name>
        <styleUrl>#icon-1899-0288D1-labelson-nodesc</styleUrl>
        <Point>
          <coordinates>
            20.4658328,44.8050969,0
          </coordinates>
        </Point>
      </Placemark>
      <Placemark>
        <name>GlutenNo Belgrade</name>
        <styleUrl>#icon-1899-0288D1-labelson-nodesc</styleUrl>
        <Point>
          <coordinates>
            20.4090517,44.8054185,0
          </coordinates>
        </Point>
      </Placemark>
      <Placemark>
        <name>Pekara Zanat</name>
        <styleUrl>#icon-1899-0288D1-labelson-nodesc</styleUrl>
        <Point>
          <coordinates>
            20.4648018,44.8069255,0
          </coordinates>
        </Point>
      </Placemark>
      <Placemark>
        <name>Poslastičarnica Šuma</name>
        <styleUrl>#icon-1899-0288D1-labelson-nodesc</styleUrl>
        <Point>
          <coordinates>
            20.4632812,44.8172072,0
          </coordinates>
        </Point>
      </Placemark>
      <Placemark>
        <name>Rice Kings Sutlijaš bar</name>
        <styleUrl>#icon-1899-0288D1-labelson-nodesc</styleUrl>
        <Point>
          <coordinates>
            20.4564245,44.816358,0
          </coordinates>
        </Point>
      </Placemark>
      <Placemark>
        <name>cao seceru</name>
        <styleUrl>#icon-1899-0288D1-labelson-nodesc</styleUrl>
        <Point>
          <coordinates>
            20.4573513,44.824206,0
          </coordinates>
        </Point>
      </Placemark>
      <Placemark>
        <name>Best Western Hotel Sumadija</name>
        <styleUrl>#icon-1899-0288D1-labelson-nodesc</styleUrl>
        <Point>
          <coordinates>
            20.4161508,44.7818852,0
          </coordinates>
        </Point>
      </Placemark>
      <Placemark>
        <name>Hleb i Kifle</name>
        <styleUrl>#icon-1899-0288D1-labelson-nodesc</styleUrl>
        <Point>
          <coordinates>
            20.4590512,44.8221433,0
          </coordinates>
        </Point>
      </Placemark>
      <Placemark>
        <name>Valentina i Karanfil</name>
        <styleUrl>#icon-1899-0288D1-labelson-nodesc</styleUrl>
        <Point>
          <coordinates>
            20.4564316999999,44.8223229,0
          </coordinates>
        </Point>
      </Placemark>
      <Placemark>
        <name><![CDATA[Savamala Bed&Breakfast]]></name>
        <styleUrl>#icon-1899-0288D1-labelson-nodesc</styleUrl>
        <Point>
          <coordinates>
            20.453617,44.813492,0
          </coordinates>
        </Point>
      </Placemark>
      <Placemark>
        <name><![CDATA[Torte i kolači "M" Mecika]]></name>
        <styleUrl>#icon-1899-0288D1-labelson-nodesc</styleUrl>
        <Point>
          <coordinates>
            20.4733282,44.8185765,0
          </coordinates>
        </Point>
      </Placemark>
      <Placemark>
        <name>Coffee Shop</name>
        <styleUrl>#icon-1899-0288D1-labelson-nodesc</styleUrl>
        <Point>
          <coordinates>
            20.4876218,44.7985971,0
          </coordinates>
        </Point>
      </Placemark>
      <Placemark>
        <name>Feniks gelato saloon</name>
        <styleUrl>#icon-1899-0288D1-labelson-nodesc</styleUrl>
        <Point>
          <coordinates>
            20.4587198,44.8154382,0
          </coordinates>
        </Point>
      </Placemark>
      <Placemark>
        <name><![CDATA[Хлеб & Кифле]]></name>
        <styleUrl>#icon-1899-0288D1-labelson-nodesc</styleUrl>
        <Point>
          <coordinates>
            20.4924811999999,44.7946589,0
          </coordinates>
        </Point>
      </Placemark>
      <Placemark>
        <name>Fat Boys Food co.</name>
        <styleUrl>#icon-1899-0288D1-labelson-nodesc</styleUrl>
        <Point>
          <coordinates>
            20.4560706,44.8246333,0
          </coordinates>
        </Point>
      </Placemark>
      <Placemark>
        <name>MoMo Bar and Play</name>
        <styleUrl>#icon-1899-0288D1-labelson-nodesc</styleUrl>
        <Point>
          <coordinates>
            20.4713237,44.7979009,0
          </coordinates>
        </Point>
      </Placemark>
      <Placemark>
        <name>Delicent</name>
        <styleUrl>#icon-1899-0288D1-labelson-nodesc</styleUrl>
        <Point>
          <coordinates>
            20.4621867,44.8234945,0
          </coordinates>
        </Point>
      </Placemark>
      <Placemark>
        <name><![CDATA[Bloom - Breakfast & Brunch]]></name>
        <styleUrl>#icon-1899-0288D1-labelson-nodesc</styleUrl>
        <Point>
          <coordinates>
            20.4593429,44.8209035,0
          </coordinates>
        </Point>
      </Placemark>
      <Placemark>
        <name>Kafeterija „Bukmarker“ | Delfi knjižara SKC</name>
        <styleUrl>#icon-1899-0288D1-labelson-nodesc</styleUrl>
        <Point>
          <coordinates>
            20.4640596,44.8060806,0
          </coordinates>
        </Point>
      </Placemark>
      <Placemark>
        <name>Crna Ovca</name>
        <styleUrl>#icon-1899-0288D1-labelson-nodesc</styleUrl>
        <Point>
          <coordinates>
            20.4704398,44.8028875,0
          </coordinates>
        </Point>
      </Placemark>
      <Placemark>
        <name>Way Cup Specialty Coffee Shop</name>
        <styleUrl>#icon-1899-0288D1-labelson-nodesc</styleUrl>
        <Point>
          <coordinates>
            20.4997101,44.792037,0
          </coordinates>
        </Point>
      </Placemark>
      <Placemark>
        <name>Go Sushi</name>
        <styleUrl>#icon-1899-0288D1-labelson-nodesc</styleUrl>
        <Point>
          <coordinates>
            20.4875327,44.797683,0
          </coordinates>
        </Point>
      </Placemark>
      <Placemark>
        <name>Bacio Gelato</name>
        <description>https://www.baciogelato.rs/</description>
        <styleUrl>#icon-1899-0288D1-labelson</styleUrl>
        <Point>
          <coordinates>
            20.4603078,44.8218898,0
          </coordinates>
        </Point>
      </Placemark>
      <Placemark>
        <name>Wagokoro</name>
        <styleUrl>#icon-1899-0288D1-labelson-nodesc</styleUrl>
        <Point>
          <coordinates>
            20.4724767,44.8177658,0
          </coordinates>
        </Point>
      </Placemark>
      <Placemark>
        <name>Data Status - Knjižara Medika</name>
        <styleUrl>#icon-1899-0288D1-labelson-nodesc</styleUrl>
        <Point>
          <coordinates>
            20.4638224,44.7974966,0
          </coordinates>
        </Point>
      </Placemark>
      <Placemark>
        <name>Akademija Book Store</name>
        <styleUrl>#icon-1899-0288D1-labelson-nodesc</styleUrl>
        <Point>
          <coordinates>
            20.456843,44.8177359,0
          </coordinates>
        </Point>
      </Placemark>
      <Placemark>
        <name>Burger House Bros. Centar</name>
        <styleUrl>#icon-1899-0288D1-labelson-nodesc</styleUrl>
        <Point>
          <coordinates>
            20.4530152,44.818092,0
          </coordinates>
        </Point>
      </Placemark>
      <Placemark>
        <name>Go Sushi Stari Grad</name>
        <styleUrl>#icon-1899-0288D1-labelson-nodesc</styleUrl>
        <Point>
          <coordinates>
            20.4546178,44.8180288,0
          </coordinates>
        </Point>
      </Placemark>
      <Placemark>
        <name>Koppa specialty coffee</name>
        <styleUrl>#icon-1899-0288D1-labelson-nodesc</styleUrl>
        <Point>
          <coordinates>
            20.4699495,44.7995499,0
          </coordinates>
        </Point>
      </Placemark>
      <Placemark>
        <name>Pietra Pizza Napoletana</name>
        <styleUrl>#icon-1899-0288D1-labelson-nodesc</styleUrl>
        <Point>
          <coordinates>
            20.473217,44.8053932,0
          </coordinates>
        </Point>
      </Placemark>
      <Placemark>
        <name>Фердинанд кнедле</name>
        <styleUrl>#icon-1899-0288D1-labelson-nodesc</styleUrl>
        <Point>
          <coordinates>
            20.4579937,44.8095432,0
          </coordinates>
        </Point>
      </Placemark>
      <Placemark>
        <name>Stamevski Blok 32</name>
        <styleUrl>#icon-1899-0288D1-labelson-nodesc</styleUrl>
        <Point>
          <coordinates>
            20.4122932,44.820056,0
          </coordinates>
        </Point>
      </Placemark>
      <Placemark>
        <name>Pasteli Cake Shop</name>
        <styleUrl>#icon-1899-0288D1-labelson-nodesc</styleUrl>
        <Point>
          <coordinates>
            20.4569498,44.8209583,0
          </coordinates>
        </Point>
      </Placemark>
      <Placemark>
        <name>Sunshine bagel</name>
        <styleUrl>#icon-1899-0288D1-labelson-nodesc</styleUrl>
        <Point>
          <coordinates>
            20.4660222,44.805594,0
          </coordinates>
        </Point>
      </Placemark>
      <Placemark>
        <name>Košnica Dorćol</name>
        <styleUrl>#icon-1899-0288D1-labelson-nodesc</styleUrl>
        <Point>
          <coordinates>
            20.4628303,44.8198859,0
          </coordinates>
        </Point>
      </Placemark>
      <Placemark>
        <name>Štrik kafe knjižara</name>
        <styleUrl>#icon-1899-0288D1-labelson-nodesc</styleUrl>
        <Point>
          <coordinates>
            20.4647347,44.8126748,0
          </coordinates>
        </Point>
      </Placemark>
      <Placemark>
        <name><![CDATA[Послатичарница ''Презент'']]></name>
        <styleUrl>#icon-1899-0288D1-labelson-nodesc</styleUrl>
        <Point>
          <coordinates>
            20.4741546,44.8001193,0
          </coordinates>
        </Point>
      </Placemark>
      <Placemark>
        <name>VegANGELov</name>
        <styleUrl>#icon-1899-0288D1-labelson-nodesc</styleUrl>
        <Point>
          <coordinates>
            20.4618891,44.8203262,0
          </coordinates>
        </Point>
      </Placemark>
      <Placemark>
        <name>Prana</name>
        <styleUrl>#icon-1899-0288D1-labelson-nodesc</styleUrl>
        <Point>
          <coordinates>
            20.4667659,44.8152746,0
          </coordinates>
        </Point>
      </Placemark>
      <Placemark>
        <name>Fresco Beograd</name>
        <styleUrl>#icon-1899-0288D1-labelson-nodesc</styleUrl>
        <Point>
          <coordinates>
            20.434294,44.811133,0
          </coordinates>
        </Point>
      </Placemark>
      <Placemark>
        <name>Coffee Shop Dorćol</name>
        <styleUrl>#icon-1899-0288D1-labelson-nodesc</styleUrl>
        <Point>
          <coordinates>
            20.4587119,44.8268715,0
          </coordinates>
        </Point>
      </Placemark>
      <Placemark>
        <name>La la kafe</name>
        <styleUrl>#icon-1899-0288D1-labelson-nodesc</styleUrl>
        <Point>
          <coordinates>
            20.4832724,44.7982191,0
          </coordinates>
        </Point>
      </Placemark>
      <Placemark>
        <name>CHi LE MA Belgrade 吃了吗</name>
        <styleUrl>#icon-1899-0288D1-labelson-nodesc</styleUrl>
        <Point>
          <coordinates>
            20.4931432,44.7844877,0
          </coordinates>
        </Point>
      </Placemark>
      <Placemark>
        <name>Kafić BeWell energy</name>
        <styleUrl>#icon-1899-0288D1-labelson-nodesc</styleUrl>
        <Point>
          <coordinates>
            20.492269,44.7974816,0
          </coordinates>
        </Point>
      </Placemark>
      <Placemark>
        <name>D59B</name>
        <styleUrl>#icon-1899-0288D1-labelson-nodesc</styleUrl>
        <Point>
          <coordinates>
            20.4582625,44.8216038,0
          </coordinates>
        </Point>
      </Placemark>
      <Placemark>
        <name>Urban Lodge Belgrade</name>
        <styleUrl>#icon-1899-0288D1-labelson-nodesc</styleUrl>
        <Point>
          <coordinates>
            20.4611283,44.8207209,0
          </coordinates>
        </Point>
      </Placemark>
      <Placemark>
        <name>Birds</name>
        <styleUrl>#icon-1899-0288D1-labelson-nodesc</styleUrl>
        <Point>
          <coordinates>
            20.45607,44.8247044,0
          </coordinates>
        </Point>
      </Placemark>
      <Placemark>
        <name>Kafeterija Košutnjak</name>
        <styleUrl>#icon-1899-0288D1-labelson-nodesc</styleUrl>
        <Point>
          <coordinates>
            20.4279918,44.7667011,0
          </coordinates>
        </Point>
      </Placemark>
      <Placemark>
        <name>Starbucks</name>
        <styleUrl>#icon-1899-0288D1-labelson-nodesc</styleUrl>
        <Point>
          <coordinates>
            20.4661312,44.8101845,0
          </coordinates>
        </Point>
      </Placemark>
      <Placemark>
        <name>April bar</name>
        <styleUrl>#icon-1899-0288D1-labelson-nodesc</styleUrl>
        <Point>
          <coordinates>
            20.4657205,44.8168532,0
          </coordinates>
        </Point>
      </Placemark>
      <Placemark>
        <name>Artist Specialty Coffee</name>
        <styleUrl>#icon-1899-0288D1-labelson-nodesc</styleUrl>
        <Point>
          <coordinates>
            20.4654855,44.8149429,0
          </coordinates>
        </Point>
      </Placemark>
      <Placemark>
        <name><![CDATA[Тениски клуб "Газела"]]></name>
        <styleUrl>#icon-1899-0288D1-labelson-nodesc</styleUrl>
        <Point>
          <coordinates>
            20.4240445,44.8091112,0
          </coordinates>
        </Point>
      </Placemark>
      <Placemark>
        <name>Belgrade Art Hotel, a member of Radisson Individuals</name>
        <styleUrl>#icon-1899-0288D1-labelson-nodesc</styleUrl>
        <Point>
          <coordinates>
            20.4578216,44.8165994,0
          </coordinates>
        </Point>
      </Placemark>
      <Placemark>
        <name>XTEAM ISLAND</name>
        <styleUrl>#icon-1899-0288D1-labelson-nodesc</styleUrl>
        <Point>
          <coordinates>
            20.3827883,44.793753,0
          </coordinates>
        </Point>
      </Placemark>
      <Placemark>
        <name>Coffee Dream</name>
        <styleUrl>#icon-1899-0288D1-labelson-nodesc</styleUrl>
        <Point>
          <coordinates>
            20.4549515,44.8188811,0
          </coordinates>
        </Point>
      </Placemark>
      <Placemark>
        <name>Bad Sushi</name>
        <styleUrl>#icon-1899-0288D1-labelson-nodesc</styleUrl>
        <Point>
          <coordinates>
            20.466228,44.8159897,0
          </coordinates>
        </Point>
      </Placemark>
      <Placemark>
        <name>Eatalian Food Bar Dorćol</name>
        <styleUrl>#icon-1899-0288D1-labelson-nodesc</styleUrl>
        <Point>
          <coordinates>
            20.4621551,44.8193589,0
          </coordinates>
        </Point>
      </Placemark>
      <Placemark>
        <name>Urma</name>
        <styleUrl>#icon-1899-0288D1-labelson-nodesc</styleUrl>
        <Point>
          <coordinates>
            20.4840302,44.8004623,0
          </coordinates>
        </Point>
      </Placemark>
      <Placemark>
        <name><![CDATA[Cafe & Factory 11]]></name>
        <styleUrl>#icon-1899-0288D1-labelson-nodesc</styleUrl>
        <Point>
          <coordinates>
            20.4169093,44.7813329,0
          </coordinates>
        </Point>
      </Placemark>
      <Placemark>
        <name>Gurme</name>
        <styleUrl>#icon-1899-0288D1-labelson-nodesc</styleUrl>
        <Point>
          <coordinates>
            20.4760664,44.8095585,0
          </coordinates>
        </Point>
      </Placemark>
      <Placemark>
        <name>Stories</name>
        <styleUrl>#icon-1899-0288D1-labelson-nodesc</styleUrl>
        <Point>
          <coordinates>
            20.4555566,44.8232058,0
          </coordinates>
        </Point>
      </Placemark>
      <Placemark>
        <name>Kaži Važi</name>
        <styleUrl>#icon-1899-0288D1-labelson-nodesc</styleUrl>
        <Point>
          <coordinates>
            20.4579637,44.8095638,0
          </coordinates>
        </Point>
      </Placemark>
      <Placemark>
        <name><![CDATA[Cafe "Zona Industriale"]]></name>
        <styleUrl>#icon-1899-0288D1-labelson-nodesc</styleUrl>
        <Point>
          <coordinates>
            20.470947,44.8025388,0
          </coordinates>
        </Point>
      </Placemark>
      <Placemark>
        <name>Svetozar</name>
        <styleUrl>#icon-1899-0288D1-labelson-nodesc</styleUrl>
        <Point>
          <coordinates>
            20.469111,44.8081318,0
          </coordinates>
        </Point>
      </Placemark>
      <Placemark>
        <name>Kofilin</name>
        <styleUrl>#icon-1899-0288D1-labelson-nodesc</styleUrl>
        <Point>
          <coordinates>
            20.455887,44.815402,0
          </coordinates>
        </Point>
      </Placemark>
      <Placemark>
        <name>Leptir Kafe</name>
        <styleUrl>#icon-1899-0288D1-labelson-nodesc</styleUrl>
        <Point>
          <coordinates>
            20.4854657,44.8166359,0
          </coordinates>
        </Point>
      </Placemark>
      <Placemark>
        <name>Lamanš Bistro</name>
        <styleUrl>#icon-1899-0288D1-labelson-nodesc</styleUrl>
        <Point>
          <coordinates>
            20.4132279,44.847992,0
          </coordinates>
        </Point>
      </Placemark>
      <Placemark>
        <name>Youran Tea House</name>
        <styleUrl>#icon-1899-0288D1-labelson-nodesc</styleUrl>
        <Point>
          <coordinates>
            20.4592851,44.8138746,0
          </coordinates>
        </Point>
      </Placemark>
      <Placemark>
        <name>Mali prag</name>
        <styleUrl>#icon-1899-0288D1-labelson-nodesc</styleUrl>
        <Point>
          <coordinates>
            20.4594009,44.8108866,0
          </coordinates>
        </Point>
      </Placemark>
      <Placemark>
        <name>Kuća Umetnica</name>
        <styleUrl>#icon-1899-0288D1-labelson-nodesc</styleUrl>
        <Point>
          <coordinates>
            20.4594723,44.8208265,0
          </coordinates>
        </Point>
      </Placemark>
      <Placemark>
        <name>Hotel Beograd Café</name>
        <styleUrl>#icon-1899-0288D1-labelson-nodesc</styleUrl>
        <Point>
          <coordinates>
            20.4579527,44.8077423,0
          </coordinates>
        </Point>
      </Placemark>
      <Placemark>
        <name>Dusha Specialty Coffee</name>
        <styleUrl>#icon-1899-0288D1-labelson-nodesc</styleUrl>
        <Point>
          <coordinates>
            20.4796966,44.8004308,0
          </coordinates>
        </Point>
      </Placemark>
      <Placemark>
        <name>Kofilin</name>
        <styleUrl>#icon-1899-0288D1-labelson-nodesc</styleUrl>
        <Point>
          <coordinates>
            20.4828397,44.7982419,0
          </coordinates>
        </Point>
      </Placemark>
      <Placemark>
        <name>june cafe</name>
        <styleUrl>#icon-1899-0288D1-labelson-nodesc</styleUrl>
        <Point>
          <coordinates>
            20.4593846,44.8208741,0
          </coordinates>
        </Point>
      </Placemark>
      <Placemark>
        <name>Nekrasova The Bar</name>
        <styleUrl>#icon-1899-0288D1-labelson-nodesc</styleUrl>
        <Point>
          <coordinates>
            20.4735437,44.8053527,0
          </coordinates>
        </Point>
      </Placemark>
      <Placemark>
        <name>Iva New Balkan Cuisine</name>
        <styleUrl>#icon-1899-0288D1-labelson-nodesc</styleUrl>
        <Point>
          <coordinates>
            20.4610943,44.8197728,0
          </coordinates>
        </Point>
      </Placemark>
      <Placemark>
        <name>Џовани Пицерија</name>
        <styleUrl>#icon-1899-0288D1-labelson-nodesc</styleUrl>
        <Point>
          <coordinates>
            20.4544052,44.8177953,0
          </coordinates>
        </Point>
      </Placemark>
      <Placemark>
        <name>Noku Espresso and more</name>
        <styleUrl>#icon-1899-0288D1-labelson-nodesc</styleUrl>
        <Point>
          <coordinates>
            20.5373717,44.8129607,0
          </coordinates>
        </Point>
      </Placemark>
      <Placemark>
        <name>Bad Ramen</name>
        <styleUrl>#icon-1899-0288D1-labelson-nodesc</styleUrl>
        <Point>
          <coordinates>
            20.4597867,44.8184168,0
          </coordinates>
        </Point>
      </Placemark>
      <Placemark>
        <name>LUMI - Specialty Coffee</name>
        <styleUrl>#icon-1899-0288D1-labelson-nodesc</styleUrl>
        <Point>
          <coordinates>
            20.4698642,44.8027426,0
          </coordinates>
        </Point>
      </Placemark>
      <Placemark>
        <name>Kafeterija Kofilin - Кофейня Кофилин</name>
        <styleUrl>#icon-1899-0288D1-labelson-nodesc</styleUrl>
        <Point>
          <coordinates>
            20.4644119,44.8088468,0
          </coordinates>
        </Point>
      </Placemark>
      <Placemark>
        <name><![CDATA[Sweet&Green]]></name>
        <styleUrl>#icon-1899-0288D1-labelson-nodesc</styleUrl>
        <Point>
          <coordinates>
            20.4531808,44.8276346,0
          </coordinates>
        </Point>
      </Placemark>
      <Placemark>
        <name>Lama Coffee Spot</name>
        <styleUrl>#icon-1899-0288D1-labelson-nodesc</styleUrl>
        <Point>
          <coordinates>
            20.4626084,44.8260209,0
          </coordinates>
        </Point>
      </Placemark>
      <Placemark>
        <name>La BoULANGeRie</name>
        <styleUrl>#icon-1899-0288D1-labelson-nodesc</styleUrl>
        <Point>
          <coordinates>
            20.4572223,44.8036465,0
          </coordinates>
        </Point>
      </Placemark>
      <Placemark>
        <name>La BoULANGeRie</name>
        <styleUrl>#icon-1899-0288D1-labelson-nodesc</styleUrl>
        <Point>
          <coordinates>
            20.4662287,44.8038616,0
          </coordinates>
        </Point>
      </Placemark>
      <Placemark>
        <name>TT Asia</name>
        <styleUrl>#icon-1899-0288D1-labelson-nodesc</styleUrl>
        <Point>
          <coordinates>
            20.4588337,44.8278801,0
          </coordinates>
        </Point>
      </Placemark>
      <Placemark>
        <name>Restaurant Fuzio</name>
        <styleUrl>#icon-1899-0288D1-labelson-nodesc</styleUrl>
        <Point>
          <coordinates>
            20.4660529,44.8056013,0
          </coordinates>
        </Point>
      </Placemark>
      <Placemark>
        <name>LA RUMBA</name>
        <styleUrl>#icon-1899-0288D1-labelson-nodesc</styleUrl>
        <Point>
          <coordinates>
            20.4699265,44.8068687,0
          </coordinates>
        </Point>
      </Placemark>
      <Placemark>
        <name>DRIP Specialty Coffee</name>
        <styleUrl>#icon-1899-0288D1-labelson-nodesc</styleUrl>
        <Point>
          <coordinates>
            20.461999,44.8192136,0
          </coordinates>
        </Point>
      </Placemark>
      <Placemark>
        <name>Gastroport</name>
        <styleUrl>#icon-1899-0288D1-labelson-nodesc</styleUrl>
        <Point>
          <coordinates>
            20.4530414,44.8135735,0
          </coordinates>
        </Point>
      </Placemark>
      <Placemark>
        <name>Jezgro.beo</name>
        <styleUrl>#icon-1899-0288D1-labelson-nodesc</styleUrl>
        <Point>
          <coordinates>
            20.4938968,44.793733,0
          </coordinates>
        </Point>
      </Placemark>
      <Placemark>
        <name>THAI ZONE</name>
        <styleUrl>#icon-1899-0288D1-labelson-nodesc</styleUrl>
        <Point>
          <coordinates>
            20.4791348,44.7980933,0
          </coordinates>
        </Point>
      </Placemark>
      <Placemark>
        <name>Good DumplingsX</name>
        <styleUrl>#icon-1899-0288D1-labelson-nodesc</styleUrl>
        <Point>
          <coordinates>
            20.4533397,44.814667,0
          </coordinates>
        </Point>
      </Placemark>
      <Placemark>
        <name><![CDATA[X.WANG'S KITCHEN]]></name>
        <styleUrl>#icon-1899-0288D1-labelson-nodesc</styleUrl>
        <Point>
          <coordinates>
            20.4582251,44.8128667,0
          </coordinates>
        </Point>
      </Placemark>
      <Placemark>
        <name>TeaTalk 茶话</name>
        <styleUrl>#icon-1899-0288D1-labelson-nodesc</styleUrl>
        <Point>
          <coordinates>
            20.4619465,44.8158497,0
          </coordinates>
        </Point>
      </Placemark>
      <Placemark>
        <name>t element</name>
        <styleUrl>#icon-1899-0288D1-labelson-nodesc</styleUrl>
        <Point>
          <coordinates>
            20.4671346,44.8086557,0
          </coordinates>
        </Point>
      </Placemark>
      <Placemark>
        <name>Telma</name>
        <styleUrl>#icon-1899-0288D1-labelson-nodesc</styleUrl>
        <Point>
          <coordinates>
            20.4662443,44.8066539,0
          </coordinates>
        </Point>
      </Placemark>
      <Placemark>
        <name>Ужитак Кафе</name>
        <styleUrl>#icon-1899-0288D1-labelson-nodesc</styleUrl>
        <Point>
          <coordinates>
            20.4662823,44.8153549,0
          </coordinates>
        </Point>
      </Placemark>
      <Placemark>
        <name>Kuća Coffee</name>
        <styleUrl>#icon-1899-0288D1-labelson-nodesc</styleUrl>
        <Point>
          <coordinates>
            20.4907075,44.7874597,0
          </coordinates>
        </Point>
      </Placemark>
      <Placemark>
        <name>Кафе „Козметичар”</name>
        <styleUrl>#icon-1899-0288D1-labelson-nodesc</styleUrl>
        <Point>
          <coordinates>
            20.4806925,44.801123,0
          </coordinates>
        </Point>
      </Placemark>
      <Placemark>
        <name>TT Bistro</name>
        <styleUrl>#icon-1899-0288D1-labelson-nodesc</styleUrl>
        <Point>
          <coordinates>
            20.4565928,44.8221424,0
          </coordinates>
        </Point>
      </Placemark>
      <Placemark>
        <name>TT Bistro BW</name>
        <styleUrl>#icon-1899-0288D1-labelson-nodesc</styleUrl>
        <Point>
          <coordinates>
            20.4480842,44.8016393,0
          </coordinates>
        </Point>
      </Placemark>
      <Placemark>
        <name><![CDATA[Baget & Co.]]></name>
        <styleUrl>#icon-1899-0288D1-labelson-nodesc</styleUrl>
        <Point>
          <coordinates>
            20.4512994,44.8090318,0
          </coordinates>
        </Point>
      </Placemark>
      <Placemark>
        <name><![CDATA[Baget & Co. Dvojka]]></name>
        <styleUrl>#icon-1899-0288D1-labelson-nodesc</styleUrl>
        <Point>
          <coordinates>
            20.4481999,44.8025978,0
          </coordinates>
        </Point>
      </Placemark>
      <Placemark>
        <name>Badem caffe</name>
        <styleUrl>#icon-1899-0288D1-labelson-nodesc</styleUrl>
        <Point>
          <coordinates>
            20.4162113,44.8305313,0
          </coordinates>
        </Point>
      </Placemark>
      <Placemark>
        <name>Жалфија - Žalfija</name>
        <styleUrl>#icon-1899-0288D1-labelson-nodesc</styleUrl>
        <Point>
          <coordinates>
            20.5425009,44.7891763,0
          </coordinates>
        </Point>
      </Placemark>
      <Placemark>
        <name>Mimosa</name>
        <styleUrl>#icon-1899-0288D1-labelson-nodesc</styleUrl>
        <Point>
          <coordinates>
            20.4666021,44.8049006,0
          </coordinates>
        </Point>
      </Placemark>
      <Placemark>
        <name>Coffee pass</name>
        <styleUrl>#icon-1899-0288D1-labelson-nodesc</styleUrl>
        <Point>
          <coordinates>
            20.4666623,44.8167971,0
          </coordinates>
        </Point>
      </Placemark>
      <Placemark>
        <name>PATRIKI</name>
        <styleUrl>#icon-1899-0288D1-labelson-nodesc</styleUrl>
        <Point>
          <coordinates>
            20.4722998,44.8017401,0
          </coordinates>
        </Point>
      </Placemark>
      <Placemark>
        <name>Evergreen coffee Beograd</name>
        <styleUrl>#icon-1899-0288D1-labelson-nodesc</styleUrl>
        <Point>
          <coordinates>
            20.4651644,44.8146346,0
          </coordinates>
        </Point>
      </Placemark>
      <Placemark>
        <name>Caffe Penzija Dorcol</name>
        <styleUrl>#icon-1899-0288D1-labelson-nodesc</styleUrl>
        <Point>
          <coordinates>
            20.4574365,44.823604,0
          </coordinates>
        </Point>
      </Placemark>
      <Placemark>
        <name>Bosiljak Pizza Napoletana</name>
        <styleUrl>#icon-1899-0288D1-labelson-nodesc</styleUrl>
        <Point>
          <coordinates>
            20.4075457,44.8439867,0
          </coordinates>
        </Point>
      </Placemark>
      <Placemark>
        <name>Restoran Emilio</name>
        <styleUrl>#icon-1899-0288D1-labelson-nodesc</styleUrl>
        <Point>
          <coordinates>
            20.3955879,44.8198794,0
          </coordinates>
        </Point>
      </Placemark>
      <Placemark>
        <name><![CDATA[Thyme - StreetFood & Breakfast]]></name>
        <styleUrl>#icon-1899-0288D1-labelson-nodesc</styleUrl>
        <Point>
          <coordinates>
            20.4158154,44.839264,0
          </coordinates>
        </Point>
      </Placemark>
      <Placemark>
        <name>Lula fine espresso bar</name>
        <styleUrl>#icon-1899-0288D1-labelson-nodesc</styleUrl>
        <Point>
          <coordinates>
            20.4763611,44.8118728,0
          </coordinates>
        </Point>
      </Placemark>
      <Placemark>
        <name>The Locals</name>
        <styleUrl>#icon-1899-0288D1-labelson-nodesc</styleUrl>
        <Point>
          <coordinates>
            20.4638711,44.8297073,0
          </coordinates>
        </Point>
      </Placemark>
      <Placemark>
        <name><![CDATA[Caffe "Knjižara"]]></name>
        <styleUrl>#icon-1899-0288D1-labelson-nodesc</styleUrl>
        <Point>
          <coordinates>
            20.4627543,44.8298888,0
          </coordinates>
        </Point>
      </Placemark>
      <Placemark>
        <name>Willow coffee shop</name>
        <styleUrl>#icon-1899-0288D1-labelson-nodesc</styleUrl>
        <Point>
          <coordinates>
            20.4635279,44.8155315,0
          </coordinates>
        </Point>
      </Placemark>
      <Placemark>
        <name>Crna Ovca</name>
        <styleUrl>#icon-1899-0288D1-labelson-nodesc</styleUrl>
        <Point>
          <coordinates>
            20.4125527,44.8452803,0
          </coordinates>
        </Point>
      </Placemark>
      <Placemark>
        <name>Craft spot</name>
        <styleUrl>#icon-1899-0288D1-labelson-nodesc</styleUrl>
        <Point>
          <coordinates>
            20.472831,44.8055178,0
          </coordinates>
        </Point>
      </Placemark>
      <Placemark>
        <name>Family Cup</name>
        <styleUrl>#icon-1899-0288D1-labelson-nodesc</styleUrl>
        <Point>
          <coordinates>
            20.4293876,44.8128023,0
          </coordinates>
        </Point>
      </Placemark>
      <Placemark>
        <name>Bakery LULU</name>
        <styleUrl>#icon-1899-0288D1-labelson-nodesc</styleUrl>
        <Point>
          <coordinates>
            20.413378,44.775969,0
          </coordinates>
        </Point>
      </Placemark>
      <Placemark>
        <name>Kafeterija Dejt</name>
        <styleUrl>#icon-1899-0288D1-labelson-nodesc</styleUrl>
        <Point>
          <coordinates>
            20.471972,44.798604,0
          </coordinates>
        </Point>
      </Placemark>
      <Placemark>
        <name>Yama</name>
        <styleUrl>#icon-1899-0288D1-labelson-nodesc</styleUrl>
        <Point>
          <coordinates>
            20.4608934,44.8212026,0
          </coordinates>
        </Point>
      </Placemark>
      <Placemark>
        <name>Marquise Palata Nauke</name>
        <styleUrl>#icon-1899-0288D1-labelson-nodesc</styleUrl>
        <Point>
          <coordinates>
            20.463952,44.808499,0
          </coordinates>
        </Point>
      </Placemark>
    </Folder>
    <Folder>
      <name><![CDATA[Lokali sa korektno odvojenim nepušačkim prostorom (Bars&Restaurants with well separated nonsmoking area)]]></name>
      <Placemark>
        <name>Франш</name>
        <styleUrl>#icon-1899-FFEA00-labelson-nodesc</styleUrl>
        <Point>
          <coordinates>
            20.4663179,44.7926673,0
          </coordinates>
        </Point>
      </Placemark>
      <Placemark>
        <name>Greenet</name>
        <styleUrl>#icon-1899-FFEA00-labelson-nodesc</styleUrl>
        <Point>
          <coordinates>
            20.4636562000001,44.8070246,0
          </coordinates>
        </Point>
      </Placemark>
      <Placemark>
        <name>Marukoshi</name>
        <styleUrl>#icon-1899-FFEA00-labelson-nodesc</styleUrl>
        <Point>
          <coordinates>
            20.46313,44.823141,0
          </coordinates>
        </Point>
      </Placemark>
      <Placemark>
        <name>Cafe Hotel Moskva</name>
        <styleUrl>#icon-1899-FFEA00-labelson-nodesc</styleUrl>
        <Point>
          <coordinates>
            20.4605143,44.8130085,0
          </coordinates>
        </Point>
      </Placemark>
      <Placemark>
        <name>Restoran Orašac</name>
        <styleUrl>#icon-1899-FFEA00-labelson-nodesc</styleUrl>
        <Point>
          <coordinates>
            20.4786269,44.8037935,0
          </coordinates>
        </Point>
      </Placemark>
      <Placemark>
        <name>Pizza Bar</name>
        <styleUrl>#icon-1899-FFEA00-labelson-nodesc</styleUrl>
        <Point>
          <coordinates>
            20.416608,44.822039,0
          </coordinates>
        </Point>
      </Placemark>
      <Placemark>
        <name>Vuk</name>
        <styleUrl>#icon-1899-FFEA00-labelson-nodesc</styleUrl>
        <Point>
          <coordinates>
            20.4556917,44.8176604,0
          </coordinates>
        </Point>
      </Placemark>
      <Placemark>
        <name>Restaurant-Pizzeria Guli</name>
        <styleUrl>#icon-1899-FFEA00-labelson-nodesc</styleUrl>
        <Point>
          <coordinates>
            20.463826,44.817143,0
          </coordinates>
        </Point>
      </Placemark>
      <Placemark>
        <name>Stara Hercegovina</name>
        <styleUrl>#icon-1899-FFEA00-labelson-nodesc</styleUrl>
        <Point>
          <coordinates>
            20.4743091,44.818861,0
          </coordinates>
        </Point>
      </Placemark>
      <Placemark>
        <name>Restoran ISTOK</name>
        <styleUrl>#icon-1899-FFEA00-labelson-nodesc</styleUrl>
        <Point>
          <coordinates>
            20.4628198,44.8188574,0
          </coordinates>
        </Point>
      </Placemark>
      <Placemark>
        <name>Restaurant Le Molière</name>
        <styleUrl>#icon-1899-FFEA00-labelson-nodesc</styleUrl>
        <Point>
          <coordinates>
            20.4574117,44.8170084,0
          </coordinates>
        </Point>
      </Placemark>
      <Placemark>
        <name>Restoran Zvezdara Teatar</name>
        <styleUrl>#icon-1899-FFEA00-labelson-nodesc</styleUrl>
        <Point>
          <coordinates>
            20.4975951,44.797752,0
          </coordinates>
        </Point>
      </Placemark>
      <Placemark>
        <name>Restoran Zavičaj Zvezdara</name>
        <styleUrl>#icon-1899-FFEA00-labelson-nodesc</styleUrl>
        <Point>
          <coordinates>
            20.5076799999999,44.792261,0
          </coordinates>
        </Point>
      </Placemark>
      <Placemark>
        <name><![CDATA[Cafe & Factory]]></name>
        <styleUrl>#icon-1899-FFEA00-labelson-nodesc</styleUrl>
        <Point>
          <coordinates>
            20.4686643,44.799101,0
          </coordinates>
        </Point>
      </Placemark>
      <Placemark>
        <name>Cruise Cocktail Bar</name>
        <styleUrl>#icon-1899-FFEA00-labelson-nodesc</styleUrl>
        <Point>
          <coordinates>
            20.399586,44.795924,0
          </coordinates>
        </Point>
      </Placemark>
      <Placemark>
        <name><![CDATA[Konoba & Wine Bar Tata Mata]]></name>
        <styleUrl>#icon-1899-FFEA00-labelson-nodesc</styleUrl>
        <Point>
          <coordinates>
            20.4823507999999,44.8065092,0
          </coordinates>
        </Point>
      </Placemark>
      <Placemark>
        <name>Ресторан Jerry</name>
        <styleUrl>#icon-1899-FFEA00-labelson-nodesc</styleUrl>
        <Point>
          <coordinates>
            20.418196,44.82543,0
          </coordinates>
        </Point>
      </Placemark>
      <Placemark>
        <name>Madera</name>
        <styleUrl>#icon-1899-FFEA00-labelson-nodesc</styleUrl>
        <Point>
          <coordinates>
            20.4699161,44.8084765,0
          </coordinates>
        </Point>
      </Placemark>
      <Placemark>
        <name>Radost Fina Kuhinjica</name>
        <styleUrl>#icon-1899-FFEA00-labelson-nodesc</styleUrl>
        <Point>
          <coordinates>
            20.450419,44.8193836,0
          </coordinates>
        </Point>
      </Placemark>
      <Placemark>
        <name>dolcino</name>
        <styleUrl>#icon-1899-FFEA00-labelson-nodesc</styleUrl>
        <Point>
          <coordinates>
            20.4526265,44.750497,0
          </coordinates>
        </Point>
      </Placemark>
      <Placemark>
        <name>Boutique #3, TROJKA</name>
        <styleUrl>#icon-1899-FFEA00-labelson-nodesc</styleUrl>
        <Point>
          <coordinates>
            20.4228396999999,44.8063182,0
          </coordinates>
        </Point>
      </Placemark>
      <Placemark>
        <name>Restoran OLIVA</name>
        <styleUrl>#icon-1899-FFEA00-labelson-nodesc</styleUrl>
        <Point>
          <coordinates>
            20.4001772,44.8128649,0
          </coordinates>
        </Point>
      </Placemark>
      <Placemark>
        <name><![CDATA[Cafe & Factory 2]]></name>
        <styleUrl>#icon-1899-FFEA00-labelson-nodesc</styleUrl>
        <Point>
          <coordinates>
            20.4686815,44.7991556,0
          </coordinates>
        </Point>
      </Placemark>
      <Placemark>
        <name>Sunset Caffe, Ada Sanset</name>
        <styleUrl>#icon-1899-FFEA00-labelson-nodesc</styleUrl>
        <Point>
          <coordinates>
            20.3898034,44.7823005,0
          </coordinates>
        </Point>
      </Placemark>
      <Placemark>
        <name>Kafeterija Vračar</name>
        <styleUrl>#icon-1899-FFEA00-labelson-nodesc</styleUrl>
        <Point>
          <coordinates>
            20.4733888000001,44.801864,0
          </coordinates>
        </Point>
      </Placemark>
      <Placemark>
        <name>Coffeedream</name>
        <styleUrl>#icon-1899-FFEA00-labelson-nodesc</styleUrl>
        <Point>
          <coordinates>
            20.4584638,44.7764682,0
          </coordinates>
        </Point>
      </Placemark>
      <Placemark>
        <name>Александар клуб - Ски стаза</name>
        <styleUrl>#icon-1899-FFEA00-labelson-nodesc</styleUrl>
        <Point>
          <coordinates>
            20.4271352,44.7781958,0
          </coordinates>
        </Point>
      </Placemark>
      <Placemark>
        <name>Vin et baguette</name>
        <styleUrl>#icon-1899-FFEA00-labelson-nodesc</styleUrl>
        <Point>
          <coordinates>
            20.4615325,44.8034314,0
          </coordinates>
        </Point>
      </Placemark>
      <Placemark>
        <name>Meze by Elliniko Beograd</name>
        <styleUrl>#icon-1899-FFEA00-labelson-nodesc</styleUrl>
        <Point>
          <coordinates>
            20.4088381,44.8304829,0
          </coordinates>
        </Point>
      </Placemark>
      <Placemark>
        <name>Le Petit Bistro</name>
        <styleUrl>#icon-1899-FFEA00-labelson-nodesc</styleUrl>
        <Point>
          <coordinates>
            20.416229,44.830419,0
          </coordinates>
        </Point>
      </Placemark>
      <Placemark>
        <name>Bon Vivant</name>
        <styleUrl>#icon-1899-FFEA00-labelson-nodesc</styleUrl>
        <Point>
          <coordinates>
            20.4650778,44.820286,0
          </coordinates>
        </Point>
      </Placemark>
    </Folder>
    <Folder>
      <name>No smoke - No vape - No heated tobacco</name>
      <Placemark>
        <name>Hotel Beograd Café</name>
        <styleUrl>#icon-1899-7CB342-labelson-nodesc</styleUrl>
        <Point>
          <coordinates>
            20.4579527,44.8077423,0
          </coordinates>
        </Point>
      </Placemark>
      <Placemark>
        <name><![CDATA[Кафе посластичарница "Фини"]]></name>
        <styleUrl>#icon-1899-7CB342-labelson-nodesc</styleUrl>
        <Point>
          <coordinates>
            20.4714698,44.8206536,0
          </coordinates>
        </Point>
      </Placemark>
      <Placemark>
        <name>Fini</name>
        <styleUrl>#icon-1899-7CB342-labelson-nodesc</styleUrl>
        <Point>
          <coordinates>
            20.4715454,44.7985102,0
          </coordinates>
        </Point>
      </Placemark>
      <Placemark>
        <name>Kafograf</name>
        <styleUrl>#icon-1899-7CB342-labelson-nodesc</styleUrl>
        <Point>
          <coordinates>
            20.4740927,44.8171929,0
          </coordinates>
        </Point>
      </Placemark>
      <Placemark>
        <name>Ćilim bar</name>
        <styleUrl>#icon-1899-7CB342-labelson-nodesc</styleUrl>
        <Point>
          <coordinates>
            20.4597576,44.8202554,0
          </coordinates>
        </Point>
      </Placemark>
      <Placemark>
        <name>Sonder.Belgrade</name>
        <styleUrl>#icon-1899-7CB342-labelson-nodesc</styleUrl>
        <Point>
          <coordinates>
            20.4738707,44.8017302,0
          </coordinates>
        </Point>
      </Placemark>
      <Placemark>
        <name>Rocket Coffee, specialty coffee shop</name>
        <styleUrl>#icon-1899-7CB342-labelson-nodesc</styleUrl>
        <Point>
          <coordinates>
            20.4515047,44.8143955,0
          </coordinates>
        </Point>
      </Placemark>
      <Placemark>
        <name>Vera Cafè — Specialty Coffee in Belgrade</name>
        <styleUrl>#icon-1899-7CB342-labelson-nodesc</styleUrl>
        <Point>
          <coordinates>
            20.4544822,44.8184327,0
          </coordinates>
        </Point>
      </Placemark>
      <Placemark>
        <name>Испеци па реци</name>
        <styleUrl>#icon-1899-7CB342-labelson-nodesc</styleUrl>
        <Point>
          <coordinates>
            20.4690126,44.8204973,0
          </coordinates>
        </Point>
      </Placemark>
      <Placemark>
        <name>Ispeci pa reci Zvezdara</name>
        <styleUrl>#icon-1899-7CB342-labelson-nodesc</styleUrl>
        <Point>
          <coordinates>
            20.4931559,44.7964361,0
          </coordinates>
        </Point>
      </Placemark>
      <Placemark>
        <name>7 AM coffee</name>
        <styleUrl>#icon-1899-7CB342-labelson-nodesc</styleUrl>
        <Point>
          <coordinates>
            20.4724547,44.804798,0
          </coordinates>
        </Point>
      </Placemark>
      <Placemark>
        <name>Nar Bar</name>
        <styleUrl>#icon-1899-7CB342-labelson-nodesc</styleUrl>
        <Point>
          <coordinates>
            20.4845157,44.8007892,0
          </coordinates>
        </Point>
      </Placemark>
      <Placemark>
        <name>FUKA</name>
        <styleUrl>#icon-1899-7CB342-labelson-nodesc</styleUrl>
        <Point>
          <coordinates>
            20.4135394,44.8450649,0
          </coordinates>
        </Point>
      </Placemark>
      <Placemark>
        <name>Kafeterija Kućica</name>
        <styleUrl>#icon-1899-7CB342-labelson-nodesc</styleUrl>
        <Point>
          <coordinates>
            20.4457869,44.7928153,0
          </coordinates>
        </Point>
      </Placemark>
      <Placemark>
        <name>Forum</name>
        <styleUrl>#icon-1899-7CB342-labelson-nodesc</styleUrl>
        <Point>
          <coordinates>
            20.4692783,44.820605,0
          </coordinates>
        </Point>
      </Placemark>
      <Placemark>
        <name>Starbucks St Sava Temple</name>
        <styleUrl>#icon-1899-7CB342-labelson-nodesc</styleUrl>
        <Point>
          <coordinates>
            20.4695249,44.7967017,0
          </coordinates>
        </Point>
      </Placemark>
      <Placemark>
        <name>Старбакс</name>
        <styleUrl>#icon-1899-7CB342-labelson-nodesc</styleUrl>
        <Point>
          <coordinates>
            20.4661312,44.8101845,0
          </coordinates>
        </Point>
      </Placemark>
      <Placemark>
        <name>Starbucks Zeleni Venac</name>
        <styleUrl>#icon-1899-7CB342-labelson-nodesc</styleUrl>
        <Point>
          <coordinates>
            20.4566724,44.8146011,0
          </coordinates>
        </Point>
      </Placemark>
      <Placemark>
        <name>Starbucks restoran</name>
        <styleUrl>#icon-1899-7CB342-labelson-nodesc</styleUrl>
        <Point>
          <coordinates>
            20.4583558,44.8153522,0
          </coordinates>
        </Point>
      </Placemark>
      <Placemark>
        <name>Sonder Dorćol</name>
        <styleUrl>#icon-1899-7CB342-labelson-nodesc</styleUrl>
        <Point>
          <coordinates>
            20.4716628,44.8189028,0
          </coordinates>
        </Point>
      </Placemark>
      <Placemark>
        <name>NE TA DVER | Wine bar</name>
        <styleUrl>#icon-1899-7CB342-labelson-nodesc</styleUrl>
        <Point>
          <coordinates>
            20.4579011,44.8092111,0
          </coordinates>
        </Point>
      </Placemark>
      <Placemark>
        <name>Bobo Boucher et Botanist</name>
        <styleUrl>#icon-1899-7CB342-labelson-nodesc</styleUrl>
        <Point>
          <coordinates>
            20.4793091,44.8026248,0
          </coordinates>
        </Point>
      </Placemark>
      <Placemark>
        <name>Focus Specialty Coffee</name>
        <styleUrl>#icon-1899-7CB342-labelson-nodesc</styleUrl>
        <Point>
          <coordinates>
            20.4535304,44.8006703,0
          </coordinates>
        </Point>
      </Placemark>
      <Placemark>
        <name>ca.ca.fe</name>
        <styleUrl>#icon-1899-7CB342-labelson-nodesc</styleUrl>
        <Point>
          <coordinates>
            20.4051848,44.8204806,0
          </coordinates>
        </Point>
      </Placemark>
      <Placemark>
        <name>Ciklo Bar</name>
        <styleUrl>#icon-1899-7CB342-labelson-nodesc</styleUrl>
        <Point>
          <coordinates>
            20.4294255,44.810798,0
          </coordinates>
        </Point>
      </Placemark>
      <Placemark>
        <name>Fomin Bar Beograd</name>
        <styleUrl>#icon-1899-7CB342-labelson-nodesc</styleUrl>
        <Point>
          <coordinates>
            20.4793091,44.8026248,0
          </coordinates>
        </Point>
      </Placemark>
      <Placemark>
        <name>gosti bistro</name>
        <styleUrl>#icon-1899-7CB342-labelson-nodesc</styleUrl>
        <Point>
          <coordinates>
            20.4756248,44.8046493,0
          </coordinates>
        </Point>
      </Placemark>
    </Folder>
  </Document>
</kml>
