{
  "type": "FeatureCollection",
  "rules": {
    "validation": "The restaurant should not be closed or paused",
    "json": "Use pretty-print style instead of minification to work per-line",
    "dishNames": "In Russian descriptions, use Russian-language dish names even when the source spells them in Latin script; keep the original or transliteration only after the Russian name when it is useful for identification.",
    "officialWebsite": "If the restaurant has an official website, prefer it over delivery services, directories and aggregators as the primary venue link/source.",
    "mapLink": "For Open on map, prefer the restaurant's canonical Google Maps place URL; use coordinates only as a fallback when no reliable Google Maps place URL is available.",
    "issueNum": 304,
    "researchBranch": "agent/planplus-cuisine-lists",
    "PRNum": 306
  },
  "properties": {
    "schema": 1,
    "datasetId": "belgrade-world-restaurants",
    "title": "Рестораны национальных кухонь Белграда",
    "kind": "poi",
    "regionId": "belgrade",
    "snapshotAt": "2026-09-11",
    "coordinateSources": [
      {"sourceId":"google-mymaps:12l4BVYg_FV0d9CMeEWEtnJDQioL9804","snapshotAt":"2026-08-23T07:46:02.450Z"},
      {"sourceId":"google-mymaps:1qkPRUNRiCqA-uFugbcuVy9INXgw","snapshotAt":"2026-08-23T07:46:02.831Z"},
      {"sourceId":"manual:web-research:2026-09-04","snapshotAt":"2026-09-04","note":"Current venue status, addresses, menus and selected coordinates were checked against official venue pages, current delivery menus, local directories and OpenStreetMap-derived sources; per-feature provenanceUrl retains the primary verification source."},
      {"sourceId":"google-maps-export:2026-09-08","snapshotAt":"2026-09-08","note":"Coordinates and Google Maps place URLs come from current bulk exports supplied for issue #304; venue status, cuisine and menu were checked separately before inclusion."},
      {"sourceId":"manual:web-research:2026-09-11","snapshotAt":"2026-09-11","note":"Closeout pass for issue #304: current venue status, addresses, cuisine identity and menus were rechecked against official venue sites, PlanPlus, Wolt and current map/directory sources."}
    ],
    "attribution": "RSLive first-party thematic dataset compiled from committed Google My Maps snapshots, current Google Maps exports, PlanPlus restaurant catalogs and current public venue/menu sources; per-feature provenance is retained."
  },
  "features": [
    {"type":"Feature","geometry":{"type":"Point","coordinates":[20.463301,44.820714]},"properties":{"id":"idol-tiki-bar","name":"IDOL - tiki bar & chinese restaurant","category":"restaurant","cuisine":"chinese","countryCode":"CN","markerIcon":"flag-cn","description":"Китайско-азиатское меню при тики-баре: гонконгские хрустящие вонтоны, баоцзы со свининой, рамэн сёю, мисо и тонкоцу, курица гунбао, том-ям, жареная лапша и рис; бар специализируется на тики-коктейлях.","sourceId":"google-mymaps:12l4BVYg_FV0d9CMeEWEtnJDQioL9804","provenanceUrl":"https://idolbar.rs/food/"}},
    {"type":"Feature","geometry":{"type":"Point","coordinates":[20.4582251,44.8128667]},"properties":{"id":"x-wangs-kitchen","name":"X.WANG'S KITCHEN","category":"restaurant","cuisine":"chinese","countryCode":"CN","markerIcon":"flag-cn","description":"Китайская кухня с большим меню супов, лапши и пельменей; отдельно готовят хого — китайский хот-пот. Среди популярных позиций также жареная лапша, рис и кисло-сладкая курица.","sourceId":"google-mymaps:1qkPRUNRiCqA-uFugbcuVy9INXgw","provenanceUrl":"https://www.instagram.com/wangs_kitchen_belgrade/","mapUrl":"https://www.google.com/maps/search/?api=1&query=X.WANG%27S%20KITCHEN&query_place_id=ChIJGYDAwPB7WkcRGTrmYnF4x3E"}},
    {"type":"Feature","geometry":{"type":"Point","coordinates":[20.45796,44.809582]},"properties":{"id":"kazi-vazi","name":"Kaži Važi","category":"restaurant","cuisine":"georgian","countryCode":"GE","markerIcon":"flag-ge","description":"Грузинский хинкали-бар: мегрельский хачапури, хинкали с мясом или сыром и зеленью, пхали из свёклы и шпината, соусы сацебели и цахтон.","sourceId":"google-mymaps:12l4BVYg_FV0d9CMeEWEtnJDQioL9804","provenanceUrl":"https://wolt.com/sr/srb/belgrade/restaurant/kai-vai"}},
    {"type":"Feature","geometry":{"type":"Point","coordinates":[20.4088381,44.8304829]},"properties":{"id":"meze-by-elliniko","name":"Meze by Elliniko","category":"restaurant","cuisine":"greek","countryCode":"GR","markerIcon":"flag-gr","description":"Греческая кухня с блюдами для совместной подачи: колокитокефтедес — крокеты из цукини с дзадзики, кебаб, орзо с креветками и кальмарами, осьминог на гриле, греческие салаты и томлёная говядина.","sourceId":"google-mymaps:1qkPRUNRiCqA-uFugbcuVy9INXgw","provenanceUrl":"https://rs.gaultmillau.com/sr/restaurants/restoran-meze-by-elliniko","mapUrl":"https://www.google.com/maps/search/?api=1&query=Meze%20by%20Elliniko%20Belgrade&query_place_id=ChIJ2_nqtgdxWkcRE5TjMp7P1js"}},
    {"type":"Feature","geometry":{"type":"Point","coordinates":[20.3996976,44.8125297]},"properties":{"id":"pane-e-vino-west-65","name":"Pane E Vino","category":"restaurant","cuisine":"italian","countryCode":"IT","markerIcon":"flag-it","description":"Итальянская и средиземноморская кухня в West 65: домашние ньокки с горгонзолой и тортеллини с копчёной рикоттой, паста, сибас, стейк из тунца и осьминог в кукурузной панировке.","sourceId":"google-mymaps:1qkPRUNRiCqA-uFugbcuVy9INXgw","provenanceUrl":"https://www.011info.com/restorani-u-beogradu/pane-e-vino","mapUrl":"https://www.google.com/maps/search/?api=1&query=Pane%20E%20Vino%20West%2065&query_place_id=ChIJ0w6CoIFvWkcR1K1csLmk9yE"}},
    {"type":"Feature","geometry":{"type":"Point","coordinates":[20.46313,44.823141]},"properties":{"id":"marukoshi","name":"Marukoshi","category":"restaurant","cuisine":"japanese","countryCode":"JP","markerIcon":"flag-jp","description":"Японская домашняя кухня, не только суши: мисо-суп, донбури, рамэн и удон с домашней лапшой, гёдза, японское карри, окономияки, якитори, тэмпура и десерты с маття.","sourceId":"google-mymaps:1qkPRUNRiCqA-uFugbcuVy9INXgw","provenanceUrl":"https://marukoshi.rs/meni/"}},
    {"type":"Feature","geometry":{"type":"Point","coordinates":[20.471128,44.812521]},"properties":{"id":"sushi-wok","name":"SUSHI WOK","category":"restaurant","cuisine":"japanese","countryCode":"JP","markerIcon":"flag-jp","description":"Азиатско-японское меню: роллы и нигири, запечённые роллы, вок с удоном, рамэн, мисо-суп, том-ям, горячие блюда и суши-бургеры.","sourceId":"google-mymaps:12l4BVYg_FV0d9CMeEWEtnJDQioL9804","provenanceUrl":"https://wolt.com/en/srb/belgrade/restaurant/sushi-wok111"}},
    {"type":"Feature","geometry":{"type":"Point","coordinates":[20.462933,44.828543]},"properties":{"id":"sushi-tempo","name":"Sushi Tempo","category":"restaurant","cuisine":"japanese","countryCode":"JP","markerIcon":"flag-jp","description":"Суши и японско-азиатское горячее меню: роллы, нигири и гунканы, гёдза, мисо-суп и том-ям, вок с морепродуктами, рис, боулы и эдамамэ.","sourceId":"google-mymaps:12l4BVYg_FV0d9CMeEWEtnJDQioL9804","provenanceUrl":"https://sushi-tempo.com/"}},
    {"type":"Feature","geometry":{"type":"Point","coordinates":[20.472579,44.779914]},"properties":{"id":"sushi-tempo-vozdovac","name":"Sushi Tempo Vozdovac","category":"restaurant","cuisine":"japanese","countryCode":"JP","markerIcon":"flag-jp","description":"Филиал на Вождовце с тем же меню Sushi Tempo: роллы, нигири и гунканы, гёдза, мисо-суп и том-ям, вок с морепродуктами, рис, боулы и эдамамэ.","sourceId":"google-mymaps:12l4BVYg_FV0d9CMeEWEtnJDQioL9804","provenanceUrl":"https://sushi-tempo.com/"}},
    {"type":"Feature","geometry":{"type":"Point","coordinates":[20.409793,44.805643]},"properties":{"id":"sushi-xo","name":"Sushi XO","category":"restaurant","cuisine":"japanese","countryCode":"JP","markerIcon":"flag-jp","description":"Сеть суши с тремя точками в Белграде: авторские и классические роллы, «Филадельфия», тэмпура и запечённые роллы, маки, нигири, гунканы, онигири и супы.","sourceId":"google-mymaps:12l4BVYg_FV0d9CMeEWEtnJDQioL9804","provenanceUrl":"https://www.sushixo.rs/","mapUrl":"https://www.google.com/maps/search/?api=1&query=Sushi%20XO%20Jurija%20Gagarina%2014d&query_place_id=ChIJW8P_V-dvWkcRJCtcEkwZwTo"}},
    {"type":"Feature","geometry":{"type":"Point","coordinates":[20.417767,44.786842]},"properties":{"id":"sushiboks-ada","name":"Sushiboks ADA","category":"restaurant","cuisine":"japanese","countryCode":"JP","markerIcon":"flag-jp","description":"Суши-бар в Ada Mall: роллы с лососем, тунцом, креветками и сливочным сыром, «Филадельфия», роллы с тобико и масаго, острые и запечённые варианты.","sourceId":"google-mymaps:12l4BVYg_FV0d9CMeEWEtnJDQioL9804","provenanceUrl":"https://restaurantguru.com/Sushiboks-Belgrade/menu","mapUrl":"https://www.google.com/maps/search/?api=1&query=Sushiboks%20ADA%20Mall&query_place_id=ChIJefDpxUNvWkcRreCj6CozTXY"}},
    {"type":"Feature","geometry":{"type":"Point","coordinates":[20.455892,44.814804]},"properties":{"id":"true-ramen","name":"TrueRamen","category":"restaurant","cuisine":"japanese","countryCode":"JP","markerIcon":"flag-jp","description":"Рамен-бар на Бранковой: рамэн сёю, мисо, сио, тантан и кимчи, рамэн с тясю, карааге, гёдза с креветками, эдамамэ и татаки из говядины.","sourceId":"google-mymaps:12l4BVYg_FV0d9CMeEWEtnJDQioL9804","provenanceUrl":"https://postopice.rs/en/venue/trueramen","mapUrl":"https://www.google.com/maps/search/?api=1&query=TrueRamen%20Brankova%2010&query_place_id=ChIJZ2vY1e57WkcRK2YW2HJ-698"}},
    {"type":"Feature","geometry":{"type":"Point","coordinates":[20.4613897,44.8130492]},"properties":{"id":"burrito-madre-terazije","name":"Burrito Madre","category":"restaurant","cuisine":"mexican","countryCode":"MX","markerIcon":"flag-mx","description":"Мексиканский fast-casual: буррито и тако с курицей ачиоте, барбакоа или карнитас, кесадильи, начос, гуакамоле, сальсы и чуррос.","sourceId":"google-mymaps:1qkPRUNRiCqA-uFugbcuVy9INXgw","provenanceUrl":"https://burritomadre.rs/en/menu/","mapUrl":"https://www.google.com/maps/place/Burrito%2BMadre/%4044.8131105%2C20.4588141%2C17z/data%3D%213m2%214b1%215s0x475a7aae15dd4d19%3A0x4da88eadfc07eb08%214m6%213m5%211s0x475a7aae12b17235%3A0xf3ded526f9364d5d%218m2%213d44.8131067%214d20.461389%2116s%2Fg%2F11bxfsw1rx"}},
    {"type":"Feature","geometry":{"type":"Point","coordinates":[20.477859,44.807145]},"properties":{"id":"mala-moskva","name":"Mala Moskva","category":"restaurant","cuisine":"russian","countryCode":"RU","markerIcon":"flag-ru","description":"Русская кухня с мясным акцентом: куриная шаурма, шашлык из курицы и свинины, бефстроганов, борщ, окрошка и солянка; из напитков есть морс и медовуха.","sourceId":"google-mymaps:12l4BVYg_FV0d9CMeEWEtnJDQioL9804","provenanceUrl":"https://wolt.com/sr/srb/belgrade/restaurant/mala-moskva"}},
    {"type":"Feature","geometry":{"type":"Point","coordinates":[20.413934,44.844877]},"properties":{"id":"ruske-palacinke-zemun","name":"Ruske Palačinke Zemun","category":"restaurant","cuisine":"russian","countryCode":"RU","markerIcon":"flag-ru","description":"Блинная по русскому рецепту на Масариковом тргу: сладкие блины со сгущёнкой, творогом, вареньем и карамелью, а также несладкие — с ветчиной и сыром или овощными начинками.","sourceId":"manual:web-research:2026-09-04","provenanceUrl":"https://www.011info.com/palacinkarnice/ruske-palacinke","mapUrl":"https://www.google.com/maps/search/?api=1&query=Ruske%20Pala%C4%8Dinke%20Masarikov%20trg%209&query_place_id=ChIJK7EnfRVlWkcRe_I65usNXO0"}},
    {"type":"Feature","geometry":{"type":"Point","coordinates":[20.455517,44.810359]},"properties":{"id":"samovarrs-bw","name":"Samovarrs","category":"restaurant","cuisine":"russian","countryCode":"RU","markerIcon":"flag-ru","description":"Русская домашняя кухня на Караджорджевой: борщ с бородинским хлебом, окрошка, пельмени и вареники, сырники, блины, куриные котлеты и медовик.","sourceId":"manual:web-research:2026-09-04","provenanceUrl":"https://wolt.com/en/srb/belgrade/restaurant/samovarrs-2","mapUrl":"https://maps.google.com/?q=44.810359,20.455517"}},
    {"type":"Feature","geometry":{"type":"Point","coordinates":[20.4942404,44.8012935]},"properties":{"id":"stroganov-family","name":"STROGANOV FAMILY","category":"restaurant","cuisine":"russian","countryCode":"RU","markerIcon":"flag-ru","description":"Русская домашняя кухня и кулинария: борщ и окрошка, пельмени со свининой и говядиной, домашние котлеты с гречкой, блины, сырники, медовик и «Наполеон».","sourceId":"manual:web-research:2026-09-04","provenanceUrl":"https://stroganov.rs/","mapUrl":"https://maps.google.com/?q=44.8012935,20.4942404"}},
    {"type":"Feature","geometry":{"type":"Point","coordinates":[20.453561,44.813669]},"properties":{"id":"ura-russian-dumplings","name":"URA! Russian dumplings","category":"restaurant","cuisine":"russian","countryCode":"RU","markerIcon":"flag-ru","description":"Русская кухня от русских поваров: пельмени со свининой и говядиной, курицей, индейкой и другими начинками, вареники с картофелем, творогом или ягодами; есть жареные варианты, драники и квас.","sourceId":"manual:web-research:2026-09-04","provenanceUrl":"https://peljmeni.rs/ru/","mapUrl":"https://maps.app.goo.gl/BEsdnZrfMMSZhiPi9"}},
    {"type":"Feature","geometry":{"type":"Point","coordinates":[20.4791348,44.7980933]},"properties":{"id":"thai-zone-vracar","name":"THAI ZONE","category":"restaurant","cuisine":"thai","countryCode":"TH","markerIcon":"flag-th","description":"Семейный тайский ресторан, основанный в 2017 году. Шеф Ла-иад Николич готовит пад-тай, кхао-пад, том-ям и том-кха, ям-вун-сен, спринг-роллы, вок-лапшу и тайские карри; ресторан придерживается традиционных тайских рецептур.","sourceId":"manual:web-research:2026-09-04","provenanceUrl":"https://thaizone.rs/","mapUrl":"https://www.google.com/maps/search/?api=1&query=Thai%20Zone%20Cara%20Nikolaja%20II%2047&query_place_id=ChIJ_S_OOY5vWkcRyT1dHNBaFIk"}},
    {"type":"Feature","geometry":{"type":"Point","coordinates":[20.455609,44.823259]},"properties":{"id":"stories-georgian","name":"Stories","category":"restaurant","cuisine":"georgian","countryCode":"GE","markerIcon":"flag-ge","description":"Грузинская кухня на Пьярона де Мондезира 28: хинкали с мясом, сыром или грибами, аджарский хачапури, оджахури, сациви, аджика и ткемали.","sourceId":"manual:web-research:2026-09-04","provenanceUrl":"https://restaurantguru.com/Stories-Belgrade","mapUrl":"https://maps.google.com/?q=44.823259,20.455609"}},
    {"type":"Feature","geometry":{"type":"Point","coordinates":[20.4665454,44.8041064]},"properties":{"id":"cevabdzinica-savcic","name":"Ćevabdžinica Savčić","category":"restaurant","cuisine":"bosnian","countryCode":"BA","markerIcon":"flag-ba","description":"Сараевская чевапчичница, основанная в 2013 году: чевапи по сараевской рецептуре из 70% говядины и 30% телятины, плескавица, телячья суджукица и каймак.","sourceId":"manual:web-research:2026-09-04","provenanceUrl":"https://savcic.rs/specijaliteti/","mapUrl":"https://maps.google.com/?q=44.8041064,20.4665454"}},
    {"type":"Feature","geometry":{"type":"Point","coordinates":[20.45672,44.81622]},"properties":{"id":"curry-souls-centar","name":"Curry Souls","category":"restaurant","cuisine":"sri-lankan","countryCode":"LK","markerIcon":"flag-lk","description":"Шри-ланкийская уличная кухня: котту-роти, куриное и тунцовое карри, роти, дал и пол-самбол. Белградский флагман сети открылся летом 2023 года; основатели — Клемент Сенаратне и Кай Бордель.","sourceId":"manual:web-research:2026-09-04","provenanceUrl":"https://www.currysouls.com/our-story.html","mapUrl":"https://maps.google.com/?q=44.81622,20.45672"}},
    {"type":"Feature","geometry":{"type":"Point","coordinates":[20.40739,44.80622]},"properties":{"id":"kod-vijetnamca","name":"Kod Vijetnamca","category":"restaurant","cuisine":"vietnamese","countryCode":"VN","markerIcon":"flag-vn","description":"Вьетнамская кухня: фо-бо и другие супы с рисовой лапшой, свежие и жареные спринг-роллы (немы), блюда с рисом и лапшой; меню прямо позиционируется как аутентичная вьетнамская кухня.","sourceId":"manual:web-research:2026-09-04","provenanceUrl":"https://wolt.com/en/srb/belgrade/restaurant/kod-vijetnamca","mapUrl":"https://maps.google.com/?q=44.80622,20.40739"}},
    {"type":"Feature","geometry":{"type":"Point","coordinates":[20.467476,44.806418]},"properties":{"id":"aigo-mashisoyo","name":"AIGO mashisoyo","category":"restaurant","cuisine":"korean","countryCode":"KR","markerIcon":"flag-kr","description":"Корейская кухня: пибимпап, чапчхэ, токпокки, кимпап, чон, досирак и чигэ; есть пулькоги, таккальби и блюда с кочхуджаном.","sourceId":"manual:web-research:2026-09-04","provenanceUrl":"https://aigokoreanfood.rs/","mapUrl":"https://maps.google.com/?q=44.806418,20.467476"}},
    {"type":"Feature","geometry":{"type":"Point","coordinates":[20.47479,44.79978]},"properties":{"id":"byblos-vracar","name":"Byblos","category":"restaurant","cuisine":"lebanese","countryCode":"LB","markerIcon":"flag-lb","description":"Ливанская кухня: хумус, фалафель, табуле и другие мезе, шиш-таук, манакеш и ливанская выпечка. Byblos сообщает, что привёз ливанскую кухню в Белград более двух десятилетий назад.","sourceId":"manual:web-research:2026-09-04","provenanceUrl":"https://www.byblos.rs/","mapUrl":"https://maps.google.com/?q=44.79978,20.47479"}},
    {"type":"Feature","geometry":{"type":"Point","coordinates":[20.4669113,44.8031423]},"properties":{"id":"maikhana-indian","name":"Maikhana The Indian Restaurant","category":"restaurant","cuisine":"indian","countryCode":"IN","markerIcon":"flag-in","description":"Индийская кухня: самосы с чатни, баттер-чикен, алу-паратха, дал-махани, бирьяни с курицей или овощами на рисе басмати, матар-панир и карри из баранины; есть веганские блюда.","sourceId":"manual:web-research:2026-09-04","provenanceUrl":"https://wolt.com/en/srb/belgrade/restaurant/maikhana-the-indian-restaurant","mapUrl":"https://maps.google.com/?q=44.8031423,20.4669113"}},
    {"type":"Feature","geometry":{"type":"Point","coordinates":[20.412796,44.848255]},"properties":{"id":"milagro-zemun","name":"Milagro","category":"restaurant","cuisine":"spanish","countryCode":"ES","markerIcon":"flag-es","description":"Испано-средиземноморский ресторан и тапас-бар: хамон иберико, сыр манчего, перцы падрон, крокеты, паэлья валенсиана, чёрная паэлья и паэлья с морепродуктами; на десерт — крема каталана.","sourceId":"manual:web-research:2026-09-04","provenanceUrl":"https://restoranmilagro.com/","mapUrl":"https://maps.google.com/?q=44.848255,20.412796"}},
    {"type":"Feature","geometry":{"type":"Point","coordinates":[20.474962,44.799878]},"properties":{"id":"puter-bistro","name":"Puter Bistro","category":"restaurant","cuisine":"french","countryCode":"FR","markerIcon":"flag-fr","description":"Французское бистро с балканским акцентом. Шеф Владимир Попович строит меню на французской технике: парижские ньокки, равиоли Дофине, утка, кролик, рыба и крем-брюле.","sourceId":"manual:web-research:2026-09-04","provenanceUrl":"https://puter.rs/en/kitchen/","mapUrl":"https://maps.google.com/?q=44.799878,20.474962"}},
    {"type":"Feature","geometry":{"type":"Point","coordinates":[20.4011,44.8068]},"properties":{"id":"pastel-de-nata-novi-beograd","name":"Pastel de Nata Belgrade","category":"cafe","cuisine":"portuguese-brazilian","countryCode":"PT","markerIcon":"flag-pt","description":"Португальско-бразильское кафе: паштел-де-ната (pastel de nata), бригадейру (brigadeiro), киндим (quindim), мусс из маракуйи, кошинья (coxinha) и эмпада. У проекта две действующие точки в Белграде; эта — в Blok A на Uroša Martinovića 6.","sourceId":"manual:web-research:2026-09-04","provenanceUrl":"https://pasteldenata.rs/","mapUrl":"https://maps.google.com/?q=44.8068,20.4011"}},
    {"type":"Feature","geometry":{"type":"Point","coordinates":[20.4602856,44.8121847]},"properties":{"id":"r-tiam-uyghur","name":"R-tiam Uyghur Restaurant","category":"restaurant","cuisine":"uyghur","countryCode":"CN","markerIcon":"flag-cn","description":"Уйгурская кухня Синьцзяна: лагман, плов с бараниной, манты на пару, шашлык из баранины, жареная синьцзянская лапша и дапанцзи (新疆大盘鸡) — острая курица по-синьцзянски.","sourceId":"manual:web-research:2026-09-04","provenanceUrl":"https://wolt.com/en/srb/belgrade/restaurant/r-tiam-uyghur-restaurant","mapUrl":"https://www.google.com/maps/search/?api=1&query=R-tiam%20Uyghur%20Restaurant&query_place_id=ChIJK7CjAgB7WkcRCO6nbDf53XU"}},
    {"type":"Feature","geometry":{"type":"Point","coordinates":[20.4860725,44.7982997]},"properties":{"id":"georgian-supra","name":"Georgian Supra","category":"restaurant","cuisine":"georgian","countryCode":"GE","markerIcon":"flag-ge","description":"Грузинская кухня: хинкали, аджарский, имеретинский и мегрельский хачапури, лобиани, шкмерули, гебжалия, пхали и пеламуши; есть грузинские вина.","sourceId":"manual:web-research:2026-09-04","provenanceUrl":"https://wolt.com/en/srb/belgrade/restaurant/georgian-supra12","mapUrl":"https://maps.app.goo.gl/1brchq9mtbzefekaa"}},
    {"type":"Feature","geometry":{"type":"Point","coordinates":[20.4606,44.8171]},"properties":{"id":"turkuaz-restaurant","name":"Turkuaz Restaurant","category":"restaurant","cuisine":"turkish","countryCode":"TR","markerIcon":"flag-tr","description":"Турецкая кухня: лахмаджун, менемен, мезе и хумус, искендер-кебаб, бейти, булгур и другие кебабы; из десертов — пахлава. Ресторан на Dositejeva 1a заявляет полностью халяльное меню.","sourceId":"manual:web-research:2026-09-04","provenanceUrl":"https://www.tripadvisor.com/Restaurant_Review-g294472-d16213628-Reviews-Turkuaz_Restaurant-Belgrade.html","mapUrl":"https://maps.google.com/?q=44.8171,20.4606"}},
    {"type":"Feature","geometry":{"type":"Point","coordinates":[20.458121,44.813998]},"properties":{"id":"jan-restaurant","name":"JAN Restaurant | ĐAN Restoran","category":"restaurant","cuisine":"armenian","countryCode":"AM","markerIcon":"flag-am","description":"Армянская кухня: шашлык и мясо на гриле, люля-кебаб, свиные рёбра, курица и шаурма.","sourceId":"google-maps-export:2026-09-08","provenanceUrl":"https://jan.rs/","mapUrl":"https://www.google.com/maps?cid=5258365247170073640"}},
    {"type":"Feature","geometry":{"type":"Point","coordinates":[20.469847,44.807753]},"properties":{"id":"king-tut","name":"KING TUT RESTAURANT","category":"restaurant","cuisine":"egyptian","countryCode":"EG","markerIcon":"flag-eg","description":"Египетская кухня: кошари, хававши, таамея, махши, кофта, фуль и десерт ом-али.","sourceId":"google-maps-export:2026-09-08","provenanceUrl":"https://wolt.com/sr/srb/belgrade/restaurant/king-tut-bg","mapUrl":"https://www.google.com/maps?cid=12236492609147241571"}},
    {"type":"Feature","geometry":{"type":"Point","coordinates":[20.562843,44.710121]},"properties":{"id":"ikea-swedish-bistro","name":"IKEA — Švedski restoran i bistro","category":"restaurant","cuisine":"swedish","countryCode":"SE","markerIcon":"flag-se","description":"Шведский ресторан и бистро IKEA: фрикадельки, растительные фрикадельки, шведская выпечка и булочки с корицей; в бистро есть хот-доги и мороженое.","sourceId":"google-maps-export:2026-09-08","provenanceUrl":"https://www.ikea.com/rs/sr/stores/restaurant/","mapUrl":"https://www.google.com/maps?cid=1224554916067525996"}},
    {"type":"Feature","geometry":{"type":"Point","coordinates":[20.460044,44.815678]},"properties":{"id":"hard-rock-belgrade","name":"Hard Rock Cafe Belgrade","category":"restaurant","cuisine":"american","countryCode":"US","markerIcon":"flag-us","description":"Американская кухня: Legendary Burger, рёбра BBQ, крылышки, сэндвичи, стейки и брауни.","sourceId":"google-maps-export:2026-09-08","provenanceUrl":"https://cafe.hardrock.com/belgrade/","mapUrl":"https://www.google.com/maps?cid=12701895766516388278"}},
    {"type":"Feature","geometry":{"type":"Point","coordinates":[20.404428,44.805539]},"properties":{"id":"kfc-delta-city","name":"KFC Delta City","category":"restaurant","cuisine":"american","countryCode":"US","markerIcon":"flag-us","description":"Американская сеть с блюдами из жареной курицы: Hot Wings, Strips, Zinger, Twister и картофель фри.","sourceId":"google-maps-export:2026-09-08","provenanceUrl":"https://kfc.rs/en/restaurants/kfc-delta-city-1099","mapUrl":"https://www.google.com/maps?cid=17644979522007602314"}},
    {"type":"Feature","geometry":{"type":"Point","coordinates":[20.413004,44.784513]},"properties":{"id":"kfc-ada-drive-thru","name":"KFC Ada Drive Thru","category":"restaurant","cuisine":"american","countryCode":"US","markerIcon":"flag-us","description":"Американская сеть с блюдами из жареной курицы: Hot Wings, Strips, Zinger, Twister и картофель фри.","sourceId":"google-maps-export:2026-09-08","provenanceUrl":"https://kfc.rs/restorani/kfc-ada-drive-thru-1098","mapUrl":"https://www.google.com/maps?cid=10240823771484677997"}},
    {"type":"Feature","geometry":{"type":"Point","coordinates":[20.458425,44.818438]},"properties":{"id":"kfc-studentski-trg","name":"KFC Studentski Trg","category":"restaurant","cuisine":"american","countryCode":"US","markerIcon":"flag-us","description":"Американская сеть с блюдами из жареной курицы: Hot Wings, Strips, Zinger, Twister и картофель фри.","sourceId":"google-maps-export:2026-09-08","provenanceUrl":"https://kfc.rs/restorani/rs-kfc-belgrade-studentski-trg-1102","mapUrl":"https://www.google.com/maps?cid=3372926252595909347"}},
    {"type":"Feature","geometry":{"type":"Point","coordinates":[20.436533,44.815391]},"properties":{"id":"kfc-usce","name":"KFC UŠĆE Shopping Center","category":"restaurant","cuisine":"american","countryCode":"US","markerIcon":"flag-us","description":"Американская сеть с блюдами из жареной курицы: Hot Wings, Strips, Zinger, Twister и картофель фри.","sourceId":"google-maps-export:2026-09-08","provenanceUrl":"https://kfc.rs/restorani/rs-kfc-belgrade-usce-1149","mapUrl":"https://www.google.com/maps?cid=17306661858138434057"}},
    {"type":"Feature","geometry":{"type":"Point","coordinates":[20.560847,44.712958]},"properties":{"id":"kfc-ava-shopping-park","name":"KFC AVA Shopping Park","category":"restaurant","cuisine":"american","countryCode":"US","markerIcon":"flag-us","description":"Американская сеть с блюдами из жареной курицы: Hot Wings, Strips, Zinger, Twister и картофель фри.","sourceId":"google-maps-export:2026-09-08","provenanceUrl":"https://kfc.rs/restorani/kfc-ava-shopping-park-1113","mapUrl":"https://www.google.com/maps?cid=16549919686784875972"}},
    {"type":"Feature","geometry":{"type":"Point","coordinates":[20.407885,44.825987]},"properties":{"id":"mcdonalds-fontana","name":"McDonald's Fontana","category":"restaurant","cuisine":"american","countryCode":"US","markerIcon":"flag-us","description":"Американская сеть быстрого питания: Big Mac, чизбургеры, McChicken, Chicken McNuggets, McWrap и картофель фри.","sourceId":"google-maps-export:2026-09-08","provenanceUrl":"https://www.mcdonalds.rs/restaurant-hours-srb/","mapUrl":"https://www.google.com/maps?cid=9510555777061606891"}},
    {"type":"Feature","geometry":{"type":"Point","coordinates":[20.404342,44.812665]},"properties":{"id":"mcdonalds-blok-41-dt","name":"McDonald's Blok 41 DT","category":"restaurant","cuisine":"american","countryCode":"US","markerIcon":"flag-us","description":"Американская сеть быстрого питания: Big Mac, чизбургеры, McChicken, Chicken McNuggets, McWrap и картофель фри.","sourceId":"google-maps-export:2026-09-08","provenanceUrl":"https://www.mcdonalds.rs/restaurant-hours-srb/","mapUrl":"https://www.google.com/maps?cid=384736179529262006"}},
    {"type":"Feature","geometry":{"type":"Point","coordinates":[20.404238,44.805172]},"properties":{"id":"mcdonalds-delta-city","name":"McDonald's Delta City","category":"restaurant","cuisine":"american","countryCode":"US","markerIcon":"flag-us","description":"Американская сеть быстрого питания: Big Mac, чизбургеры, McChicken, Chicken McNuggets, McWrap и картофель фри.","sourceId":"google-maps-export:2026-09-08","provenanceUrl":"https://www.mcdonalds.rs/restaurant-hours-srb/","mapUrl":"https://www.google.com/maps?cid=9253951509235176151"}},
    {"type":"Feature","geometry":{"type":"Point","coordinates":[20.385559,44.802167]},"properties":{"id":"mcdonalds-piramida","name":"McDonald's Piramida","category":"restaurant","cuisine":"american","countryCode":"US","markerIcon":"flag-us","description":"Американская сеть быстрого питания: Big Mac, чизбургеры, McChicken, Chicken McNuggets, McWrap и картофель фри.","sourceId":"google-maps-export:2026-09-08","provenanceUrl":"https://www.mcdonalds.rs/restaurant-hours-srb/","mapUrl":"https://www.google.com/maps?cid=1311943660686710195"}},
    {"type":"Feature","geometry":{"type":"Point","coordinates":[20.457057,44.814188]},"properties":{"id":"mcdonalds-zeleni-venac","name":"McDonald's Zeleni Venac","category":"restaurant","cuisine":"american","countryCode":"US","markerIcon":"flag-us","description":"Американская сеть быстрого питания: Big Mac, чизбургеры, McChicken, Chicken McNuggets, McWrap и картофель фри.","sourceId":"google-maps-export:2026-09-08","provenanceUrl":"https://www.mcdonalds.rs/restaurant-hours-srb/","mapUrl":"https://www.google.com/maps?cid=7906992509699615769"}},
    {"type":"Feature","geometry":{"type":"Point","coordinates":[20.46547,44.802225]},"properties":{"id":"mcdonalds-slavija","name":"McDonald's Slavija","category":"restaurant","cuisine":"american","countryCode":"US","markerIcon":"flag-us","description":"Американская сеть быстрого питания: Big Mac, чизбургеры, McChicken, Chicken McNuggets, McWrap и картофель фри.","sourceId":"google-maps-export:2026-09-08","provenanceUrl":"https://www.mcdonalds.rs/restaurant-hours-srb/","mapUrl":"https://www.google.com/maps?cid=1456164468013608094"}},
    {"type":"Feature","geometry":{"type":"Point","coordinates":[20.445215,44.80375]},"properties":{"id":"mcdonalds-galerija","name":"McDonald's Galerija","category":"restaurant","cuisine":"american","countryCode":"US","markerIcon":"flag-us","description":"Американская сеть быстрого питания: Big Mac, чизбургеры, McChicken, Chicken McNuggets, McWrap и картофель фри.","sourceId":"google-maps-export:2026-09-08","provenanceUrl":"https://www.mcdonalds.rs/restaurant-hours-srb/","mapUrl":"https://www.google.com/maps?cid=3171629309852472708"}},
    {"type":"Feature","geometry":{"type":"Point","coordinates":[20.560076,44.713361]},"properties":{"id":"mcdonalds-ava-park-dt","name":"McDonald's AVA Park DT","category":"restaurant","cuisine":"american","countryCode":"US","markerIcon":"flag-us","description":"Американская сеть быстрого питания: Big Mac, чизбургеры, McChicken, Chicken McNuggets, McWrap и картофель фри.","sourceId":"google-maps-export:2026-09-08","provenanceUrl":"https://www.mcdonalds.rs/restaurant-hours-srb/","mapUrl":"https://www.google.com/maps?cid=2404092402182331772"}},
    {"type":"Feature","geometry":{"type":"Point","coordinates":[20.461443,44.812973]},"properties":{"id":"mcdonalds-bezistan","name":"McDonald's Bezistan","category":"restaurant","cuisine":"american","countryCode":"US","markerIcon":"flag-us","description":"Американская сеть быстрого питания: Big Mac, чизбургеры, McChicken, Chicken McNuggets, McWrap и картофель фри.","sourceId":"google-maps-export:2026-09-08","provenanceUrl":"https://www.mcdonalds.rs/restaurant-hours-srb/","mapUrl":"https://www.google.com/maps?cid=17398250414275530742"}},
    {"type":"Feature","geometry":{"type":"Point","coordinates":[20.459187,44.817379]},"properties":{"id":"biryani-central","name":"Biryani Central","category":"restaurant","cuisine":"indian","countryCode":"IN","markerIcon":"flag-in","description":"Индийская кухня: бирьяни с курицей, баттер-чикен, куриное карри, дал тадка, палак-панир, кхир и манго-ласси.","sourceId":"google-maps-export:2026-09-08","provenanceUrl":"https://wolt.com/sr/srb/belgrade/restaurant/biryani-central","mapUrl":"https://www.google.com/maps?cid=1934810374094234655"}},
    {"type":"Feature","geometry":{"type":"Point","coordinates":[20.458852,44.813697]},"properties":{"id":"indian-punjabi-cuisine","name":"Indian Punjabi Cuisine","category":"restaurant","cuisine":"indian","countryCode":"IN","markerIcon":"flag-in","description":"Панджабская кухня: самоса и пакора, чикен-тикка, тандури-чикен, карри, палак-панир, наан и бирьяни с курицей.","sourceId":"google-maps-export:2026-09-08","provenanceUrl":"https://www.indianpunjabicuisine.rs/menu/","mapUrl":"https://www.google.com/maps?cid=123411629342879659"}},
    {"type":"Feature","geometry":{"type":"Point","coordinates":[20.467251,44.807183]},"properties":{"id":"tao-thai","name":"TAO Thai","category":"restaurant","cuisine":"thai","countryCode":"TH","markerIcon":"flag-th","description":"Тайская кухня: пад-тай, массаман-карри, пад-крапао, пад-си-ю, жареный рис том-ям и блюда с кокосовым молоком.","sourceId":"google-maps-export:2026-09-08","provenanceUrl":"https://wolt.com/en/srb/belgrade/restaurant/tao-thai","mapUrl":"https://www.google.com/maps?cid=8881628063300310089"}},
    {"type":"Feature","geometry":{"type":"Point","coordinates":[20.469938,44.79501]},"properties":{"id":"tuk-tuk-thai","name":"Tuk Tuk Thai Food","category":"restaurant","cuisine":"thai","countryCode":"TH","markerIcon":"flag-th","description":"Тайская кухня: сатай, красное и массаман-карри, тайская лапша и рис, спринг-роллы и клейкий рис с манго.","sourceId":"google-maps-export:2026-09-08","provenanceUrl":"https://wolt.com/en/srb/belgrade/restaurant/tuk-tuk-thai-foood","mapUrl":"https://www.google.com/maps?cid=11255238587367473435"}},
    {"type":"Feature","geometry":{"type":"Point","coordinates":[20.463363,44.820239]},"properties":{"id":"anadolija-turkish","name":"Anadolija Turkish Restaurant","category":"restaurant","cuisine":"turkish","countryCode":"TR","markerIcon":"flag-tr","description":"Турецкая и анатолийская кухня: менемен, шакшука, хайдари, пиде, лахмаджун, манты, сач-тава и тандыр-кебаб.","sourceId":"google-maps-export:2026-09-08","provenanceUrl":"https://anadolija.com/en/menu","mapUrl":"https://www.google.com/maps?cid=17664406582430855093"}},
    {"type":"Feature","geometry":{"type":"Point","coordinates":[20.463497,44.820245]},"properties":{"id":"kultura-turkish","name":"Kultura Cafe & Restaurant","category":"restaurant","cuisine":"turkish","countryCode":"TR","markerIcon":"flag-tr","description":"Турецкая кухня: менемен, шакшука, хайдари, эзме, пиде, лахмаджун, турецкие кёфте и баклава.","sourceId":"google-maps-export:2026-09-08","provenanceUrl":"https://restorankultura.com/sr/menu","mapUrl":"https://www.google.com/maps?cid=11199187651103803774"}},
    {"type":"Feature","geometry":{"type":"Point","coordinates":[20.399722,44.805661]},"properties":{"id":"osteria-mozzarella","name":"Osteria Mozzarella","category":"restaurant","cuisine":"italian","countryCode":"IT","markerIcon":"flag-it","description":"Итальянская кухня по регионам: паста, ризотто, пицца, мясные и рыбные блюда, морепродукты, сыры и десерты.","sourceId":"google-maps-export:2026-09-08","provenanceUrl":"https://mozzarella.rs/menu/","mapUrl":"https://www.google.com/maps?cid=16309550939742079824"}},
    {"type":"Feature","geometry":{"type":"Point","coordinates":[20.452641,44.817082]},"properties":{"id":"trattoria-campania","name":"Trattoria Campania","category":"restaurant","cuisine":"italian","countryCode":"IT","markerIcon":"flag-it","description":"Кухня региона Кампания: неаполитанская пицца из дровяной печи, буррата, паста, рагу по-неаполитански, польпетте и торт капрезе.","sourceId":"google-maps-export:2026-09-08","provenanceUrl":"https://trattoriacampania.com/","mapUrl":"https://www.google.com/maps?cid=10392598412827587265"}},
    {"type":"Feature","geometry":{"type":"Point","coordinates":[20.409489,44.82193]},"properties":{"id":"moon-sushi-nbg","name":"MOON Sushi & Fusion Food NBG","category":"restaurant","cuisine":"japanese","countryCode":"JP","markerIcon":"flag-jp","description":"Японская и азиатская кухня: суши и роллы, тартар из лосося, эдамамэ, гёдза, донбури и горячие блюда.","sourceId":"google-maps-export:2026-09-08","provenanceUrl":"https://www.moon-sushi.com/","mapUrl":"https://www.google.com/maps?cid=87172192224071476"}},
    {"type":"Feature","geometry":{"type":"Point","coordinates":[20.456333,44.819435]},"properties":{"id":"ebisu-square-nine","name":"Ebisu","category":"restaurant","cuisine":"japanese","countryCode":"JP","markerIcon":"flag-jp","description":"Японская кухня: тэппанъяки, рамэн, мягкопанцирный краб, абури-суши, сашими и саке.","sourceId":"google-maps-export:2026-09-08","provenanceUrl":"https://squarenine.rs/restaurants-and-bars/","mapUrl":"https://www.google.com/maps?cid=15607887977186011442"}},
    {"type":"Feature","geometry":{"type":"Point","coordinates":[20.465888,44.81496]},"properties":{"id":"hanan","name":"Restoran Hanan","category":"restaurant","cuisine":"lebanese","countryCode":"LB","markerIcon":"flag-lb","description":"Ливанская кухня: фалафель, хумус, табуле, шаурма, шиш-таук, кеббе, мезе и баба-гануш.","sourceId":"google-maps-export:2026-09-08","provenanceUrl":"https://wolt.com/en/srb/belgrade/restaurant/restoran-hanan","mapUrl":"https://www.google.com/maps?cid=2942949235524087137"}},
    {"type":"Feature","geometry":{"type":"Point","coordinates":[20.462556,44.815805]},"properties":{"id":"yalla-yalla","name":"Yalla Yalla Supernaut — Falafel & Shawarma","category":"restaurant","cuisine":"lebanese","countryCode":"LB","markerIcon":"flag-lb","description":"Ливанский стритфуд: фалафель, куриная шаурма, хумус, чечевичный суп и блюда с тахини.","sourceId":"google-maps-export:2026-09-08","provenanceUrl":"https://restaurantguru.com/Yalla-Yalla-Belgrade","mapUrl":"https://www.google.com/maps?cid=9132046637028502326"}},
    {"type":"Feature","geometry":{"type":"Point","coordinates":[20.391,44.812705]},"properties":{"id":"zapata-pozo","name":"Zapata Pozo","category":"restaurant","cuisine":"mexican","countryCode":"MX","markerIcon":"flag-mx","description":"Мексиканская кухня: чимичанга, гуакамоле, энчилада, буррито, кесадилья, тако и пико-де-гайо.","sourceId":"google-maps-export:2026-09-08","provenanceUrl":"https://www.zapata.rs/","mapUrl":"https://www.google.com/maps?cid=14163396839195157550"}},
    {"type":"Feature","geometry":{"type":"Point","coordinates":[20.459002,44.817046]},"properties":{"id":"tortilla-casa-centar","name":"Tortilla Casa Mexican Grill","category":"restaurant","cuisine":"mexican","countryCode":"MX","markerIcon":"flag-mx","description":"Мексиканский fast-casual: буррито, кесадильи, мягкие и хрустящие тако, такитос, кранчврап и чуррос.","sourceId":"google-maps-export:2026-09-08","provenanceUrl":"https://wolt.com/sr/srb/belgrade/restaurant/tortilla-casa-centar","mapUrl":"https://www.google.com/maps?cid=10934522429607432414"}},
    {"type":"Feature","geometry":{"type":"Point","coordinates":[20.378055,44.805389]},"properties":{"id":"golden-wok","name":"Golden Wok","category":"restaurant","cuisine":"chinese","countryCode":"CN","markerIcon":"flag-cn","description":"Китайская кухня: хрустящая курица, мясо с арахисом и кешью, кисло-сладкие блюда, удон, спринг-роллы и мапо-тофу.","sourceId":"google-maps-export:2026-09-08","provenanceUrl":"https://wolt.com/sr/srb/belgrade/restaurant/golden-wok","mapUrl":"https://www.google.com/maps?cid=14384856599594150876"}},
    {"type":"Feature","geometry":{"type":"Point","coordinates":[20.456034,44.814187]},"properties":{"id":"yxlanzh","name":"YXlanzh","category":"restaurant","cuisine":"chinese","countryCode":"CN","markerIcon":"flag-cn","description":"Китайская кухня северо-запада: ручная лапша и супы, пельмени, жареный рис, говядина с кумином, тофу и блюда с древесными грибами.","sourceId":"google-maps-export:2026-09-08","provenanceUrl":"https://postopice.rs/lokal/yxlanzh-d-o-o","mapUrl":"https://www.google.com/maps?cid=13503458993068943770"}},
    {"type":"Feature","geometry":{"type":"Point","coordinates":[20.4649376,44.8156074]},"properties":{"id":"moon-sushi-centar","name":"MOON Sushi & Fusion Food — centar","category":"restaurant","cuisine":"japanese","countryCode":"JP","markerIcon":"flag-jp","description":"Центральная точка MOON: суши и роллы, нигири, гёдза, рамэн, удон и другие японско-азиатские горячие блюда. Официальный адрес ресторана — Trg Politika 3; координата и Google-карточка относятся к тому же заведению на углу с Makedonska.","sourceId":"google-maps-export:2026-09-08","provenanceUrl":"https://moon-sushi.com/","mapUrl":"https://www.google.com/maps?cid=18354192755595110935"}},
    {"type":"Feature","geometry":{"type":"Point","coordinates":[20.450438,44.8089471]},"properties":{"id":"le-coin-bistrot","name":"Le Coin Bistrot Belgrade","category":"restaurant","cuisine":"french","countryCode":"FR","markerIcon":"flag-fr","description":"Французское бистро: крок-месье с бешамелем и эмменталем, французские омлеты, яйца Бенедикт, антрекот Café de Paris и фламбированные блинчики в апельсиновом соусе.","sourceId":"google-maps-export:2026-09-08","provenanceUrl":"https://wolt.com/en/srb/belgrade/restaurant/le-coin-bistrot-belgrade","mapUrl":"https://www.google.com/maps/search/?api=1&query=Le%20Coin%20Bistrot%20Belgrade&query_place_id=ChIJP1dAdAB7WkcRjYDDfOWZM2Q"}},
    {"type":"Feature","geometry":{"type":"Point","coordinates":[20.482451,44.808098]},"properties":{"id":"pivo-i-kobaja-ruzveltova","name":"Pivo i Kobaja — Ruzveltova","category":"restaurant","cuisine":"german","countryCode":"DE","markerIcon":"flag-de","description":"Пивная немецкого типа в баварско-сербском стиле: bratwurst, Münchener wurst, баварский брецель, колбасные ассорти и разливное пиво.","sourceId":"manual:web-research:2026-09-11","provenanceUrl":"https://pivoikobaja.rs/menu/","mapUrl":"https://www.google.com/maps/search/?api=1&query=Pivo%20i%20Kobaja%20Ruzveltova%2036%20Beograd"}},
    {"type":"Feature","geometry":{"type":"Point","coordinates":[20.4149,44.8199]},"properties":{"id":"pivo-i-kobaja-novi-beograd","name":"Pivo i Kobaja — Novi Beograd","category":"restaurant","cuisine":"german","countryCode":"DE","markerIcon":"flag-de","description":"Вторая точка Pivo i Kobaja с тем же немецко-баварским профилем: bratwurst, Münchener wurst, баварский брецель, колбасные ассорти и разливное пиво.","sourceId":"manual:web-research:2026-09-11","provenanceUrl":"https://pivoikobaja.rs/menu/","mapUrl":"https://www.google.com/maps/search/?api=1&query=Pivo%20i%20Kobaja%20Bulevar%20umetnosti%204%20Beograd"}}
  ]
}
