{
  "type": "FeatureCollection",
  "rules": {
    "validation": "Include only currently operating stores; omit closed or paused locations.",
    "inventory": "Describe stable product categories and useful examples; never promise that a specific SKU is in stock today.",
    "mapLink": "Prefer the store's canonical Google Maps place URL; coordinates or address search are acceptable fallbacks when no reliable place URL is available.",
    "issueNum": 311,
    "researchBranch": "agent/familiar-foods-map-finish"
  },
  "properties": {
    "schema": 1,
    "datasetId": "belgrade-familiar-foods",
    "title": "Где искать привычные продукты в Белграде",
    "kind": "poi",
    "regionId": "belgrade",
    "snapshotAt": "2026-09-19",
    "coordinateSources": [
      {
        "sourceId": "google-mymaps:12l4BVYg_FV0d9CMeEWEtnJDQioL9804",
        "snapshotAt": "2026-08-23T07:46:02.450Z",
        "note": "Coordinates and Google Maps place IDs for selected stores come from the committed «Маленькая РФ» snapshot."
      },
      {
        "sourceId": "manual:web-research:2026-09-09",
        "snapshotAt": "2026-09-09",
        "note": "Current addresses, selected coordinates and product categories were checked against official store finders, Wolt and current public map/directory sources."
      },
      {
        "sourceId": "manual:web-research:2026-09-19",
        "snapshotAt": "2026-09-19",
        "note": "Follow-up verification of operating status, addresses and Mix Markt geometry. Tadije Sondermajera uses address-complex geometry cross-checked against RGZ-derived address data; the canonical Google Place ID is retained for exact navigation."
      }
    ],
    "attribution": "RSLive first-party thematic dataset compiled from the familiar-foods article, the committed «Маленькая РФ» snapshot and current public store/delivery sources; per-feature provenance is retained."
  },
  "features": [
    {"type":"Feature","geometry":{"type":"Point","coordinates":[20.4545188,44.826551]},"properties":{"id":"berezka-dorcol","name":"Berezka — Dorćol","category":"shop","storeType":"specialty","markerIcon":"food","description":"Адрес: Bulevar Vojvode Bojovića 4v. Ищите: ряженку и другие молочные продукты, бородинский хлеб, селёдку и другую рыбу, икру, квас, пельмени и вареники, сырники, чай и сладости. Ассортимент меняется.","sourceId":"manual:web-research:2026-09-09","provenanceUrl":"https://wolt.com/sr/srb/belgrade/venue/berezka-market","mapUrl":"https://www.google.com/maps/search/?api=1&query=44.826551%2C20.4545188"}},
    {"type":"Feature","geometry":{"type":"Point","coordinates":[20.4927835,44.7944988]},"properties":{"id":"berezka-vracar","name":"Berezka — Vračar","category":"shop","storeType":"specialty","markerIcon":"food","description":"Адрес: Vojislava Ilića 29. Ищите: ряженку и другие молочные продукты, бородинский хлеб, селёдку и другую рыбу, икру, квас, пельмени и вареники, сырники, чай и сладости. Ассортимент меняется.","sourceId":"manual:web-research:2026-09-09","provenanceUrl":"https://wolt.com/sr/srb/belgrade/venue/berezka-market-vracar","mapUrl":"https://www.google.com/maps/search/?api=1&query=44.7944988%2C20.4927835"}},
    {"type":"Feature","geometry":{"type":"Point","coordinates":[20.3956933,44.8157007]},"properties":{"id":"berezka-novi-beograd","name":"Berezka — Novi Beograd","category":"shop","storeType":"specialty","markerIcon":"food","description":"Адрес: Bulevar Heroja sa Košara 2v. Ищите: ряженку и другие молочные продукты, бородинский хлеб, селёдку и другую рыбу, икру, квас, пельмени и вареники, сырники, чай и сладости. Ассортимент меняется.","sourceId":"manual:web-research:2026-09-09","provenanceUrl":"https://wolt.com/sr/srb/belgrade/venue/berezka-market-novi-beograd","mapUrl":"https://www.google.com/maps/search/?api=1&query=44.8157007%2C20.3956933"}},
    {"type":"Feature","geometry":{"type":"Point","coordinates":[20.4552646,44.8037709]},"properties":{"id":"berezka-sarajevska","name":"Berezka — Sarajevska","category":"shop","storeType":"specialty","markerIcon":"food","description":"Адрес: Sarajevska 27. Ищите: ряженку и другие молочные продукты, бородинский хлеб, селёдку и другую рыбу, икру, квас, пельмени и вареники, сырники, чай и сладости. Ассортимент меняется.","sourceId":"manual:web-research:2026-09-09","provenanceUrl":"https://wolt.com/sr/srb/belgrade/venue/berezka-market-stari-grad","mapUrl":"https://www.google.com/maps/search/?api=1&query=Berezka%20Market%20Sarajevska%2027%20Beograd"}},
    {"type":"Feature","geometry":{"type":"Point","coordinates":[20.462817,44.815005]},"properties":{"id":"mix-markt-decanska","name":"Mix Markt — Dečanska","category":"shop","storeType":"specialty","markerIcon":"food","description":"Адрес: Dečanska 5. Ищите: бородинский хлеб, селёдку и другую рыбу, икру, «Докторскую» и другие колбасы, квас, пельмени, чай, зефир и другие восточноевропейские сладости. Ассортимент меняется.","sourceId":"google-mymaps:12l4BVYg_FV0d9CMeEWEtnJDQioL9804","provenanceUrl":"https://www.mixmarkt.eu/sr/srbija/prodavnice/","mapUrl":"https://www.google.com/maps/search/?api=1&query=Mix%20Markt%20Decanska%205%20Beograd&query_place_id=ChIJzUGVji17WkcRSt_-PW8YaMM"}},
    {"type":"Feature","geometry":{"type":"Point","coordinates":[20.472777,44.813003]},"properties":{"id":"mix-markt-27-marta","name":"Mix Markt — 27 Marta","category":"shop","storeType":"specialty","markerIcon":"food","description":"Адрес: 27 Marta 7. Ищите: бородинский хлеб, селёдку и другую рыбу, икру, «Докторскую» и другие колбасы, квас, пельмени, чай, зефир и другие восточноевропейские сладости. Ассортимент меняется.","sourceId":"google-mymaps:12l4BVYg_FV0d9CMeEWEtnJDQioL9804","provenanceUrl":"https://www.mixmarkt.eu/sr/srbija/prodavnice/","mapUrl":"https://www.google.com/maps/search/?api=1&query=Mix%20Markt%2027%20Marta%207%20Beograd&query_place_id=ChIJSYjlSwB7WkcRiOH5hEXsIhg"}},
    {"type":"Feature","geometry":{"type":"Point","coordinates":[20.451531,44.800866]},"properties":{"id":"mix-markt-sarajevska","name":"Mix Markt — Sarajevska","category":"shop","storeType":"specialty","markerIcon":"food","description":"Адрес: Sarajevska 70. Ищите: бородинский хлеб, селёдку и другую рыбу, икру, «Докторскую» и другие колбасы, квас, пельмени, чай, зефир и другие восточноевропейские сладости. Ассортимент меняется.","sourceId":"manual:web-research:2026-09-09","provenanceUrl":"https://www.mixmarkt.eu/sr/srbija/prodavnice/","mapUrl":"https://www.google.com/maps/search/?api=1&query=Mix%20Markt%20Sarajevska%2070%20Beograd&query_place_id=ChIJr9WObABxWkcRW4MVBoIv1qQ"}},
    {"type":"Feature","geometry":{"type":"Point","coordinates":[20.479008,44.803729]},"properties":{"id":"mix-markt-bulevar-kralja-aleksandra","name":"Mix Markt — Bulevar Kralja Aleksandra","category":"shop","storeType":"specialty","markerIcon":"food","description":"Адрес: Bulevar Kralja Aleksandra 124. Ищите: бородинский хлеб, селёдку и другую рыбу, икру, «Докторскую» и другие колбасы, квас, пельмени, чай, зефир и другие восточноевропейские сладости. Ассортимент меняется.","sourceId":"google-mymaps:12l4BVYg_FV0d9CMeEWEtnJDQioL9804","provenanceUrl":"https://www.mixmarkt.eu/sr/srbija/prodavnice/","mapUrl":"https://www.google.com/maps/search/?api=1&query=Mix%20Markt%20Bulevar%20Kralja%20Aleksandra%20124%20Beograd&query_place_id=ChIJzVJ9mEp7WkcRXD7Iizt-Wr8"}},
    {"type":"Feature","geometry":{"type":"Point","coordinates":[20.4641794,44.8074145]},"properties":{"id":"mix-markt-kralja-milana","name":"Mix Markt — Kralja Milana","category":"shop","storeType":"specialty","markerIcon":"food","description":"Адрес: Kralja Milana 21. Ищите: бородинский хлеб, селёдку и другую рыбу, икру, «Докторскую» и другие колбасы, квас, пельмени, чай, зефир и другие восточноевропейские сладости. Ассортимент меняется.","sourceId":"manual:web-research:2026-09-19","provenanceUrl":"https://www.mixmarkt.eu/sr/srbija/prodavnice/","mapUrl":"https://www.google.com/maps/search/?api=1&query=Mix%20Markt%20Kralja%20Milana%2021%20Beograd&query_place_id=ChIJzbzcWrx7WkcRT7zirdX1w3M"}},
    {"type":"Feature","geometry":{"type":"Point","coordinates":[20.3965,44.8153]},"properties":{"id":"mix-markt-tadije-sondermajera","name":"Mix Markt — Tadije Sondermajera","category":"shop","storeType":"specialty","markerIcon":"food","description":"Адрес: Tadije Sondermajera 10И. Ищите: бородинский хлеб, селёдку и другую рыбу, икру, «Докторскую» и другие колбасы, квас, пельмени, чай, зефир и другие восточноевропейские сладости. Ассортимент меняется.","sourceId":"manual:web-research:2026-09-19","provenanceUrl":"https://www.mixmarkt.eu/sr/srbija/prodavnice/20489/","mapUrl":"https://www.google.com/maps/search/?api=1&query=Mix%20Markt%20Tadije%20Sondermajera%2010I%20Beograd&query_place_id=ChIJr_sbOL9vWkcR6L4Ry74fsHQ"}},
    {"type":"Feature","geometry":{"type":"Point","coordinates":[20.400102,44.805048]},"properties":{"id":"mix-markt-jurija-gagarina","name":"Mix Markt — Jurija Gagarina","category":"shop","storeType":"specialty","markerIcon":"food","description":"Адрес: Jurija Gagarina 22D, lokal 4. Ищите: бородинский хлеб, селёдку и другую рыбу, икру, «Докторскую» и другие колбасы, квас, пельмени, чай, зефир и другие восточноевропейские сладости. Ассортимент меняется.","sourceId":"manual:web-research:2026-09-09","provenanceUrl":"https://www.mixmarkt.eu/sr/srbija/prodavnice/","mapUrl":"https://www.google.com/maps/search/?api=1&query=Mix%20Markt%20Jurija%20Gagarina%2022D%20Beograd"}},
    {"type":"Feature","geometry":{"type":"Point","coordinates":[20.477235,44.80397]},"properties":{"id":"assorti-konfeta","name":"ASSORTI / Konfeta","category":"shop","storeType":"specialty","markerIcon":"food","description":"Адрес: Golsvordijeva 33. Восточноевропейские продукты и сладости; полезная точка для привычных импортных товаров. Ассортимент меняется.","sourceId":"google-mymaps:12l4BVYg_FV0d9CMeEWEtnJDQioL9804","provenanceUrl":"https://www.waze.com/live-map/directions/rs/bg/assorti-konfeta-eastern-european-food-and-drinks-store?to=place.ChIJ7ecYWS97WkcRP_9bIOLs2CA","mapUrl":"https://www.google.com/maps/search/?api=1&query=ASSORTI%20Konfeta%20Golsvordijeva%2033&query_place_id=ChIJ7ecYWS97WkcRP_9bIOLs2CA"}},
    {"type":"Feature","geometry":{"type":"Point","coordinates":[20.476499,44.818219]},"properties":{"id":"rusmarket-cvijiceva","name":"RusMarket — Cvijićeva","category":"shop","storeType":"specialty","markerIcon":"food","description":"Адрес: Cvijićeva 18. Русские продукты и импортная бакалея; сюда имеет смысл идти за привычными марками и товарами, которых нет в обычном супермаркете. Ассортимент меняется.","sourceId":"google-mymaps:12l4BVYg_FV0d9CMeEWEtnJDQioL9804","provenanceUrl":"https://t.me/s/RusMarketBeograd","mapUrl":"https://www.google.com/maps/search/?api=1&query=RusMarket%20Cvijiceva%2018%20Beograd&query_place_id=ChIJBT9uagB7WkcRSJBJ1ZZEMqM"}},
    {"type":"Feature","geometry":{"type":"Point","coordinates":[20.4790063,44.768938]},"properties":{"id":"gubernija-rusmarket","name":"Gubernija RusMarket","category":"shop","storeType":"specialty","markerIcon":"food","description":"Адрес: Vojvode Stepe 264. Ищите: гречку, бородинский хлеб, рыбу, молочные продукты, сгущёнку, квас, чёрный чай и сладости. Ассортимент меняется.","sourceId":"manual:web-research:2026-09-09","provenanceUrl":"https://wolt.com/sr/srb/belgrade/venue/ruski-market-td-prk-5","mapUrl":"https://www.google.com/maps/search/?api=1&query=44.768938%2C20.4790063"}},
    {"type":"Feature","geometry":{"type":"Point","coordinates":[20.4535397,44.8136817]},"properties":{"id":"ura-store","name":"URA Store","category":"shop","storeType":"specialty","markerIcon":"food","description":"Адрес: Kraljevića Marka 11. Ищите прежде всего пельмени и вареники: с мясом, курицей, картофелем, вишней, творогом и другими начинками. Ассортимент меняется.","sourceId":"manual:web-research:2026-09-09","provenanceUrl":"https://wolt.com/sr/srb/belgrade/venue/ura-store","mapUrl":"https://www.google.com/maps/search/?api=1&query=44.8136817%2C20.4535397"}},
    {"type":"Feature","geometry":{"type":"Point","coordinates":[20.4598428,44.8110176]},"properties":{"id":"ruski-market-5-oclock","name":"Ruski market 5 o'clock","category":"shop","storeType":"specialty","markerIcon":"food","description":"Адрес: Balkanska 27. Специализированная точка для чёрного и ароматизированного чая: Earl Grey, чай с ягодами и добавками, пуэр, улун; есть также кофе и сладости. Ассортимент меняется.","sourceId":"manual:web-research:2026-09-09","provenanceUrl":"https://wolt.com/sr/srb/belgrade/venue/ruski-market-5-oclock","mapUrl":"https://www.google.com/maps/search/?api=1&query=44.8110176%2C20.4598428"}},
    {"type":"Feature","geometry":{"type":"Point","coordinates":[20.4693,44.7958]},"properties":{"id":"fix-price-branicevska","name":"Fix Price — Braničevska","category":"shop","storeType":"budget-chain","markerIcon":"food","description":"Адрес: Braničevska 7. Дискаунтер с продуктами и напитками; проверяйте снеки, печенье, базовую бакалею и другие привычные позиции. Ассортимент часто обновляется, наличие конкретного товара не гарантируется.","sourceId":"manual:web-research:2026-09-09","provenanceUrl":"https://fix-price.rs/","mapUrl":"https://www.google.com/maps/search/?api=1&query=Fix%20Price%20Branicevska%207%20Beograd"}},
    {"type":"Feature","geometry":{"type":"Point","coordinates":[20.4807059,44.7979827]},"properties":{"id":"fix-price-cara-nikolaja-ii","name":"Fix Price — Cara Nikolaja II","category":"shop","storeType":"budget-chain","markerIcon":"food","description":"Адрес: Cara Nikolaja II 58. Дискаунтер с продуктами и напитками; проверяйте снеки, печенье, базовую бакалею и другие привычные позиции. Ассортимент часто обновляется, наличие конкретного товара не гарантируется.","sourceId":"manual:web-research:2026-09-09","provenanceUrl":"https://fix-price.rs/","mapUrl":"https://www.google.com/maps/search/?api=1&query=Fix%20Price%20Cara%20Nikolaja%20II%2058%20Beograd"}},
    {"type":"Feature","geometry":{"type":"Point","coordinates":[20.486448,44.819805]},"properties":{"id":"svetofor-viline-vode","name":"Светофор — Viline vode","category":"shop","storeType":"budget-chain","markerIcon":"food","description":"Адрес: Viline vode 47. Начинайте отсюда за гречкой; в справочнике «Светофор» также отмечен как место поиска селёдки, копчёной скумбрии, сгущёнки и кваса. Наличие зависит от поставки.","sourceId":"google-mymaps:12l4BVYg_FV0d9CMeEWEtnJDQioL9804","provenanceUrl":"https://svetofor.rs/kontakt/","mapUrl":"https://www.google.com/maps/search/?api=1&query=Svetofor%20Viline%20vode%2047%20Beograd&query_place_id=ChIJ2554EQB7WkcRpt-nPxCvMgw"}},
    {"type":"Feature","geometry":{"type":"Point","coordinates":[20.485658,44.766015]},"properties":{"id":"svetofor-peka-dapcevica","name":"Светофор — Bulevar Peka Dapčevića","category":"shop","storeType":"budget-chain","markerIcon":"food","description":"Адрес: Bulevar Peka Dapčevića 28. Начинайте отсюда за гречкой; в справочнике «Светофор» также отмечен как место поиска селёдки, копчёной скумбрии, сгущёнки и кваса. Наличие зависит от поставки.","sourceId":"google-mymaps:12l4BVYg_FV0d9CMeEWEtnJDQioL9804","provenanceUrl":"https://svetofor.rs/kontakt/","mapUrl":"https://www.google.com/maps/search/?api=1&query=Svetofor%20Bulevar%20Peka%20Dapcevica%2028%20Beograd&query_place_id=ChIJi3QBJh9xWkcRSDRMjIooTaM"}},
    {"type":"Feature","geometry":{"type":"Point","coordinates":[20.510516,44.776968]},"properties":{"id":"svetofor-konjarnik","name":"Светофор — Konjarnik","category":"shop","storeType":"budget-chain","markerIcon":"food","description":"Адрес: Vladimira Tomanovića 59. Начинайте отсюда за гречкой; в справочнике «Светофор» также отмечен как место поиска селёдки, копчёной скумбрии, сгущёнки и кваса. Наличие зависит от поставки.","sourceId":"google-mymaps:12l4BVYg_FV0d9CMeEWEtnJDQioL9804","provenanceUrl":"https://svetofor.rs/kontakt/","mapUrl":"https://www.google.com/maps/search/?api=1&query=Svetofor%20Vladimira%20Tomanovica%2059%20Beograd&query_place_id=ChIJ0wRoNgBxWkcRSlh145oHKT0"}},
    {"type":"Feature","geometry":{"type":"Point","coordinates":[20.551901,44.773789]},"properties":{"id":"svetofor-smederevski-put","name":"Светофор — Smederevski put","category":"shop","storeType":"budget-chain","markerIcon":"food","description":"Адрес: Smederevski put 25M. Начинайте отсюда за гречкой; в справочнике «Светофор» также отмечен как место поиска селёдки, копчёной скумбрии, сгущёнки и кваса. Наличие зависит от поставки.","sourceId":"google-mymaps:12l4BVYg_FV0d9CMeEWEtnJDQioL9804","provenanceUrl":"https://svetofor.rs/kontakt/","mapUrl":"https://www.google.com/maps/search/?api=1&query=Svetofor%20Smederevski%20put%2025M%20Beograd&query_place_id=ChIJ7xs2WQB3WkcR99kd7Wra3FU"}},
    {"type":"Feature","geometry":{"type":"Point","coordinates":[20.380409,44.823032]},"properties":{"id":"svetofor-rajkova","name":"Светофор — Rajkova","category":"shop","storeType":"budget-chain","markerIcon":"food","description":"Адрес: Rajkova 22. Начинайте отсюда за гречкой; в справочнике «Светофор» также отмечен как место поиска селёдки, копчёной скумбрии, сгущёнки и кваса. Наличие зависит от поставки.","sourceId":"google-mymaps:12l4BVYg_FV0d9CMeEWEtnJDQioL9804","provenanceUrl":"https://svetofor.rs/kontakt/","mapUrl":"https://www.google.com/maps/search/?api=1&query=Svetofor%20Rajkova%2022%20Beograd&query_place_id=ChIJ3c0psnJlWkcRFaLLTTwINkA"}},
    {"type":"Feature","geometry":{"type":"Point","coordinates":[20.590064,44.733226]},"properties":{"id":"svetofor-lestane","name":"Светофор — Leštane","category":"shop","storeType":"budget-chain","markerIcon":"food","description":"Адрес: Kružni put bb, Leštane. Начинайте отсюда за гречкой; в справочнике «Светофор» также отмечен как место поиска селёдки, копчёной скумбрии, сгущёнки и кваса. Наличие зависит от поставки.","sourceId":"google-mymaps:12l4BVYg_FV0d9CMeEWEtnJDQioL9804","provenanceUrl":"https://svetofor.rs/kontakt/","mapUrl":"https://www.google.com/maps/search/?api=1&query=Svetofor%20Lestane%20Kruzni%20put%20bb&query_place_id=ChIJUzxAdgB3WkcRl5ppJFqzDnI"}}
  ]
}
