{
  "type": "FeatureCollection",
  "properties": {
    "schema": 1,
    "datasetId": "serbia-spa-resorts",
    "title": "Бани и термальные курорты Сербии",
    "kind": "poi",
    "regionId": "serbia",
    "snapshotAt": "2026-09-13",
    "coordinateSources": [
      {"sourceId":"manual:official-web-research:2026-09-13","snapshotAt":"2026-09-13","note":"Статус и туристический профиль проверены по официальным сайтам курортов, туристических организаций, муниципалитетов и реабилитационных учреждений; основной источник сохранён в provenanceUrl каждой точки."},
      {"sourceId":"manual:geodata-crosscheck:2026-09-13","snapshotAt":"2026-09-13","note":"Координаты сверены по Wikidata, GeoNames, OpenStreetMap-derived geodata и опубликованным географическим координатам."}
    ],
    "attribution": "RSLive first-party thematic dataset; official/source provenance is retained per feature."
  },
  "features": [
    {"type":"Feature","geometry":{"type":"Point","coordinates":[20.89634,43.62725]},"properties":{"id":"vrnjacka-banja","name":"Vrnjačka Banja","category":"spa-resort","profile":"city-spa","region":"Šumadija i Zapadna Srbija","markerIcon":"place","description":"Крупный городской курорт: парк и Promenada, гостиничные SPA и бассейны; удобно сочетать с горой Goč.","sourceId":"manual:official-web-research:2026-09-13","provenanceUrl":"https://vrnjackabanja.co.rs/","mapUrl":"https://www.google.com/maps/search/?api=1&query=Vrnja%C4%8Dka%20Banja%2C%20Serbia"}},
    {"type":"Feature","geometry":{"type":"Point","coordinates":[21.872524,43.644199]},"properties":{"id":"sokobanja","name":"Sokobanja","category":"spa-resort","profile":"city-spa","region":"Južna i Istočna Srbija","markerIcon":"place","description":"Курортный город с wellness/SPA и активным отдыхом; рядом Ozren, Rtanj и Bovansko jezero.","sourceId":"manual:official-web-research:2026-09-13","provenanceUrl":"https://sokobanja.rs/","mapUrl":"https://www.google.com/maps/search/?api=1&query=Sokobanja%2C%20Serbia"}},
    {"type":"Feature","geometry":{"type":"Point","coordinates":[21.400833,43.036111]},"properties":{"id":"prolom-banja","name":"Prolom Banja","category":"spa-resort","profile":"mountain-spa","region":"Južna i Istočna Srbija","markerIcon":"place","description":"Горный курорт у Radan: термальные бассейны и wellness при курортном комплексе; рядом Đavolja Varoš.","sourceId":"manual:official-web-research:2026-09-13","provenanceUrl":"https://prolombanja.com/","mapUrl":"https://www.google.com/maps/search/?api=1&query=Prolom%20Banja%2C%20Serbia"}},
    {"type":"Feature","geometry":{"type":"Point","coordinates":[19.7906,45.1228]},"properties":{"id":"vrdnik","name":"Vrdnik","category":"spa-resort","profile":"wellness-resort","region":"Vojvodina","markerIcon":"place","description":"Термальное направление на Fruška gora: wellness-комплексы, монастыри, прогулки и винодельни в окрестностях.","sourceId":"manual:official-web-research:2026-09-13","provenanceUrl":"https://www.turorgirig.org.rs/","mapUrl":"https://www.google.com/maps/search/?api=1&query=Vrdnik%2C%20Serbia"}},
    {"type":"Feature","geometry":{"type":"Point","coordinates":[21.50694,43.42528]},"properties":{"id":"ribarska-banja","name":"Ribarska Banja","category":"spa-resort","profile":"rehabilitation-spa","region":"Šumadija i Zapadna Srbija","markerIcon":"place","description":"Спокойный курорт в районе Kruševac с исторической банной и реабилитационной инфраструктурой.","sourceId":"manual:official-web-research:2026-09-13","provenanceUrl":"http://www.ribarskabanja.rs/","mapUrl":"https://www.google.com/maps/search/?api=1&query=Ribarska%20Banja%2C%20Serbia"}},
    {"type":"Feature","geometry":{"type":"Point","coordinates":[21.035833,43.166111]},"properties":{"id":"lukovska-banja","name":"Lukovska Banja","category":"spa-resort","profile":"mountain-spa","region":"Južna i Istočna Srbija","markerIcon":"place","description":"Горный термальный курорт на склонах Kopaonik: открытые и закрытые бассейны, wellness и прогулки.","sourceId":"manual:official-web-research:2026-09-13","provenanceUrl":"https://lukovskabanja.com/","mapUrl":"https://www.google.com/maps/search/?api=1&query=Lukovska%20Banja%2C%20Serbia"}},
    {"type":"Feature","geometry":{"type":"Point","coordinates":[21.25,43.056]},"properties":{"id":"kursumlijska-banja","name":"Kuršumlijska Banja","category":"spa-resort","profile":"wellness-resort","region":"Južna i Istočna Srbija","markerIcon":"place","description":"Восстановленный курортный комплекс в долине Banjska reka: термальные бассейны, wellness и прогулочные зоны.","sourceId":"manual:official-web-research:2026-09-13","provenanceUrl":"https://kursumlijskabanja.rs/","mapUrl":"https://www.google.com/maps/search/?api=1&query=Kur%C5%A1umlijska%20Banja%2C%20Serbia"}},
    {"type":"Feature","geometry":{"type":"Point","coordinates":[20.18583,43.89806]},"properties":{"id":"ovcar-banja","name":"Ovčar Banja","category":"spa-resort","profile":"nature-spa","region":"Šumadija i Zapadna Srbija","markerIcon":"place","description":"Небольшая баня в Ovčarsko-kablarska klisura; сильная сторона — сочетание купания, монастырей, троп и ущелья.","sourceId":"manual:official-web-research:2026-09-13","provenanceUrl":"https://www.turizamcacak.rs/","mapUrl":"https://www.google.com/maps/search/?api=1&query=Ov%C4%8Dar%20Banja%2C%20Serbia"}},
    {"type":"Feature","geometry":{"type":"Point","coordinates":[19.1586,44.51383]},"properties":{"id":"banja-koviljaca","name":"Banja Koviljača","category":"spa-resort","profile":"city-spa","region":"Šumadija i Zapadna Srbija","markerIcon":"place","description":"Курортный парк у Loznica и Drina с гостиничной SPA- и реабилитационной инфраструктурой; рядом Gučevo.","sourceId":"manual:official-web-research:2026-09-13","provenanceUrl":"https://www.banjakoviljaca.rs/","mapUrl":"https://www.google.com/maps/search/?api=1&query=Banja%20Kovilja%C4%8Da%2C%20Serbia"}},
    {"type":"Feature","geometry":{"type":"Point","coordinates":[20.552611,44.307611]},"properties":{"id":"bukovicka-banja","name":"Bukovička Banja","category":"spa-resort","profile":"city-spa","region":"Šumadija i Zapadna Srbija","markerIcon":"place","description":"Банный парк внутри Aranđelovac: городской отдых, аквапарк и wellness; рядом Bukulja, Risovača и Orašac.","sourceId":"manual:official-web-research:2026-09-13","provenanceUrl":"https://arandjelovac.rs/o-arandjelovcu/bukovicka-banja/","mapUrl":"https://www.google.com/maps/search/?api=1&query=Bukovi%C4%8Dka%20Banja%2C%20Serbia"}},
    {"type":"Feature","geometry":{"type":"Point","coordinates":[20.229722,43.581111]},"properties":{"id":"ivanjica","name":"Ivanjica","category":"spa-resort","profile":"climatic-resort","region":"Šumadija i Zapadna Srbija","markerIcon":"place","description":"Климатический курорт, а не классическая термальная баня: основной формат — горный воздух, прогулки и поездки на Golija.","sourceId":"manual:official-web-research:2026-09-13","provenanceUrl":"https://www.serbia.travel/en/ivanjica-spa/","mapUrl":"https://www.google.com/maps/search/?api=1&query=Ivanjica%2C%20Serbia"}},
    {"type":"Feature","geometry":{"type":"Point","coordinates":[20.05,46.0667]},"properties":{"id":"kanjiza","name":"Kanjiža","category":"spa-resort","profile":"rehabilitation-spa","region":"Vojvodina","markerIcon":"place","description":"Северный курорт на Tisa с термальной и реабилитационной инфраструктурой; подходит для спокойного санаторного формата.","sourceId":"manual:official-web-research:2026-09-13","provenanceUrl":"https://www.banja-kanjiza.rs/","mapUrl":"https://www.google.com/maps/search/?api=1&query=Kanji%C5%BEa%2C%20Serbia"}},
    {"type":"Feature","geometry":{"type":"Point","coordinates":[20.48462,43.94936]},"properties":{"id":"gornja-trepca","name":"Gornja Trepča","category":"spa-resort","profile":"rehabilitation-spa","region":"Šumadija i Zapadna Srbija","markerIcon":"place","description":"Небольшой курорт рядом с Čačak, ориентированный прежде всего на реабилитацию и терапевтические бассейны.","sourceId":"manual:official-web-research:2026-09-13","provenanceUrl":"https://atomskabanja.rs/","mapUrl":"https://www.google.com/maps/search/?api=1&query=Gornja%20Trep%C4%8Da%2C%20Serbia"}},
    {"type":"Feature","geometry":{"type":"Point","coordinates":[22.006111,43.293333]},"properties":{"id":"niska-banja","name":"Niška Banja","category":"spa-resort","profile":"rehabilitation-spa","region":"Južna i Istočna Srbija","markerIcon":"place","description":"Классическая баня рядом с Niš: реабилитационная инфраструктура, термальная вода и удобное сочетание с поездкой в город.","sourceId":"manual:official-web-research:2026-09-13","provenanceUrl":"https://radonnb.co.rs/","mapUrl":"https://www.google.com/maps/search/?api=1&query=Ni%C5%A1ka%20Banja%2C%20Serbia"}},
    {"type":"Feature","geometry":{"type":"Point","coordinates":[21.6,42.783333]},"properties":{"id":"sijarinska-banja","name":"Sijarinska Banja","category":"spa-resort","profile":"rehabilitation-spa","region":"Južna i Istočna Srbija","markerIcon":"place","description":"Южносербский геотермальный курорт с гейзером, бассейнами и специализированной реабилитационной инфраструктурой.","sourceId":"manual:official-web-research:2026-09-13","provenanceUrl":"https://gejzer.rs/","mapUrl":"https://www.google.com/maps/search/?api=1&query=Sijarinska%20Banja%2C%20Serbia"}},
    {"type":"Feature","geometry":{"type":"Point","coordinates":[21.992222,42.555]},"properties":{"id":"vranjska-banja","name":"Vranjska Banja","category":"spa-resort","profile":"rehabilitation-spa","region":"Južna i Istočna Srbija","markerIcon":"place","description":"Курорт у Vranje с очень горячими геотермальными источниками и реабилитационной инфраструктурой.","sourceId":"manual:official-web-research:2026-09-13","provenanceUrl":"https://vranjskabanja.co.rs/en/","mapUrl":"https://www.google.com/maps/search/?api=1&query=Vranjska%20Banja%2C%20Serbia"}},
    {"type":"Feature","geometry":{"type":"Point","coordinates":[19.0304,45.67767]},"properties":{"id":"banja-junakovic","name":"Banja Junaković","category":"spa-resort","profile":"wellness-resort","region":"Vojvodina","markerIcon":"place","description":"Термальный комплекс возле Apatin: бассейны, wellness, парк и спортивная инфраструктура; удобен как самостоятельный отдых в западной Bačka.","sourceId":"manual:official-web-research:2026-09-13","provenanceUrl":"https://banja-junakovic.rs/","mapUrl":"https://www.google.com/maps/search/?api=1&query=Banja%20Junakovi%C4%87%2C%20Serbia"}},
    {"type":"Feature","geometry":{"type":"Point","coordinates":[20.15525,44.22286]},"properties":{"id":"banja-vrujci","name":"Banja Vrujci","category":"spa-resort","profile":"thermal-pools","region":"Šumadija i Zapadna Srbija","markerIcon":"place","description":"Банный посёлок у Mionica, известный бассейнами с минеральной водой; рядом Divčibare, Rajac и сельские маршруты.","sourceId":"manual:official-web-research:2026-09-13","provenanceUrl":"https://www.banja-vrujci.co.rs/","mapUrl":"https://www.google.com/maps/search/?api=1&query=Banja%20Vrujci%2C%20Serbia"}},
    {"type":"Feature","geometry":{"type":"Point","coordinates":[22.17379,43.92336]},"properties":{"id":"gamzigradska-banja","name":"Gamzigradska Banja","category":"spa-resort","profile":"rehabilitation-spa","region":"Južna i Istočna Srbija","markerIcon":"place","description":"Термальная баня у Zaječar с реабилитационным центром; поездку удобно сочетать с Felix Romuliana.","sourceId":"manual:official-web-research:2026-09-13","provenanceUrl":"https://www.gamzigradskabanja.org.rs/","mapUrl":"https://www.google.com/maps/search/?api=1&query=Gamzigradska%20Banja%2C%20Serbia"}},
    {"type":"Feature","geometry":{"type":"Point","coordinates":[20.752222,43.389167]},"properties":{"id":"josanicka-banja","name":"Jošanička Banja","category":"spa-resort","profile":"mountain-spa","region":"Šumadija i Zapadna Srbija","markerIcon":"place","description":"Небольшой курорт у подножия Kopaonik: балнеологическое купатило и удобная база для поездок в Raška и на Kopaonik.","sourceId":"manual:official-web-research:2026-09-13","provenanceUrl":"https://raskaturizam.rs/destination/josanicka-banja/","mapUrl":"https://www.google.com/maps/search/?api=1&query=Jo%C5%A1ani%C4%8Dka%20Banja%2C%20Serbia"}},
    {"type":"Feature","geometry":{"type":"Point","coordinates":[20.611283,43.6916]},"properties":{"id":"mataruska-banja","name":"Mataruška Banja","category":"spa-resort","profile":"rehabilitation-spa","region":"Šumadija i Zapadna Srbija","markerIcon":"place","description":"Банный посёлок у Ibar недалеко от Kraljevo; исторически связан с реабилитацией и спокойным парковым отдыхом.","sourceId":"manual:official-web-research:2026-09-13","provenanceUrl":"https://www.kraljevoturizam.rs/mataruska.html","mapUrl":"https://www.google.com/maps/search/?api=1&query=Mataru%C5%A1ka%20Banja%2C%20Serbia"}},
    {"type":"Feature","geometry":{"type":"Point","coordinates":[21.79729,42.46591]},"properties":{"id":"bujanovacka-banja","name":"Bujanovačka Banja","category":"spa-resort","profile":"rehabilitation-spa","region":"Južna i Istočna Srbija","markerIcon":"place","description":"Южный медицинско-курортный комплекс возле Bujanovac: термальная вода, peloid и специализированная реабилитация; туристический формат вторичен.","sourceId":"manual:official-web-research:2026-09-13","provenanceUrl":"https://www.serbia.travel/en/accommodations/%D0%B2%D1%80%D0%B5%D0%BB%D0%BE-2/","mapUrl":"https://www.google.com/maps/search/?api=1&query=Bujanova%C4%8Dka%20Banja%2C%20Serbia"}},
    {"type":"Feature","geometry":{"type":"Point","coordinates":[22.04394,44.06023]},"properties":{"id":"brestovacka-banja","name":"Brestovačka Banja","category":"spa-resort","profile":"historic-spa","region":"Južna i Istočna Srbija","markerIcon":"place","description":"Историческая баня возле Bor с минеральными источниками и старым хамамом; рядом Borsko jezero и природные маршруты восточной Сербии.","sourceId":"manual:official-web-research:2026-09-13","provenanceUrl":"https://www.serbia.travel/en/bor-lake/","mapUrl":"https://www.google.com/maps/search/?api=1&query=Brestova%C4%8Dka%20Banja%2C%20Serbia"}},
    {"type":"Feature","geometry":{"type":"Point","coordinates":[20.687814,44.427681]},"properties":{"id":"selters-banja","name":"Selters Banja","category":"spa-resort","profile":"rehabilitation-spa","region":"Beograd","markerIcon":"place","description":"Работающий реабилитационный курорт в Mladenovac: бассейны и сауна есть, но формат ближе к медицинскому центру, чем к resort-SPA.","sourceId":"manual:official-web-research:2026-09-13","provenanceUrl":"https://www.rehabilitacija.com/selters-mladenovac-2/","mapUrl":"https://www.google.com/maps/search/?api=1&query=Selters%20Banja%2C%20Serbia"}},
    {"type":"Feature","geometry":{"type":"Point","coordinates":[19.4273,45.9026]},"properties":{"id":"pacir","name":"Pačir — termalna banja","category":"spa-resort","profile":"thermal-lake","region":"Vojvodina","markerIcon":"place","description":"Термальное солёное озеро в Pačir с оборудованной зоной купания; это сезонное место для короткой поездки, а не большой курортный город.","sourceId":"manual:official-web-research:2026-09-13","provenanceUrl":"https://www.backatopola.org.rs/sta-raditi/termalna-banja-pacir/","mapUrl":"https://www.google.com/maps/search/?api=1&query=Pa%C4%8Dir%20termalna%20banja%2C%20Serbia"}},
    {"type":"Feature","geometry":{"type":"Point","coordinates":[21.03139,43.38435]},"properties":{"id":"bruska-banja","name":"Bruska banja","category":"spa-resort","profile":"developing-spa","region":"Šumadija i Zapadna Srbija","markerIcon":"place","description":"Термоминеральный источник в Brus. Полноценный банный и wellness-комплекс описан в муниципальном планировании и не должен восприниматься как уже готовый курорт.","sourceId":"manual:official-web-research:2026-09-13","provenanceUrl":"https://www.brus.ls.gov.rs/","mapUrl":"https://www.google.com/maps/search/?api=1&query=Bruska%20banja%2C%20Serbia"}},
    {"type":"Feature","geometry":{"type":"Point","coordinates":[19.56856,43.54617]},"properties":{"id":"pribojska-banja","name":"Pribojska Banja","category":"spa-resort","profile":"thermal-spa","region":"Šumadija i Zapadna Srbija","markerIcon":"place","description":"Термальный курорт рядом с Priboj: минеральные бассейны и SPA-программы; удобно сочетать с Lim, Zlatar, Uvac и монастырём Banja.","sourceId":"manual:official-web-research:2026-09-13","provenanceUrl":"https://www.topriboj.rs/","mapUrl":"https://www.google.com/maps/search/?api=1&query=Pribojska%20Banja%2C%20Serbia"}},
    {"type":"Feature","geometry":{"type":"Point","coordinates":[20.30318,45.52734]},"properties":{"id":"banja-rusanda","name":"Banja Rusanda","category":"spa-resort","profile":"rehabilitation-spa","region":"Vojvodina","markerIcon":"place","description":"Курорт в Melenci у солёного озера Rusanda: специализированная реабилитация, бассейн и wellness-услуги; формат преимущественно санаторный.","sourceId":"manual:official-web-research:2026-09-13","provenanceUrl":"https://banjarusanda.rs/","mapUrl":"https://www.google.com/maps/search/?api=1&query=Banja%20Rusanda%2C%20Serbia"}},
    {"type":"Feature","geometry":{"type":"Point","coordinates":[20.54512,43.15727]},"properties":{"id":"novopazarska-banja","name":"Novopazarska Banja","category":"spa-resort","profile":"wellness-resort","region":"Šumadija i Zapadna Srbija","markerIcon":"place","description":"Термальная баня рядом с Novi Pazar: бассейны, старый хамам и развивающаяся wellness-инфраструктура; удобно сочетать с городом и Stari Ras.","sourceId":"manual:official-web-research:2026-09-13","provenanceUrl":"https://tonp.rs/banje-novi-pazar/","mapUrl":"https://www.google.com/maps/search/?api=1&query=Novopazarska%20Banja%2C%20Serbia"}},
    {"type":"Feature","geometry":{"type":"Point","coordinates":[20.44433,43.149756]},"properties":{"id":"rajcinovica-banja","name":"Rajčinovića Banja","category":"spa-resort","profile":"thermal-spa","region":"Šumadija i Zapadna Srbija","markerIcon":"place","description":"Отдельная термальная баня в районе Novi Pazar с тёплыми источниками и бассейном; официальная туристическая организация города выделяет её отдельно от Novopazarska Banja.","sourceId":"manual:official-web-research:2026-09-13","provenanceUrl":"https://tonp.rs/banje-novi-pazar/","mapUrl":"https://www.google.com/maps/search/?api=1&query=Raj%C4%8Dinovi%C4%87a%20Banja%2C%20Serbia"}},
    {"type":"Feature","geometry":{"type":"Point","coordinates":[20.53706,43.65523]},"properties":{"id":"bogutovacka-banja","name":"Bogutovačka Banja","category":"spa-resort","profile":"nature-spa","region":"Šumadija i Zapadna Srbija","markerIcon":"place","description":"Тихая баня южнее Kraljevo на лесистых склонах Troglav; туристическая организация Кралево позиционирует её для спокойного отдыха и рекреации.","sourceId":"manual:official-web-research:2026-09-13","provenanceUrl":"https://www.kraljevoturizam.rs/bogutovacka.html","mapUrl":"https://www.google.com/maps/search/?api=1&query=Bogutova%C4%8Dka%20Banja%2C%20Serbia"}},
    {"type":"Feature","geometry":{"type":"Point","coordinates":[19.47737,44.48392]},"properties":{"id":"banja-badanja","name":"Banja Badanja","category":"spa-resort","profile":"small-spa","region":"Šumadija i Zapadna Srbija","markerIcon":"place","description":"Небольшая баня в районе Donja Badanja к востоку от Loznica; в актуальном каталоге TOS есть размещение с крытым бассейном, формат — тихий локальный курорт.","sourceId":"manual:official-web-research:2026-09-13","provenanceUrl":"https://www.serbia.travel/sr-lat/accommodations/%D0%B1%D0%B0%D1%9A%D0%B0-%D0%B1%D0%B0%D0%B4%D0%B0%D1%9A%D0%B0/","mapUrl":"https://www.google.com/maps/search/?api=1&query=Banja%20Badanja%2C%20Serbia"}}
  ]
}
